"STATION","DATE","REPORT_TYPE","SOURCE","AWND","BackupDirection","BackupDistance","BackupDistanceUnit","BackupElements","BackupElevation","BackupElevationUnit","BackupEquipment","BackupLatitude","BackupLongitude","BackupName","CDSD","CLDD","DSNW","DailyAverageDewPointTemperature","DailyAverageDryBulbTemperature","DailyAverageRelativeHumidity","DailyAverageSeaLevelPressure","DailyAverageStationPressure","DailyAverageWetBulbTemperature","DailyAverageWindSpeed","DailyCoolingDegreeDays","DailyDepartureFromNormalAverageTemperature","DailyHeatingDegreeDays","DailyMaximumDryBulbTemperature","DailyMinimumDryBulbTemperature","DailyPeakWindDirection","DailyPeakWindSpeed","DailyPrecipitation","DailySnowDepth","DailySnowfall","DailySustainedWindDirection","DailySustainedWindSpeed","DailyWeather","HDSD","HTDD","HeavyFog","HourlyAltimeterSetting","HourlyDewPointTemperature","HourlyDryBulbTemperature","HourlyPrecipitation","HourlyPresentWeatherType","HourlyPressureChange","HourlyPressureTendency","HourlyRelativeHumidity","HourlySeaLevelPressure","HourlySkyConditions","HourlyStationPressure","HourlyVisibility","HourlyWetBulbTemperature","HourlyWindDirection","HourlyWindGustSpeed","HourlyWindSpeed","MonthlyAverageRH","MonthlyDaysWithGT001Precip","MonthlyDaysWithGT010Precip","MonthlyDaysWithGT32Temp","MonthlyDaysWithGT90Temp","MonthlyDaysWithLT0Temp","MonthlyDaysWithLT32Temp","MonthlyDepartureFromNormalAverageTemperature","MonthlyDepartureFromNormalCoolingDegreeDays","MonthlyDepartureFromNormalHeatingDegreeDays","MonthlyDepartureFromNormalMaximumTemperature","MonthlyDepartureFromNormalMinimumTemperature","MonthlyDepartureFromNormalPrecipitation","MonthlyDewpointTemperature","MonthlyGreatestPrecip","MonthlyGreatestPrecipDate","MonthlyGreatestSnowDepth","MonthlyGreatestSnowDepthDate","MonthlyGreatestSnowfall","MonthlyGreatestSnowfallDate","MonthlyMaxSeaLevelPressureValue","MonthlyMaxSeaLevelPressureValueDate","MonthlyMaxSeaLevelPressureValueTime","MonthlyMaximumTemperature","MonthlyMeanTemperature","MonthlyMinSeaLevelPressureValue","MonthlyMinSeaLevelPressureValueDate","MonthlyMinSeaLevelPressureValueTime","MonthlyMinimumTemperature","MonthlySeaLevelPressure","MonthlyStationPressure","MonthlyTotalLiquidPrecipitation","MonthlyTotalSnowfall","MonthlyWetBulb","NormalsCoolingDegreeDay","NormalsHeatingDegreeDay","REM","REPORT_TYPE","SOURCE","ShortDurationEndDate005","ShortDurationEndDate010","ShortDurationEndDate015","ShortDurationEndDate020","ShortDurationEndDate030","ShortDurationEndDate045","ShortDurationEndDate060","ShortDurationEndDate080","ShortDurationEndDate100","ShortDurationEndDate120","ShortDurationEndDate150","ShortDurationEndDate180","ShortDurationPrecipitationValue005","ShortDurationPrecipitationValue010","ShortDurationPrecipitationValue015","ShortDurationPrecipitationValue020","ShortDurationPrecipitationValue030","ShortDurationPrecipitationValue045","ShortDurationPrecipitationValue060","ShortDurationPrecipitationValue080","ShortDurationPrecipitationValue100","ShortDurationPrecipitationValue120","ShortDurationPrecipitationValue150","ShortDurationPrecipitationValue180","Sunrise","Sunset","TStorms","WindEquipmentChangeDate"
"72208013880","2020-01-01T00:56:00","FM-15","7",,"SE","0.25","mi","TEMP, PRECIP, SNOW",,,"MMTS, SRG, SNOWBOARD",,,"WFO CHS",,,,,,,,,,,,,,,,,,,,,,,,,,,"29.96","32","50","0.00",,,,"50","29.96","CLR:00","29.91","10.00","42","270","21","15",,,,,,,,,,,,,,,,,,,,,,,,,,,,,,,,,,,,,"MET10701/01/20 00:56:02 METAR KCHS 010556Z 27013G18KT 10SM CLR 10/00 A2996 RMK AO2 SLP145 T01000000 10117 20094 $","FM-15","7",,,,,,,,,,,,,,,,,,,,,,,,,,,,"2009-06-10"
"72208013880","2020-01-01T01:00:00","FM-12","4",,"SE","0.25","mi","TEMP, PRECIP, SNOW",,,"MMTS, SRG, SNOWBOARD",,,"WFO CHS",,,,,,,,,,,,,,,,,,,,,,,,,,,"29.96","32","50",,,,,"50","29.96",,"29.91","9.94","42","270",,"15",,,,,,,,,,,,,,,,,,,,,,,,,,,,,,,,,,,,,"SYN08072208 32966 02713 10100 20000 30129 40145 90556 333 10156 20072 91018 555 90106=","FM-12","4",,,,,,,,,,,,,,,,,,,,,,,,,,,,"2009-06-10"
"72208013880","2020-01-01T01:56:00","FM-15","7",,"SE","0.25","mi","TEMP, PRECIP, SNOW",,,"MMTS, SRG, SNOWBOARD",,,"WFO CHS",,,,,,,,,,,,,,,,,,,,,,,,,,,"29.97","31","49","0.00",,,,"50","29.97","CLR:00","29.92","10.00","41","280",,"13",,,,,,,,,,,,,,,,,,,,,,,,,,,,,,,,,,,,,"MET09301/01/20 01:56:02 METAR KCHS 010656Z 28011KT 10SM CLR 09/M01 A2997 RMK AO2 SLP148 T00941006 $","FM-15","7",,,,,,,,,,,,,,,,,,,,,,,,,,,,"2009-06-10"
"72208013880","2020-01-01T02:56:00","FM-15","7",,"SE","0.25","mi","TEMP, PRECIP, SNOW",,,"MMTS, SRG, SNOWBOARD",,,"WFO CHS",,,,,,,,,,,,,,,,,,,,,,,,,,,"29.97","31","48","0.00",,,,"52","29.97","CLR:00","29.92","10.00","41","280",,"13",,,,,,,,,,,,,,,,,,,,,,,,,,,,,,,,,,,,,"MET09301/01/20 02:56:02 METAR KCHS 010756Z 28011KT 10SM CLR 09/M01 A2997 RMK AO2 SLP148 T00891006 $","FM-15","7",,,,,,,,,,,,,,,,,,,,,,,,,,,,"2009-06-10"
"72208013880","2020-01-01T03:56:00","FM-15","7",,"SE","0.25","mi","TEMP, PRECIP, SNOW",,,"MMTS, SRG, SNOWBOARD",,,"WFO CHS",,,,,,,,,,,,,,,,,,,,,,,,,,,"29.98","31","47","0.00",,"-0.02","1","54","29.97","CLR:00","29.93","10.00","40","270",,"9",,,,,,,,,,,,,,,,,,,,,,,,,,,,,,,,,,,,,"MET09901/01/20 03:56:02 METAR KCHS 010856Z 27008KT 10SM CLR 08/M01 A2998 RMK AO2 SLP150 T00831006 51006 $","FM-15","7",,,,,,,,,,,,,,,,,,,,,,,,,,,,"2009-06-10"
"72208013880","2020-01-01T04:00:00","FM-12","4",,"SE","0.25","mi","TEMP, PRECIP, SNOW",,,"MMTS, SRG, SNOWBOARD",,,"WFO CHS",,,,,,,,,,,,,,,,,,,,,,,,,,,"29.98","31","47",,,"-0.02","1","54","29.97",,"29.93","9.94","40","270",,"9",,,,,,,,,,,,,,,,,,,,,,,,,,,,,,,,,,,,,"SYN06472208 32966 02708 10083 21006 30136 40150 51006 90856 555 90109=","FM-12","4",,,,,,,,,,,,,,,,,,,,,,,,,,,,"2009-06-10"
"72208013880","2020-01-01T04:56:00","FM-15","7",,"SE","0.25","mi","TEMP, PRECIP, SNOW",,,"MMTS, SRG, SNOWBOARD",,,"WFO CHS",,,,,,,,,,,,,,,,,,,,,,,,,,,"29.98","31","46","0.00",,,,"56","29.98","CLR:00","29.93","10.00","40","280",,"9",,,,,,,,,,,,,,,,,,,,,,,,,,,,,,,,,,,,,"MET09301/01/20 04:56:02 METAR KCHS 010956Z 28008KT 10SM CLR 08/M01 A2998 RMK AO2 SLP151 T00781006 $","FM-15","7",,,,,,,,,,,,,,,,,,,,,,,,,,,,"2009-06-10"
"72208013880","2020-01-01T05:56:00","FM-15","7",,"SE","0.25","mi","TEMP, PRECIP, SNOW",,,"MMTS, SRG, SNOWBOARD",,,"WFO CHS",,,,,,,,,,,,,,,,,,,,,,,,,,,"30.00","31","44","0.00",,,,"60","29.99","CLR:00","29.95","10.00","39","280",,"7",,,,,,,,,,,,,,,,,,,,,,,,,,,,,,,,,,,,,"MET09301/01/20 05:56:02 METAR KCHS 011056Z 28006KT 10SM CLR 07/M01 A3000 RMK AO2 SLP157 T00671006 $","FM-15","7",,,,,,,,,,,,,,,,,,,,,,,,,,,,"2009-06-10"
"72208013880","2020-01-01T06:56:00","FM-15","7",,"SE","0.25","mi","TEMP, PRECIP, SNOW",,,"MMTS, SRG, SNOWBOARD",,,"WFO CHS",,,,,,,,,,,,,,,,,,,,,,,,,,,"30.01","31","43","0.00",,"-0.04","3","63","30.01","FEW:02 250","29.96","10.00","38","280",,"6",,,,,,,,,,,,,,,,,,,,,,,,,,,,,,,,,,,,,"MET11401/01/20 06:56:02 METAR KCHS 011156Z 28005KT 10SM FEW250 06/M01 A3001 RMK AO2 SLP162 T00611006 10100 20061 53012 $","FM-15","7",,,,,,,,,,,,,,,,,,,,,,,,,,,,"2009-06-10"
"72208013880","2020-01-01T07:00:00","FM-12","4",,"SE","0.25","mi","TEMP, PRECIP, SNOW",,,"MMTS, SRG, SNOWBOARD",,,"WFO CHS",,,,,,,,,,,,,,,,,,,,,,,,,,,"30.01","31","43",,,"-0.04","3","63","30.01",,"29.96","9.94","38","280",,"6",,,,,,,,,,,,,,,,,,,,,,,,,,,,,,,,,,,,,"SYN08072208 32966 22805 10061 21006 30146 40162 53012 91156 333 10172 20061 555 90112=","FM-12","4",,,,,,,,,,,,,,,,,,,,,,,,,,,,"2009-06-10"
"72208013880","2020-01-01T07:56:00","FM-15","7",,"SE","0.25","mi","TEMP, PRECIP, SNOW",,,"MMTS, SRG, SNOWBOARD",,,"WFO CHS",,,,,,,,,,,,,,,,,,,,,,,,,,,"30.03","32","43","0.00",,,,"65","30.03","FEW:02 250","29.98","10.00","38","280",,"6",,,,,,,,,,,,,,,,,,,,,,,,,,,,,,,,,,,,,"MET09501/01/20 07:56:02 METAR KCHS 011256Z 28005KT 10SM FEW250 06/00 A3003 RMK AO2 SLP168 T00610000 $","FM-15","7",,,,,,,,,,,,,,,,,,,,,,,,,,,,"2009-06-10"
"72208013880","2020-01-01T08:56:00","FM-15","7",,"SE","0.25","mi","TEMP, PRECIP, SNOW",,,"MMTS, SRG, SNOWBOARD",,,"WFO CHS",,,,,,,,,,,,,,,,,,,,,,,,,,,"30.05","31","46","0.00",,,,"56","30.05","FEW:02 250","30.00","10.00","40","300",,"10",,,,,,,,,,,,,,,,,,,,,,,,,,,,,,,,,,,,,"MET09601/01/20 08:56:02 METAR KCHS 011356Z 30009KT 10SM FEW250 08/M01 A3005 RMK AO2 SLP176 T00781006 $","FM-15","7",,,,,,,,,,,,,,,,,,,,,,,,,,,,"2009-06-10"
"72208013880","2020-01-01T09:56:00","FM-15","7",,"SE","0.25","mi","TEMP, PRECIP, SNOW",,,"MMTS, SRG, SNOWBOARD",,,"WFO CHS",,,,,,,,,,,,,,,,,,,,,,,,,,,"30.07","31","51","0.00",,"-0.05","1","46","30.06","FEW:02 250","30.02","10.00","42","310",,"11",,,,,,,,,,,,,,,,,,,,,,,,,,,,,,,,,,,,,"MET10201/01/20 09:56:02 METAR KCHS 011456Z 31010KT 10SM FEW250 11/M01 A3007 RMK AO2 SLP180 T01061006 51018 $","FM-15","7",,,,,,,,,,,,,,,,,,,,,,,,,,,,"2009-06-10"
"72208013880","2020-01-01T10:00:00","FM-12","4",,"SE","0.25","mi","TEMP, PRECIP, SNOW",,,"MMTS, SRG, SNOWBOARD",,,"WFO CHS",,,,,,,,,,,,,,,,,,,,,,,,,,,"30.07","31","51",,,"-0.05","1","46","30.06",,"30.02","9.94","42","310",,"11",,,,,,,,,,,,,,,,,,,,,,,,,,,,,,,,,,,,,"SYN06472208 32966 23110 10106 21006 30167 40180 51018 91456 555 90115=","FM-12","4",,,,,,,,,,,,,,,,,,,,,,,,,,,,"2009-06-10"
"72208013880","2020-01-01T10:56:00","FM-15","7",,"SE","0.25","mi","TEMP, PRECIP, SNOW",,,"MMTS, SRG, SNOWBOARD",,,"WFO CHS",,,,,,,,,,,,,,,,,,,,,,,,,,,"30.05","30","54","0.00",,,,"40","30.05","FEW:02 250","30.00","10.00","44","310",,"9",,,,,,,,,,,,,,,,,,,,,,,,,,,,,,,,,,,,,"MET09601/01/20 10:56:02 METAR KCHS 011556Z 31008KT 10SM FEW250 12/M01 A3005 RMK AO2 SLP175 T01221011 $","FM-15","7",,,,,,,,,,,,,,,,,,,,,,,,,,,,"2009-06-10"
"72208013880","2020-01-01T11:56:00","FM-15","7",,"SE","0.25","mi","TEMP, PRECIP, SNOW",,,"MMTS, SRG, SNOWBOARD",,,"WFO CHS",,,,,,,,,,,,,,,,,,,,,,,,,,,"30.02","30","57","0.00",,,,"36","30.02","SCT:04 250","29.97","10.00","45","280",,"9",,,,,,,,,,,,,,,,,,,,,,,,,,,,,,,,,,,,,"MET09601/01/20 11:56:02 METAR KCHS 011656Z 28008KT 10SM SCT250 14/M01 A3002 RMK AO2 SLP166 T01391011 $","FM-15","7",,,,,,,,,,,,,,,,,,,,,,,,,,,,"2009-06-10"
"72208013880","2020-01-01T12:56:00","FM-15","7",,"SE","0.25","mi","TEMP, PRECIP, SNOW",,,"MMTS, SRG, SNOWBOARD",,,"WFO CHS",,,,,,,,,,,,,,,,,,,,,,,,,,,"29.98","31","58","0.00",,,,"36","29.98","SCT:04 250","29.93","10.00","46","290","17","13",,,,,,,,,,,,,,,,,,,,,,,,,,,,,,,,,,,,,"MET11101/01/20 12:56:02 METAR KCHS 011756Z 29011G15KT 10SM SCT250 14/M01 A2998 RMK AO2 SLP152 T01441006 10150 20056 $","FM-15","7",,,,,,,,,,,,,,,,,,,,,,,,,,,,"2009-06-10"
"72208013880","2020-01-01T13:00:00","FM-12","4",,"SE","0.25","mi","TEMP, PRECIP, SNOW",,,"MMTS, SRG, SNOWBOARD",,,"WFO CHS",,,,,,,,,,,,,,,,,,,,,,,,,,,"29.98","31","58",,,,,"36","29.98",,"29.93","9.94","46","290",,"13",,,,,,,,,,,,,,,,,,,,,,,,,,,,,,,,,,,,,"SYN08072208 32966 42911 10144 21006 30136 40152 91756 333 10150 20056 91015 555 90118=","FM-12","4",,,,,,,,,,,,,,,,,,,,,,,,,,,,"2009-06-10"
"72208013880","2020-01-01T13:56:00","FM-15","7",,"SE","0.25","mi","TEMP, PRECIP, SNOW",,,"MMTS, SRG, SNOWBOARD",,,"WFO CHS",,,,,,,,,,,,,,,,,,,,,,,,,,,"29.96","30","60","0.00",,,,"32","29.96","SCT:04 250","29.91","10.00","47","290",,"10",,,,,,,,,,,,,,,,,,,,,,,,,,,,,,,,,,,,,"MET09601/01/20 13:56:02 METAR KCHS 011856Z 29009KT 10SM SCT250 16/M01 A2996 RMK AO2 SLP145 T01561011 $","FM-15","7",,,,,,,,,,,,,,,,,,,,,,,,,,,,"2009-06-10"
"72208013880","2020-01-01T14:56:00","FM-15","7",,"SE","0.25","mi","TEMP, PRECIP, SNOW",,,"MMTS, SRG, SNOWBOARD",,,"WFO CHS",,,,,,,,,,,,,,,,,,,,,,,,,,,"29.96","29","61","0.00",,,,"30","29.96","SCT:04 250","29.91","10.00","47","300",,"14",,,,,,,,,,,,,,,,,,,,,,,,,,,,,,,,,,,,,"MET09601/01/20 14:56:02 METAR KCHS 011956Z 30012KT 10SM SCT250 16/M02 A2996 RMK AO2 SLP146 T01611017 $","FM-15","7",,,,,,,,,,,,,,,,,,,,,,,,,,,,"2009-06-10"
"72208013880","2020-01-01T15:56:00","FM-15","7",,"SE","0.25","mi","TEMP, PRECIP, SNOW",,,"MMTS, SRG, SNOWBOARD",,,"WFO CHS",,,,,,,,,,,,,,,,,,,,,,,,,,,"29.98","29","61","0.00",,"+0.01","5","30","29.97","FEW:02 180 FEW:02 250","29.93","10.00","47","280",,"10",,,,,,,,,,,,,,,,,,,,,,,,,,,,,,,,,,,,,"MET10901/01/20 15:56:02 METAR KCHS 012056Z 28009KT 10SM FEW180 FEW250 16/M02 A2998 RMK AO2 SLP150 T01611017 55002 $","FM-15","7",,,,,,,,,,,,,,,,,,,,,,,,,,,,"2009-06-10"
"72208013880","2020-01-01T16:00:00","FM-12","4",,"SE","0.25","mi","TEMP, PRECIP, SNOW",,,"MMTS, SRG, SNOWBOARD",,,"WFO CHS",,,,,,,,,,,,,,,,,,,,,,,,,,,"29.98","29","61",,,"+0.01","5","30","29.97",,"29.93","9.94","47","280",,"10",,,,,,,,,,,,,,,,,,,,,,,,,,,,,,,,,,,,,"SYN06472208 32966 22809 10161 21017 30136 40150 55002 92056 555 90121=","FM-12","4",,,,,,,,,,,,,,,,,,,,,,,,,,,,"2009-06-10"
"72208013880","2020-01-01T16:56:00","FM-15","7",,"SE","0.25","mi","TEMP, PRECIP, SNOW",,,"MMTS, SRG, SNOWBOARD",,,"WFO CHS",,,,,,,,,,,,,,,,,,,,,,,,,,,"29.97","29","59","0.00",,,,"32","29.97","SCT:04 180 SCT:04 250","29.92","10.00","46","280",,"6",,,,,,,,,,,,,,,,,,,,,,,,,,,,,,,,,,,,,"MET10301/01/20 16:56:02 METAR KCHS 012156Z 28005KT 10SM SCT180 SCT250 15/M02 A2997 RMK AO2 SLP148 T01501017 $","FM-15","7",,,,,,,,,,,,,,,,,,,,,,,,,,,,"2009-06-10"
"72208013880","2020-01-01T17:56:00","FM-15","7",,"SE","0.25","mi","TEMP, PRECIP, SNOW",,,"MMTS, SRG, SNOWBOARD",,,"WFO CHS",,,,,,,,,,,,,,,,,,,,,,,,,,,"30.00","32","54","0.00",,,,"43","30.00","BKN:07 150 BKN:07 250","29.95","10.00","44","240",,"5",,,,,,,,,,,,,,,,,,,,,,,,,,,,,,,,,,,,,"MET10801/01/20 17:56:02 METAR KCHS 012256Z 24004KT 10SM BKN150 BKN250 12/00 A3000 RMK AO2 SLP158 T01220000 $ (BBE)","FM-15","7",,,,,,,,,,,,,,,,,,,,,,,,,,,,"2009-06-10"
"72208013880","2020-01-01T18:56:00","FM-15","7",,"SE","0.25","mi","TEMP, PRECIP, SNOW",,,"MMTS, SRG, SNOWBOARD",,,"WFO CHS",,,,,,,,,,,,,,,,,,,,,,,,,,,"30.02","33","51","0.00",,"-0.05","3","50","30.02","FEW:02 250","29.97","10.00","43","240",,"5",,,,,,,,,,,,,,,,,,,,,,,,,,,,,,,,,,,,,"MET11901/01/20 18:56:02 METAR KCHS 012356Z 24004KT 10SM FEW250 11/01 A3002 RMK AO2 SLP165 T01060006 10167 20106 53016 $ (BBE)","FM-15","7",,,,,,,,,,,,,,,,,,,,,,,,,,,,"2009-06-10"
"72208013880","2020-01-01T19:00:00","FM-12","4",,"SE","0.25","mi","TEMP, PRECIP, SNOW",,,"MMTS, SRG, SNOWBOARD",,,"WFO CHS",,,,,,,,,,,,,,,,,,,,,,,,,,,"30.02","33","51",,,"-0.05","3","50","30.02",,"29.97","9.94","43","240",,"5",,,,,,,,,,,,,,,,,,,,,,,,,,,,,,,,,,,,,"SYN08072208 32966 22404 10106 20006 30150 40165 53016 92356 333 10167 20061 555 90200=","FM-12","4",,,,,,,,,,,,,,,,,,,,,,,,,,,,"2009-06-10"
"72208013880","2020-01-01T19:56:00","FM-15","7",,"SE","0.25","mi","TEMP, PRECIP, SNOW",,,"MMTS, SRG, SNOWBOARD",,,"WFO CHS",,,,,,,,,,,,,,,,,,,,,,,,,,,"30.05","33","50","0.00",,,,"52","30.05","CLR:00","30.00","10.00","43","260",,"5",,,,,,,,,,,,,,,,,,,,,,,,,,,,,,,,,,,,,"MET09201/01/20 19:56:01 METAR KCHS 020056Z 26004KT 10SM CLR 10/01 A3005 RMK AO2 SLP175 T01000006 $","FM-15","7",,,,,,,,,,,,,,,,,,,,,,,,,,,,"2009-06-10"
"72208013880","2020-01-01T20:56:00","FM-15","7",,"SE","0.25","mi","TEMP, PRECIP, SNOW",,,"MMTS, SRG, SNOWBOARD",,,"WFO CHS",,,,,,,,,,,,,,,,,,,,,,,,,,,"30.06","33","47","0.00",,,,"59","30.06","SCT:04 150","30.01","10.00","41","000",,"0",,,,,,,,,,,,,,,,,,,,,,,,,,,,,,,,,,,,,"MET09501/01/20 20:56:01 METAR KCHS 020156Z 00000KT 10SM SCT150 08/01 A3006 RMK AO2 SLP179 T00830006 $","FM-15","7",,,,,,,,,,,,,,,,,,,,,,,,,,,,"2009-06-10"
"72208013880","2020-01-01T21:56:00","FM-15","7",,"SE","0.25","mi","TEMP, PRECIP, SNOW",,,"MMTS, SRG, SNOWBOARD",,,"WFO CHS",,,,,,,,,,,,,,,,,,,,,,,,,,,"30.06","34","47","0.00",,"-0.04","0","61","30.05","SCT:04 150 BKN:07 220","30.01","10.00","41","000",,"0",,,,,,,,,,,,,,,,,,,,,,,,,,,,,,,,,,,,,"MET10801/01/20 21:56:01 METAR KCHS 020256Z 00000KT 10SM SCT150 BKN220 08/01 A3006 RMK AO2 SLP177 T00830011 50012 $","FM-15","7",,,,,,,,,,,,,,,,,,,,,,,,,,,,"2009-06-10"
"72208013880","2020-01-01T22:00:00","FM-12","4",,"SE","0.25","mi","TEMP, PRECIP, SNOW",,,"MMTS, SRG, SNOWBOARD",,,"WFO CHS",,,,,,,,,,,,,,,,,,,,,,,,,,,"30.06","34","47",,,"0.04","9","61","30.05",,"30.01","9.94","41","000",,"0",,,,,,,,,,,,,,,,,,,,,,,,,,,,,,,,,,,,,"SYN06472208 32966 60000 10083 20011 30163 40177 50012 90256 555 90203=","FM-12","4",,,,,,,,,,,,,,,,,,,,,,,,,,,,"2009-06-10"
"72208013880","2020-01-01T22:56:00","FM-15","7",,"SE","0.25","mi","TEMP, PRECIP, SNOW",,,"MMTS, SRG, SNOWBOARD",,,"WFO CHS",,,,,,,,,,,,,,,,,,,,,,,,,,,"30.06","36","46","0.00",,,,"68","30.06","FEW:02 180 BKN:07 230","30.01","10.00","42","000",,"0",,,,,,,,,,,,,,,,,,,,,,,,,,,,,,,,,,,,,"MET10201/01/20 22:56:01 METAR KCHS 020356Z 00000KT 10SM FEW180 BKN230 08/02 A3006 RMK AO2 SLP180 T00780022 $","FM-15","7",,,,,,,,,,,,,,,,,,,,,,,,,,,,"2009-06-10"
"72208013880","2020-01-01T23:56:00","FM-15","7",,"SE","0.25","mi","TEMP, PRECIP, SNOW",,,"MMTS, SRG, SNOWBOARD",,,"WFO CHS",,,,,,,,,,,,,,,,,,,,,,,,,,,"30.06","35","47","0.00",,,,"63","30.06","BKN:07 230","30.01","10.00","42","000",,"0",,,,,,,,,,,,,,,,,,,,,,,,,,,,,,,,,,,,,"MET10501/01/20 23:56:02 METAR KCHS 020456Z 00000KT 10SM BKN230 08/02 A3006 RMK AO2 SLP180 T00830017 401670056 $","FM-15","7",,,,,,,,,,,,,,,,,,,,,,,,,,,,"2009-06-10"
"72208013880","2020-01-01T23:59:00","SOD  ","6",,"SE","0.25","mi","TEMP, PRECIP, SNOW",,,"MMTS, SRG, SNOWBOARD",,,"WFO CHS",,,,"32","52","49","30.01","29.96","42","7.7","0","3.8","13","62","42","270","24","0.00","0","0.0","300","16",,,,,,,,,,,,,,,,,,,,,,,,,,,,,,,,,,,,,,,,,,,,,,,,,,,,,,,,,"SOD74324 HR PRECIPITATION (IN): 0.00 SNOW DEPTH (IN):0     24 HR SNOWFALL (IN):0.0  24 HR MAX TEMP (F): 6224 HR MIN TEMP (F): 42AVERAGE STATION PRESSURE(D):29.958 MINIMUM SEA LEVEL PRESSURE:29.95 TIME OF OCCURRENCE:1439 PEAK WIND SPEED (MPH): 24 PEAK WIND DIR (DEG):270 PEAK WIND TIME (LST):      FASTEST 2MIN SPEED (MPH): 16FASTEST 2MIN DIR (DEG):300 FASTEST 2MIN TIME (LST):     AVERAGE WIND SPEED (MPH): 7.7 24 HR AVG TEMP (F): 52DEPART FROM NORMAL:  4  HEATING DEGREE DAYS: 13 COOLING DEGREE DAYS:  0 LATEST DAY MAX TEMP (0700-1900 LST): 62 LATEST NIGHT MIN TEMP(1900-0800 LST):42 HOURLY INCREMENTAL PRECIPITATION VALUES (IN):0.00 0.00 0.00 0.00 0.00 0.00 0.00 0.00 0.00 0.00 0.00 0.00 0.00 0.00 0.00 0.00 0.00 0.00 0.00 0.00 0.00 0.00 0.00 0.00","SOD  ","6",,,,,,,,,,,,,,,,,,,,,,,,,"0723","1725",,"2009-06-10"
"72208013880","2020-01-02T00:56:00","FM-15","7",,"SE","0.25","mi","TEMP, PRECIP, SNOW",,,"MMTS, SRG, SNOWBOARD",,,"WFO CHS",,,,,,,,,,,,,,,,,,,,,,,,,,,"30.05","36","45","0.00",,"+0.00","8","71","30.05","SCT:04 200","30.00","10.00","41","000",,"0",,,,,,,,,,,,,,,,,,,,,,,,,,,,,,,,,,,,,"MET11901/02/20 00:56:02 METAR KCHS 020556Z 00000KT 10SM SCT200 07/02 A3005 RMK AO2 SLP176 T00720022 10111 20056 58001 $ (KLJ)","FM-15","7",,,,,,,,,,,,,,,,,,,,,,,,,,,,"2009-06-10"
"72208013880","2020-01-02T01:00:00","FM-12","4",,"SE","0.25","mi","TEMP, PRECIP, SNOW",,,"MMTS, SRG, SNOWBOARD",,,"WFO CHS",,,,,,,,,,,,,,,,,,,,,,,,,,,"30.05","36","45",,,"+0.00","8","71","30.05",,"30.00","9.94","41","000",,"0",,,,,,,,,,,,,,,,,,,,,,,,,,,,,,,,,,,,,"SYN08072208 32966 40000 10072 20022 30160 40176 58001 90556 333 10111 20056 555 90206=","FM-12","4",,,,,,,,,,,,,,,,,,,,,,,,,,,,"2009-06-10"
"72208013880","2020-01-02T01:56:00","FM-15","7",,"SE","0.25","mi","TEMP, PRECIP, SNOW",,,"MMTS, SRG, SNOWBOARD",,,"WFO CHS",,,,,,,,,,,,,,,,,,,,,,,,,,,"30.05","36","41","0.00",,,,"82","30.05","SCT:04 200","30.00","10.00","39","000",,"0",,,,,,,,,,,,,,,,,,,,,,,,,,,,,,,,,,,,,"MET10101/02/20 01:56:02 METAR KCHS 020656Z 00000KT 10SM SCT200 05/02 A3005 RMK AO2 SLP176 T00500022 $ (KLJ)","FM-15","7",,,,,,,,,,,,,,,,,,,,,,,,,,,,"2009-06-10"
"72208013880","2020-01-02T02:56:00","FM-15","7",,"SE","0.25","mi","TEMP, PRECIP, SNOW",,,"MMTS, SRG, SNOWBOARD",,,"WFO CHS",,,,,,,,,,,,,,,,,,,,,,,,,,,"30.08","38","44","0.00",,,,"79","30.07","BKN:07 200","30.03","10.00","41","000",,"0",,,,,,,,,,,,,,,,,,,,,,,,,,,,,,,,,,,,,"MET10101/02/20 02:56:02 METAR KCHS 020756Z 00000KT 10SM BKN200 07/03 A3008 RMK AO2 SLP184 T00670033 $ (KLJ)","FM-15","7",,,,,,,,,,,,,,,,,,,,,,,,,,,,"2009-06-10"
"72208013880","2020-01-02T03:56:00","FM-15","7",,"SE","0.25","mi","TEMP, PRECIP, SNOW",,,"MMTS, SRG, SNOWBOARD",,,"WFO CHS",,,,,,,,,,,,,,,,,,,,,,,,,,,"30.07","38","41","0.00",,"-0.01","0","89","30.06","BKN:07 200","30.02","10.00","40","000",,"0",,,,,,,,,,,,,,,,,,,,,,,,,,,,,,,,,,,,,"MET10701/02/20 03:56:02 METAR KCHS 020856Z 00000KT 10SM BKN200 05/03 A3007 RMK AO2 SLP181 T00500033 50005 $ (KLJ)","FM-15","7",,,,,,,,,,,,,,,,,,,,,,,,,,,,"2009-06-10"
"72208013880","2020-01-02T04:00:00","FM-12","4",,"SE","0.25","mi","TEMP, PRECIP, SNOW",,,"MMTS, SRG, SNOWBOARD",,,"WFO CHS",,,,,,,,,,,,,,,,,,,,,,,,,,,"30.07","38","41",,,"0.01","9","89","30.06",,"30.02","9.94","40","000",,"0",,,,,,,,,,,,,,,,,,,,,,,,,,,,,,,,,,,,,"SYN06472208 32966 60000 10050 20033 30167 40181 50005 90856 555 90209=","FM-12","4",,,,,,,,,,,,,,,,,,,,,,,,,,,,"2009-06-10"
"72208013880","2020-01-02T04:56:00","FM-15","7",,"SE","0.25","mi","TEMP, PRECIP, SNOW",,,"MMTS, SRG, SNOWBOARD",,,"WFO CHS",,,,,,,,,,,,,,,,,,,,,,,,,,,"30.08","39","44","0.00",,,,"83","30.08","BKN:07 180","30.03","10.00","42","000",,"0",,,,,,,,,,,,,,,,,,,,,,,,,,,,,,,,,,,,,"MET10101/02/20 04:56:02 METAR KCHS 020956Z 00000KT 10SM BKN180 07/04 A3008 RMK AO2 SLP185 T00670039 $ (KLJ)","FM-15","7",,,,,,,,,,,,,,,,,,,,,,,,,,,,"2009-06-10"
"72208013880","2020-01-02T05:56:00","FM-15","7",,"SE","0.25","mi","TEMP, PRECIP, SNOW",,,"MMTS, SRG, SNOWBOARD",,,"WFO CHS",,,,,,,,,,,,,,,,,,,,,,,,,,,"30.09","41","44","0.00",,,,"89","30.09","BKN:07 180","30.04","10.00","43","000",,"0",,,,,,,,,,,,,,,,,,,,,,,,,,,,,,,,,,,,,"MET10101/02/20 05:56:02 METAR KCHS 021056Z 00000KT 10SM BKN180 07/05 A3009 RMK AO2 SLP190 T00670050 $ (KLJ)","FM-15","7",,,,,,,,,,,,,,,,,,,,,,,,,,,,"2009-06-10"
"72208013880","2020-01-02T06:56:00","FM-15","7",,"SE","0.25","mi","TEMP, PRECIP, SNOW",,,"MMTS, SRG, SNOWBOARD",,,"WFO CHS",,,,,,,,,,,,,,,,,,,,,,,,,,,"30.10","41","46","0.00",,"-0.03","1","83","30.10","FEW:02 40 FEW:02 110 BKN:07 160","30.05","10.00","44","000",,"0",,,,,,,,,,,,,,,,,,,,,,,,,,,,,,,,,,,,,"MET13301/02/20 06:56:02 METAR KCHS 021156Z 00000KT 10SM FEW040 FEW110 BKN160 08/05 A3010 RMK AO2 SLP193 T00780050 10083 20050 51011 $ (KLJ)","FM-15","7",,,,,,,,,,,,,,,,,,,,,,,,,,,,"2009-06-10"
"72208013880","2020-01-02T07:00:00","FM-12","4",,"SE","0.25","mi","TEMP, PRECIP, SNOW",,,"MMTS, SRG, SNOWBOARD",,,"WFO CHS",,,,,,,,,,,,,,,,,,,,,,,,,,,"30.10","41","46",,,"-0.03","1","83","30.10","41","30.05","9.94","44","000",,"0",,,,,,,,,,,,,,,,,,,,,,,,,,,,,,,,,,,,,"SYN08072208 32666 60000 10078 20050 30177 40193 51011 91156 333 10167 20050 555 90212=","FM-12","4",,,,,,,,,,,,,,,,,,,,,,,,,,,,"2009-06-10"
"72208013880","2020-01-02T07:56:00","FM-15","7",,"SE","0.25","mi","TEMP, PRECIP, SNOW",,,"MMTS, SRG, SNOWBOARD",,,"WFO CHS",,,,,,,,,,,,,,,,,,,,,,,,,,,"30.10","42","47","0.00",,,,"83","30.09","BKN:07 150","30.05","10.00","45","000",,"0",,,,,,,,,,,,,,,,,,,,,,,,,,,,,,,,,,,,,"MET10101/02/20 07:56:02 METAR KCHS 021256Z 00000KT 10SM BKN150 08/06 A3010 RMK AO2 SLP190 T00830056 $ (JMB)","FM-15","7",,,,,,,,,,,,,,,,,,,,,,,,,,,,"2009-06-10"
"72208013880","2020-01-02T08:56:00","FM-15","7",,"SE","0.25","mi","TEMP, PRECIP, SNOW",,,"MMTS, SRG, SNOWBOARD",,,"WFO CHS",,,,,,,,,,,,,,,,,,,,,,,,,,,"30.11","41","50","0.00",,,,"71","30.11","BKN:07 150","30.06","10.00","46","000",,"0",,,,,,,,,,,,,,,,,,,,,,,,,,,,,,,,,,,,,"MET10101/02/20 08:56:02 METAR KCHS 021356Z 00000KT 10SM BKN150 10/05 A3011 RMK AO2 SLP197 T01000050 $ (JMB)","FM-15","7",,,,,,,,,,,,,,,,,,,,,,,,,,,,"2009-06-10"
"72208013880","2020-01-02T09:56:00","FM-15","7",,"SE","0.25","mi","TEMP, PRECIP, SNOW",,,"MMTS, SRG, SNOWBOARD",,,"WFO CHS",,,,,,,,,,,,,,,,,,,,,,,,,,,"30.13","41","53","0.00",,"-0.03","3","64","30.13","BKN:07 120","30.08","10.00","47","180",,"5",,,,,,,,,,,,,,,,,,,,,,,,,,,,,,,,,,,,,"MET10701/02/20 09:56:02 METAR KCHS 021456Z 18004KT 10SM BKN120 12/05 A3013 RMK AO2 SLP202 T01170050 53010 $ (JMB)","FM-15","7",,,,,,,,,,,,,,,,,,,,,,,,,,,,"2009-06-10"
"72208013880","2020-01-02T10:00:00","FM-12","4",,"SE","0.25","mi","TEMP, PRECIP, SNOW",,,"MMTS, SRG, SNOWBOARD",,,"WFO CHS",,,,,,,,,,,,,,,,,,,,,,,,,,,"30.13","41","53",,,"-0.03","3","64","30.13",,"30.08","9.94","47","180",,"5",,,,,,,,,,,,,,,,,,,,,,,,,,,,,,,,,,,,,"SYN06472208 32966 61804 10117 20050 30187 40202 53010 91456 555 90215=","FM-12","4",,,,,,,,,,,,,,,,,,,,,,,,,,,,"2009-06-10"
"72208013880","2020-01-02T10:56:00","FM-15","7",,"SE","0.25","mi","TEMP, PRECIP, SNOW",,,"MMTS, SRG, SNOWBOARD",,,"WFO CHS",,,,,,,,,,,,,,,,,,,,,,,,,,,"30.13","35","56","0.00",,,,"46","30.12","BKN:07 120","30.08","10.00","46","180",,"7",,,,,,,,,,,,,,,,,,,,,,,,,,,,,,,,,,,,,"MET10101/02/20 10:56:02 METAR KCHS 021556Z 18006KT 10SM BKN120 13/02 A3013 RMK AO2 SLP200 T01330017 $ (JMB)","FM-15","7",,,,,,,,,,,,,,,,,,,,,,,,,,,,"2009-06-10"
"72208013880","2020-01-02T11:56:00","FM-15","7",,"SE","0.25","mi","TEMP, PRECIP, SNOW",,,"MMTS, SRG, SNOWBOARD",,,"WFO CHS",,,,,,,,,,,,,,,,,,,,,,,,,,,"30.11","41","57","0.00",,,,"55","30.11","BKN:07 100","30.06","10.00","49","210",,"6",,,,,,,,,,,,,,,,,,,,,,,,,,,,,,,,,,,,,"MET10101/02/20 11:56:02 METAR KCHS 021656Z 21005KT 10SM BKN100 14/05 A3011 RMK AO2 SLP196 T01390050 $ (JMB)","FM-15","7",,,,,,,,,,,,,,,,,,,,,,,,,,,,"2009-06-10"
"72208013880","2020-01-02T12:56:00","FM-15","7",,"SE","0.25","mi","TEMP, PRECIP, SNOW",,,"MMTS, SRG, SNOWBOARD",,,"WFO CHS",,,,,,,,,,,,,,,,,,,,,,,,,,,"30.07","39","59","0.00",,"+0.06","8","48","30.07","BKN:07 100","30.02","10.00","49","200",,"5",,,,,,,,,,,,,,,,,,,,,,,,,,,,,,,,,,,,,"MET11901/02/20 12:56:02 METAR KCHS 021756Z 20004KT 10SM BKN100 15/04 A3007 RMK AO2 SLP182 T01500039 10150 20078 58020 $ (JMB)","FM-15","7",,,,,,,,,,,,,,,,,,,,,,,,,,,,"2009-06-10"
"72208013880","2020-01-02T13:00:00","FM-12","4",,"SE","0.25","mi","TEMP, PRECIP, SNOW",,,"MMTS, SRG, SNOWBOARD",,,"WFO CHS",,,,,,,,,,,,,,,,,,,,,,,,,,,"30.07","39","59",,,"+0.06","8","48","30.07",,"30.02","9.94","49","200",,"5",,,,,,,,,,,,,,,,,,,,,,,,,,,,,,,,,,,,,"SYN08072208 32966 62004 10150 20039 30167 40182 58020 91756 333 10150 20078 555 90218=","FM-12","4",,,,,,,,,,,,,,,,,,,,,,,,,,,,"2009-06-10"
"72208013880","2020-01-02T13:56:00","FM-15","7",,"SE","0.25","mi","TEMP, PRECIP, SNOW",,,"MMTS, SRG, SNOWBOARD",,,"WFO CHS",,,,,,,,,,,,,,,,,,,,,,,,,,,"30.07","37","58","0.00",,,,"46","30.07","BKN:07 80","30.02","10.00","48","200",,"5",,,,,,,,,,,,,,,,,,,,,,,,,,,,,,,,,,,,,"MET10101/02/20 13:56:02 METAR KCHS 021856Z 20004KT 10SM BKN080 14/03 A3007 RMK AO2 SLP182 T01440028 $ (JMB)","FM-15","7",,,,,,,,,,,,,,,,,,,,,,,,,,,,"2009-06-10"
"72208013880","2020-01-02T14:56:00","FM-15","7",,"SE","0.25","mi","TEMP, PRECIP, SNOW",,,"MMTS, SRG, SNOWBOARD",,,"WFO CHS",,,,,,,,,,,,,,,,,,,,,,,,,,,"30.07","37","58","0.00",,,,"46","30.07","OVC:08 75","30.02","10.00","48","000",,"0",,,,,,,,,,,,,,,,,,,,,,,,,,,,,,,,,,,,,"MET10101/02/20 14:56:02 METAR KCHS 021956Z 00000KT 10SM OVC075 14/03 A3007 RMK AO2 SLP182 T01440028 $ (JMB)","FM-15","7",,,,,,,,,,,,,,,,,,,,,,,,,,,,"2009-06-10"
"72208013880","2020-01-02T15:56:00","FM-15","7",,"SE","0.25","mi","TEMP, PRECIP, SNOW",,,"MMTS, SRG, SNOWBOARD",,,"WFO CHS",,,,,,,,,,,,,,,,,,,,,,,,,,,"30.07","37","59","0.00",,"-0.00","3","44","30.07","OVC:08 70","30.02","10.00","49","000",,"0",,,,,,,,,,,,,,,,,,,,,,,,,,,,,,,,,,,,,"MET10701/02/20 15:56:02 METAR KCHS 022056Z 00000KT 10SM OVC070 15/03 A3007 RMK AO2 SLP183 T01500028 53001 $ (BBE)","FM-15","7",,,,,,,,,,,,,,,,,,,,,,,,,,,,"2009-06-10"
"72208013880","2020-01-02T16:00:00","FM-12","4",,"SE","0.25","mi","TEMP, PRECIP, SNOW",,,"MMTS, SRG, SNOWBOARD",,,"WFO CHS",,,,,,,,,,,,,,,,,,,,,,,,,,,"30.07","37","59",,,"-0.00","3","44","30.07","74","30.02","9.94","49","000",,"0",,,,,,,,,,,,,,,,,,,,,,,,,,,,,,,,,,,,,"SYN06472208 32866 80000 10150 20028 30167 40183 53001 92056 555 90221=","FM-12","4",,,,,,,,,,,,,,,,,,,,,,,,,,,,"2009-06-10"
"72208013880","2020-01-02T16:56:00","FM-15","7",,"SE","0.25","mi","TEMP, PRECIP, SNOW",,,"MMTS, SRG, SNOWBOARD",,,"WFO CHS",,,,,,,,,,,,,,,,,,,,,,,,,,,"30.06","39","58","0.00",,,,"50","30.06","FEW:02 55 BKN:07 75 BKN:07 110","30.01","10.00","49","120",,"5",,,,,,,,,,,,,,,,,,,,,,,,,,,,,,,,,,,,,"MET11501/02/20 16:56:02 METAR KCHS 022156Z 12004KT 10SM FEW055 BKN075 BKN110 14/04 A3006 RMK AO2 SLP179 T01440039 $ (BBE)","FM-15","7",,,,,,,,,,,,,,,,,,,,,,,,,,,,"2009-06-10"
"72208013880","2020-01-02T17:56:00","FM-15","7",,"SE","0.25","mi","TEMP, PRECIP, SNOW",,,"MMTS, SRG, SNOWBOARD",,,"WFO CHS",,,,,,,,,,,,,,,,,,,,,,,,,,,"30.05","43","57","0.00",,,,"60","30.05","SCT:04 70 BKN:07 110","30.00","10.00","50","110",,"6",,,,,,,,,,,,,,,,,,,,,,,,,,,,,,,,,,,,,"MET10801/02/20 17:56:02 METAR KCHS 022256Z 11005KT 10SM SCT070 BKN110 14/06 A3005 RMK AO2 SLP176 T01390061 $ (BBE)","FM-15","7",,,,,,,,,,,,,,,,,,,,,,,,,,,,"2009-06-10"
"72208013880","2020-01-02T18:56:00","FM-15","7",,"SE","0.25","mi","TEMP, PRECIP, SNOW",,,"MMTS, SRG, SNOWBOARD",,,"WFO CHS",,,,,,,,,,,,,,,,,,,,,,,,,,,"30.05","43","56","0.00",,"+0.02","6","62","30.04","SCT:04 110 BKN:07 150","30.00","10.00","50","120",,"9",,,,,,,,,,,,,,,,,,,,,,,,,,,,,,,,,,,,,"MET12601/02/20 18:56:02 METAR KCHS 022356Z 12008KT 10SM SCT110 BKN150 13/06 A3005 RMK AO2 SLP174 T01330061 10150 20128 56008 $ (BBE)","FM-15","7",,,,,,,,,,,,,,,,,,,,,,,,,,,,"2009-06-10"
"72208013880","2020-01-02T19:00:00","FM-12","4",,"SE","0.25","mi","TEMP, PRECIP, SNOW",,,"MMTS, SRG, SNOWBOARD",,,"WFO CHS",,,,,,,,,,,,,,,,,,,,,,,,,,,"30.05","43","56",,,"+0.02","6","62","30.04",,"30.00","9.94","50","120",,"9",,,,,,,,,,,,,,,,,,,,,,,,,,,,,,,,,,,,,"SYN08072208 32966 61208 10133 20061 30160 40174 56008 92356 333 10150 20050 555 90300=","FM-12","4",,,,,,,,,,,,,,,,,,,,,,,,,,,,"2009-06-10"
"72208013880","2020-01-02T19:56:00","FM-15","7",,"SE","0.25","mi","TEMP, PRECIP, SNOW",,,"MMTS, SRG, SNOWBOARD",,,"WFO CHS",,,,,,,,,,,,,,,,,,,,,,,,,,,"30.04","44","56","0.00",,,,"65","30.04","BKN:07 110 BKN:07 150","29.99","10.00","50","120",,"6",,,,,,,,,,,,,,,,,,,,,,,,,,,,,,,,,,,,,"MET10201/02/20 19:56:01 METAR KCHS 030056Z 12005KT 10SM BKN110 BKN150 13/07 A3004 RMK AO2 SLP173 T01330067 $","FM-15","7",,,,,,,,,,,,,,,,,,,,,,,,,,,,"2009-06-10"
"72208013880","2020-01-02T20:56:00","FM-15","7",,"SE","0.25","mi","TEMP, PRECIP, SNOW",,,"MMTS, SRG, SNOWBOARD",,,"WFO CHS",,,,,,,,,,,,,,,,,,,,,,,,,,,"30.03","45","54","0.00",,,,"72","30.02","SCT:04 110 SCT:04 150","29.98","10.00","49","140",,"7",,,,,,,,,,,,,,,,,,,,,,,,,,,,,,,,,,,,,"MET10201/02/20 20:56:01 METAR KCHS 030156Z 14006KT 10SM SCT110 SCT150 12/07 A3003 RMK AO2 SLP167 T01220072 $","FM-15","7",,,,,,,,,,,,,,,,,,,,,,,,,,,,"2009-06-10"
"72208013880","2020-01-02T21:56:00","FM-15","7",,"SE","0.25","mi","TEMP, PRECIP, SNOW",,,"MMTS, SRG, SNOWBOARD",,,"WFO CHS",,,,,,,,,,,,,,,,,,,,,,,,,,,"30.01","47","54","0.00",,"+0.04","8","77","30.01","SCT:04 110","29.96","10.00","50","140",,"7",,,,,,,,,,,,,,,,,,,,,,,,,,,,,,,,,,,,,"MET10101/02/20 21:56:01 METAR KCHS 030256Z 14006KT 10SM SCT110 12/08 A3001 RMK AO2 SLP163 T01220083 58012 $","FM-15","7",,,,,,,,,,,,,,,,,,,,,,,,,,,,"2009-06-10"
"72208013880","2020-01-02T22:00:00","FM-12","4",,"SE","0.25","mi","TEMP, PRECIP, SNOW",,,"MMTS, SRG, SNOWBOARD",,,"WFO CHS",,,,,,,,,,,,,,,,,,,,,,,,,,,"30.01","47","54",,,"+0.04","8","77","30.01",,"29.96","9.94","50","140",,"7",,,,,,,,,,,,,,,,,,,,,,,,,,,,,,,,,,,,,"SYN06472208 32966 41406 10122 20083 30146 40163 58012 90256 555 90303=","FM-12","4",,,,,,,,,,,,,,,,,,,,,,,,,,,,"2009-06-10"
"72208013880","2020-01-02T22:56:00","FM-15","7",,"SE","0.25","mi","TEMP, PRECIP, SNOW",,,"MMTS, SRG, SNOWBOARD",,,"WFO CHS",,,,,,,,,,,,,,,,,,,,,,,,,,,"30.00","51","57","0.00",,,,"81","30.00","FEW:02 55 SCT:04 85","29.95","10.00","54","150",,"7",,,,,,,,,,,,,,,,,,,,,,,,,,,,,,,,,,,,,"MET10201/02/20 22:56:01 METAR KCHS 030356Z 15006KT 10SM FEW055 SCT085 14/11 A3000 RMK AO2 SLP158 T01390106 $","FM-15","7",,,,,,,,,,,,,,,,,,,,,,,,,,,,"2009-06-10"
"72208013880","2020-01-02T23:56:00","FM-15","7",,"SE","0.25","mi","TEMP, PRECIP, SNOW",,,"MMTS, SRG, SNOWBOARD",,,"WFO CHS",,,,,,,,,,,,,,,,,,,,,,,,,,,"29.99","54","57","0.00",,,,"90","29.98","FEW:02 55 FEW:02 80","29.94","10.00","55","170",,"7",,,,,,,,,,,,,,,,,,,,,,,,,,,,,,,,,,,,,"MET11201/02/20 23:56:02 METAR KCHS 030456Z 17006KT 10SM FEW055 FEW080 14/12 A2999 RMK AO2 SLP154 T01390122 401500050 $","FM-15","7",,,,,,,,,,,,,,,,,,,,,,,,,,,,"2009-06-10"
"72208013880","2020-01-02T23:59:00","SOD  ","6",,"SE","0.25","mi","TEMP, PRECIP, SNOW",,,"MMTS, SRG, SNOWBOARD",,,"WFO CHS",,,,"41","50","68","30.06","30.01","47","3.3","0","1.9","15","59","41","140","15","0.00","0","0.0","130","12",,,,,,,,,,,,,,,,,,,,,,,,,,,,,,,,,,,,,,,,,,,,,,,,,,,,,,,,,"SOD73924 HR PRECIPITATION (IN): 0.00 SNOW DEPTH (IN):0     24 HR SNOWFALL (IN):0.0  24 HR MAX TEMP (F): 5924 HR MIN TEMP (F): 41AVERAGE STATION PRESSURE:30.010 MINIMUM SEA LEVEL PRESSURE:29.98 TIME OF OCCURRENCE:2359 PEAK WIND SPEED (MPH): 15 PEAK WIND DIR (DEG):140 PEAK WIND TIME (LST):      FASTEST 2MIN SPEED (MPH): 12FASTEST 2MIN DIR (DEG):130 FASTEST 2MIN TIME (LST):     AVERAGE WIND SPEED (MPH): 3.3 24 HR AVG TEMP (F): 50DEPART FROM NORMAL:  2  HEATING DEGREE DAYS: 15 COOLING DEGREE DAYS:  0 LATEST DAY MAX TEMP (0700-1900 LST):59  LATEST NIGHT MIN TEMP(1900-0800 LST):41 HOURLY INCREMENTAL PRECIPITATION VALUES (IN):.00 0.00 0.00 0.00 0.00 0.00 0.00 0.00 0.00 0.00 0.00 0.00 0.00 0.00 0.00 0.00 0.00 0.00 0.00 0.00 0.00 0.00 0.00 0.00","SOD  ","6",,,,,,,,,,,,,,,,,,,,,,,,,"0723","1726",,"2009-06-10"
"72208013880","2020-01-03T00:56:00","FM-15","7",,"SE","0.25","mi","TEMP, PRECIP, SNOW",,,"MMTS, SRG, SNOWBOARD",,,"WFO CHS",,,,,,,,,,,,,,,,,,,,,,,,,,,"29.97","57","59","0.00",,"+0.04","8","93","29.96","FEW:02 40 FEW:02 80","29.92","10.00","58","190",,"7",,,,,,,,,,,,,,,,,,,,,,,,,,,,,,,,,,,,,"MET12601/03/20 00:56:02 METAR KCHS 030556Z 19006KT 10SM FEW040 FEW080 15/14 A2997 RMK AO2 SLP147 T01500139 10156 20117 58015 $ (KLJ)","FM-15","7",,,,,,,,,,,,,,,,,,,,,,,,,,,,"2009-06-10"
"72208013880","2020-01-03T01:00:00","FM-12","4",,"SE","0.25","mi","TEMP, PRECIP, SNOW",,,"MMTS, SRG, SNOWBOARD",,,"WFO CHS",,,,,,,,,,,,,,,,,,,,,,,,,,,"29.97","57","59",,,"+0.04","8","93","29.96","41","29.92","9.94","58","190",,"7",,,,,,,,,,,,,,,,,,,,,,,,,,,,,,,,,,,,,"SYN08072208 32666 21906 10150 20139 30133 40147 58015 90556 333 10156 20050 555 90306=","FM-12","4",,,,,,,,,,,,,,,,,,,,,,,,,,,,"2009-06-10"
"72208013880","2020-01-03T01:56:00","FM-15","7",,"SE","0.25","mi","TEMP, PRECIP, SNOW",,,"MMTS, SRG, SNOWBOARD",,,"WFO CHS",,,,,,,,,,,,,,,,,,,,,,,,,,,"29.97","63","65","0.00",,,,"93","29.96","FEW:02 30 FEW:02 50","29.92","10.00","64","210",,"7",,,,,,,,,,,,,,,,,,,,,,,,,,,,,,,,,,,,,"MET10801/03/20 01:56:02 METAR KCHS 030656Z 21006KT 10SM FEW030 FEW050 18/17 A2997 RMK AO2 SLP147 T01830172 $ (KLJ)","FM-15","7",,,,,,,,,,,,,,,,,,,,,,,,,,,,"2009-06-10"
"72208013880","2020-01-03T02:56:00","FM-15","7",,"SE","0.25","mi","TEMP, PRECIP, SNOW",,,"MMTS, SRG, SNOWBOARD",,,"WFO CHS",,,,,,,,,,,,,,,,,,,,,,,,,,,"29.96","65","68","0.00",,,,"90","29.96","FEW:02 30 BKN:07 55","29.91","10.00","66","200","24","14",,,,,,,,,,,,,,,,,,,,,,,,,,,,,,,,,,,,,"MET11101/03/20 02:56:02 METAR KCHS 030756Z 20012G21KT 10SM FEW030 BKN055 20/18 A2996 RMK AO2 SLP146 T02000183 $ (KLJ)","FM-15","7",,,,,,,,,,,,,,,,,,,,,,,,,,,,"2009-06-10"
"72208013880","2020-01-03T03:56:00","FM-15","7",,"SE","0.25","mi","TEMP, PRECIP, SNOW",,,"MMTS, SRG, SNOWBOARD",,,"WFO CHS",,,,,,,,,,,,,,,,,,,,,,,,,,,"29.97","66","69","0.00",,"-0.01","3","90","29.97","FEW:02 42 SCT:04 48 BKN:07 65","29.92","10.00","67","220",,"16",,,,,,,,,,,,,,,,,,,,,,,,,,,,,,,,,,,,,"MET12101/03/20 03:56:02 METAR KCHS 030856Z 22014KT 10SM FEW042 SCT048 BKN065 21/19 A2997 RMK AO2 SLP149 T02060189 53002 $ (KLJ)","FM-15","7",,,,,,,,,,,,,,,,,,,,,,,,,,,,"2009-06-10"
"72208013880","2020-01-03T04:00:00","FM-12","4",,"SE","0.25","mi","TEMP, PRECIP, SNOW",,,"MMTS, SRG, SNOWBOARD",,,"WFO CHS",,,,,,,,,,,,,,,,,,,,,,,,,,,"29.97","66","69",,,"-0.01","3","90","29.97","41","29.92","9.94","67","220",,"16",,,,,,,,,,,,,,,,,,,,,,,,,,,,,,,,,,,,,"SYN06472208 32666 62214 10206 20189 30133 40149 53002 90856 555 90309=","FM-12","4",,,,,,,,,,,,,,,,,,,,,,,,,,,,"2009-06-10"
"72208013880","2020-01-03T04:56:00","FM-15","7",,"SE","0.25","mi","TEMP, PRECIP, SNOW",,,"MMTS, SRG, SNOWBOARD",,,"WFO CHS",,,,,,,,,,,,,,,,,,,,,,,,,,,"29.98","65","69","0.00",,,,"87","29.97","FEW:02 25 FEW:02 50 SCT:04 65","29.93","10.00","66","210",,"14",,,,,,,,,,,,,,,,,,,,,,,,,,,,,,,,,,,,,"MET11501/03/20 04:56:02 METAR KCHS 030956Z 21012KT 10SM FEW025 FEW050 SCT065 21/18 A2998 RMK AO2 SLP150 T02060183 $ (KLJ)","FM-15","7",,,,,,,,,,,,,,,,,,,,,,,,,,,,"2009-06-10"
"72208013880","2020-01-03T05:56:00","FM-15","7",,"SE","0.25","mi","TEMP, PRECIP, SNOW",,,"MMTS, SRG, SNOWBOARD",,,"WFO CHS",,,,,,,,,,,,,,,,,,,,,,,,,,,"29.98","64","68","0.00",,,,"87","29.98","FEW:02 25 FEW:02 42 SCT:04 70","29.93","8.00","66","210","21","14",,,,,,,,,,,,,,,,,,,,,,,,,,,,,,,,,,,,,"MET11701/03/20 05:56:02 METAR KCHS 031056Z 21012G18KT 8SM FEW025 FEW042 SCT070 20/18 A2998 RMK AO2 SLP151 T02000178 $ (KLJ)","FM-15","7",,,,,,,,,,,,,,,,,,,,,,,,,,,,"2009-06-10"
"72208013880","2020-01-03T06:56:00","FM-15","7",,"SE","0.25","mi","TEMP, PRECIP, SNOW",,,"MMTS, SRG, SNOWBOARD",,,"WFO CHS",,,,,,,,,,,,,,,,,,,,,,,,,,,"29.98","63","66","0.00",,"-0.01","3","90","29.98","FEW:02 30 FEW:02 50 BKN:07 65","29.93","8.00","64","210",,"9",,,,,,,,,,,,,,,,,,,,,,,,,,,,,,,,,,,,,"MET13201/03/20 06:56:02 METAR KCHS 031156Z 21008KT 8SM FEW030 FEW050 BKN065 19/17 A2998 RMK AO2 SLP152 T01890172 10206 20150 53003 $ (KLJ)","FM-15","7",,,,,,,,,,,,,,,,,,,,,,,,,,,,"2009-06-10"
"72208013880","2020-01-03T07:00:00","FM-12","4",,"SE","0.25","mi","TEMP, PRECIP, SNOW",,,"MMTS, SRG, SNOWBOARD",,,"WFO CHS",,,,,,,,,,,,,,,,,,,,,,,,,,,"29.98","63","66",,,"-0.01","3","90","29.98","26","29.93","7.46","64","210",,"9",,,,,,,,,,,,,,,,,,,,,,,,,,,,,,,,,,,,,"SYN08072208 32562 62108 10189 20172 30136 40152 53003 91156 333 10150 20117 555 90312=","FM-12","4",,,,,,,,,,,,,,,,,,,,,,,,,,,,"2009-06-10"
"72208013880","2020-01-03T07:56:00","FM-15","7",,"SE","0.25","mi","TEMP, PRECIP, SNOW",,,"MMTS, SRG, SNOWBOARD",,,"WFO CHS",,,,,,,,,,,,,,,,,,,,,,,,,,,"29.99","63","66","0.00",,,,"90","29.99","SCT:04 70 BKN:07 250","29.94","10.00","64","200",,"7",,,,,,,,,,,,,,,,,,,,,,,,,,,,,,,,,,,,,"MET10801/03/20 07:56:02 METAR KCHS 031256Z 20006KT 10SM SCT070 BKN250 19/17 A2999 RMK AO2 SLP156 T01890172 $ (JMB)","FM-15","7",,,,,,,,,,,,,,,,,,,,,,,,,,,,"2009-06-10"
"72208013880","2020-01-03T08:56:00","FM-15","7",,"SE","0.25","mi","TEMP, PRECIP, SNOW",,,"MMTS, SRG, SNOWBOARD",,,"WFO CHS",,,,,,,,,,,,,,,,,,,,,,,,,,,"30.00","64","68","0.00",,,,"87","30.00","FEW:02 65 SCT:04 150 BKN:07 250","29.95","10.00","66","200",,"14",,,,,,,,,,,,,,,,,,,,,,,,,,,,,,,,,,,,,"MET11501/03/20 08:56:02 METAR KCHS 031356Z 20012KT 10SM FEW065 SCT150 BKN250 20/18 A3000 RMK AO2 SLP159 T02000178 $ (JMB)","FM-15","7",,,,,,,,,,,,,,,,,,,,,,,,,,,,"2009-06-10"
"72208013880","2020-01-03T09:56:00","FM-15","7",,"SE","0.25","mi","TEMP, PRECIP, SNOW",,,"MMTS, SRG, SNOWBOARD",,,"WFO CHS",,,,,,,,,,,,,,,,,,,,,,,,,,,"30.02","64","70","0.00",,"-0.04","3","82","30.02","FEW:02 13 BKN:07 70","29.97","10.00","66","210","28","20",,,,,,,,,,,,,,,,,,,,,,,,,,,,,,,,,,,,,"MET11701/03/20 09:56:02 METAR KCHS 031456Z 21017G24KT 10SM FEW013 BKN070 21/18 A3002 RMK AO2 SLP166 T02110178 53014 $ (JMB)","FM-15","7",,,,,,,,,,,,,,,,,,,,,,,,,,,,"2009-06-10"
"72208013880","2020-01-03T10:00:00","FM-12","4",,"SE","0.25","mi","TEMP, PRECIP, SNOW",,,"MMTS, SRG, SNOWBOARD",,,"WFO CHS",,,,,,,,,,,,,,,,,,,,,,,,,,,"30.02","64","70",,,"-0.04","3","82","30.02","15","29.97","9.94","66","210",,"20",,,,,,,,,,,,,,,,,,,,,,,,,,,,,,,,,,,,,"SYN07472208 32466 62117 10211 20178 30150 40166 53014 91456 333 91024 555 90315=","FM-12","4",,,,,,,,,,,,,,,,,,,,,,,,,,,,"2009-06-10"
"72208013880","2020-01-03T10:04:00","FM-16","7",,"SE","0.25","mi","TEMP, PRECIP, SNOW",,,"MMTS, SRG, SNOWBOARD",,,"WFO CHS",,,,,,,,,,,,,,,,,,,,,,,,,,,"30.02","65","70",,,,,"84",,"BKN:07 13 BKN:07 70","29.97","10.00","67","220","29","21",,,,,,,,,,,,,,,,,,,,,,,,,,,,,,,,,,,,,"MET10401/03/20 10:04:02 SPECI KCHS 031504Z 22018G25KT 10SM BKN013 BKN070 21/18 A3002 RMK AO2 T02110183 $ (JMB)","FM-16","7",,,,,,,,,,,,,,,,,,,,,,,,,,,,"2009-06-10"
"72208013880","2020-01-03T10:51:00","FM-16","7",,"SE","0.25","mi","TEMP, PRECIP, SNOW",,,"MMTS, SRG, SNOWBOARD",,,"WFO CHS",,,,,,,,,,,,,,,,,,,,,,,,,,,"30.01","64","72",,,,,"78",,"SCT:04 15 BKN:07 70","29.96","10.00","67","200",,"13",,,,,,,,,,,,,,,,,,,,,,,,,,,,,,,,,,,,,"MET10901/03/20 10:51:02 SPECI KCHS 031551Z 20011KT 10SM SCT015 BKN070 22/18 A3001 RMK AO2 PK WND 22027/1505 $ (JMB)","FM-16","7",,,,,,,,,,,,,,,,,,,,,,,,,,,,"2009-06-10"
"72208013880","2020-01-03T10:56:00","FM-15","7",,"SE","0.25","mi","TEMP, PRECIP, SNOW",,,"MMTS, SRG, SNOWBOARD",,,"WFO CHS",,,,,,,,,,,,,,,,,,,,,,,,,,,"30.01","65","71","0.00",,,,"81","30.00","SCT:04 15 BKN:07 70","29.96","10.00","67","200",,"16",,,,,,,,,,,,,,,,,,,,,,,,,,,,,,,,,,,,,"MET12601/03/20 10:56:02 METAR KCHS 031556Z 20014KT 10SM SCT015 BKN070 22/18 A3001 RMK AO2 PK WND 22027/1505 SLP160 T02170183 $ (JMB)","FM-15","7",,,,,,,,,,,,,,,,,,,,,,,,,,,,"2009-06-10"
"72208013880","2020-01-03T11:50:00","FM-16","7",,"SE","0.25","mi","TEMP, PRECIP, SNOW",,,"MMTS, SRG, SNOWBOARD",,,"WFO CHS",,,,,,,,,,,,,,,,,,,,,,,,,,,"29.99","65","72",,,,,"79",,"BKN:07 17 BKN:07 70","29.94","10.00","68","230",,"14",,,,,,,,,,,,,,,,,,,,,,,,,,,,,,,,,,,,,"MET10101/03/20 11:50:02 SPECI KCHS 031650Z 23012KT 10SM BKN017 BKN070 22/18 A2999 RMK AO2 T02220183 $ (JMB)","FM-16","7",,,,,,,,,,,,,,,,,,,,,,,,,,,,"2009-06-10"
"72208013880","2020-01-03T11:56:00","FM-15","7",,"SE","0.25","mi","TEMP, PRECIP, SNOW",,,"MMTS, SRG, SNOWBOARD",,,"WFO CHS",,,,,,,,,,,,,,,,,,,,,,,,,,,"29.98","65","71","0.00",,,,"81","29.98","BKN:07 17 BKN:07 70","29.93","10.00","67","220","29","18",,,,,,,,,,,,,,,,,,,,,,,,,,,,,,,,,,,,,"MET11101/03/20 11:56:02 METAR KCHS 031656Z 22016G25KT 10SM BKN017 BKN070 22/18 A2998 RMK AO2 SLP152 T02170183 $ (JMB)","FM-15","7",,,,,,,,,,,,,,,,,,,,,,,,,,,,"2009-06-10"
"72208013880","2020-01-03T12:11:00","FM-16","7",,"SE","0.25","mi","TEMP, PRECIP, SNOW",,,"MMTS, SRG, SNOWBOARD",,,"WFO CHS",,,,,,,,,,,,,,,,,,,,,,,,,,,"29.97","65","70",,,,,"84",,"BKN:07 13","29.92","10.00","67","220","28","16",,,,,,,,,,,,,,,,,,,,,,,,,,,,,,,,,,,,,"MET09701/03/20 12:11:02 SPECI KCHS 031711Z 22014G24KT 10SM BKN013 21/18 A2997 RMK AO2 T02110183 $ (JMB)","FM-16","7",,,,,,,,,,,,,,,,,,,,,,,,,,,,"2009-06-10"
"72208013880","2020-01-03T12:56:00","FM-15","7",,"SE","0.25","mi","TEMP, PRECIP, SNOW",,,"MMTS, SRG, SNOWBOARD",,,"WFO CHS",,,,,,,,,,,,,,,,,,,,,,,,,,,"29.95","65","70","0.00",,"+0.07","8","84","29.95","BKN:07 10","29.90","10.00","67","200",,"11",,,,,,,,,,,,,,,,,,,,,,,,,,,,,,,,,,,,,"MET11901/03/20 12:56:02 METAR KCHS 031756Z 20010KT 10SM BKN010 21/18 A2995 RMK AO2 SLP142 T02110183 10228 20189 58024 $ (JMB)","FM-15","7",,,,,,,,,,,,,,,,,,,,,,,,,,,,"2009-06-10"
"72208013880","2020-01-03T13:00:00","FM-12","4",,"SE","0.25","mi","TEMP, PRECIP, SNOW",,,"MMTS, SRG, SNOWBOARD",,,"WFO CHS",,,,,,,,,,,,,,,,,,,,,,,,,,,"29.95","65","70",,,"+0.07","8","84","29.95","15","29.90","9.94","67","200",,"11",,,,,,,,,,,,,,,,,,,,,,,,,,,,,,,,,,,,,"SYN08072208 32466 62010 10211 20183 30126 40142 58024 91756 333 10228 20128 555 90318=","FM-12","4",,,,,,,,,,,,,,,,,,,,,,,,,,,,"2009-06-10"
"72208013880","2020-01-03T13:51:00","FM-16","7",,"SE","0.25","mi","TEMP, PRECIP, SNOW",,,"MMTS, SRG, SNOWBOARD",,,"WFO CHS",,,,,,,,,,,,,,,,,,,,,,,,,,,"29.93","64","68",,,,,"88",,"OVC:08 7","29.88","10.00","66","210",,"16",,,,,,,,,,,,,,,,,,,,,,,,,,,,,,,,,,,,,"MET08401/03/20 13:51:02 SPECI KCHS 031851Z 21014KT 10SM OVC007 20/18 A2993 RMK AO2 $ (JMB)","FM-16","7",,,,,,,,,,,,,,,,,,,,,,,,,,,,"2009-06-10"
"72208013880","2020-01-03T13:56:00","FM-15","7",,"SE","0.25","mi","TEMP, PRECIP, SNOW",,,"MMTS, SRG, SNOWBOARD",,,"WFO CHS",,,,,,,,,,,,,,,,,,,,,,,,,,,"29.93","65","68","0.00",,,,"90","29.93","OVC:08 7","29.88","10.00","66","210",,"14",,,,,,,,,,,,,,,,,,,,,,,,,,,,,,,,,,,,,"MET10101/03/20 13:56:02 METAR KCHS 031856Z 21012KT 10SM OVC007 20/18 A2993 RMK AO2 SLP134 T02000183 $ (JMB)","FM-15","7",,,,,,,,,,,,,,,,,,,,,,,,,,,,"2009-06-10"
"72208013880","2020-01-03T14:56:00","FM-15","7",,"SE","0.25","mi","TEMP, PRECIP, SNOW",,,"MMTS, SRG, SNOWBOARD",,,"WFO CHS",,,,,,,,,,,,,,,,,,,,,,,,,,,"29.91","65","69","0.00",,,,"87","29.91","OVC:08 8","29.86","10.00","66","200","25","16",,,,,,,,,,,,,,,,,,,,,,,,,,,,,,,,,,,,,"MET10401/03/20 14:56:02 METAR KCHS 031956Z 20014G22KT 10SM OVC008 21/18 A2991 RMK AO2 SLP127 T02060183 $ (JMB)","FM-15","7",,,,,,,,,,,,,,,,,,,,,,,,,,,,"2009-06-10"
"72208013880","2020-01-03T15:56:00","FM-15","7",,"SE","0.25","mi","TEMP, PRECIP, SNOW",,,"MMTS, SRG, SNOWBOARD",,,"WFO CHS",,,,,,,,,,,,,,,,,,,,,,,,,,,"29.92","65","68","0.00",,"+0.04","5","90","29.91","OVC:08 8","29.87","9.00","66","190",,"18",,,,,,,,,,,,,,,,,,,,,,,,,,,,,,,,,,,,,"MET10601/03/20 15:56:02 METAR KCHS 032056Z 19016KT 9SM OVC008 20/18 A2992 RMK AO2 SLP129 T02000183 55013 $ (BBE)","FM-15","7",,,,,,,,,,,,,,,,,,,,,,,,,,,,"2009-06-10"
"72208013880","2020-01-03T16:00:00","FM-12","4",,"SE","0.25","mi","TEMP, PRECIP, SNOW",,,"MMTS, SRG, SNOWBOARD",,,"WFO CHS",,,,,,,,,,,,,,,,,,,,,,,,,,,"29.92","65","68",,,"+0.04","5","90","29.91","8","29.87","8.70","66","190",,"18",,,,,,,,,,,,,,,,,,,,,,,,,,,,,,,,,,,,,"SYN06472208 32364 81916 10200 20183 30116 40129 55013 92056 555 90321=","FM-12","4",,,,,,,,,,,,,,,,,,,,,,,,,,,,"2009-06-10"
"72208013880","2020-01-03T16:56:00","FM-15","7",,"SE","0.25","mi","TEMP, PRECIP, SNOW",,,"MMTS, SRG, SNOWBOARD",,,"WFO CHS",,,,,,,,,,,,,,,,,,,,,,,,,,,"29.91","66","68","0.00",,,,"93","29.91","OVC:08 8","29.86","10.00","67","200",,"10",,,,,,,,,,,,,,,,,,,,,,,,,,,,,,,,,,,,,"MET11301/03/20 16:56:02 METAR KCHS 032156Z 20009KT 10SM OVC008 20/19 A2991 RMK AO2 CIG 007V011 SLP129 T02000189 $ (BBE)","FM-15","7",,,,,,,,,,,,,,,,,,,,,,,,,,,,"2009-06-10"
"72208013880","2020-01-03T17:03:00","FM-16","7",,"SE","0.25","mi","TEMP, PRECIP, SNOW",,,"MMTS, SRG, SNOWBOARD",,,"WFO CHS",,,,,,,,,,,,,,,,,,,,,,,,,,,"29.91","66","68",,,,,"93",,"OVC:08 10","29.86","10.00","67","210",,"9",,,,,,,,,,,,,,,,,,,,,,,,,,,,,,,,,,,,,"MET10601/03/20 17:03:02 SPECI KCHS 032203Z 21008KT 10SM OVC010 20/19 A2991 RMK AO2 CIG 008V012 T02000189 $ (BBE)","FM-16","7",,,,,,,,,,,,,,,,,,,,,,,,,,,,"2009-06-10"
"72208013880","2020-01-03T17:56:00","FM-15","7",,"SE","0.25","mi","TEMP, PRECIP, SNOW",,,"MMTS, SRG, SNOWBOARD",,,"WFO CHS",,,,,,,,,,,,,,,,,,,,,,,,,,,"29.93","66","68","0.00",,,,"93","29.93","OVC:08 10","29.88","10.00","67","200",,"9",,,,,,,,,,,,,,,,,,,,,,,,,,,,,,,,,,,,,"MET10101/03/20 17:56:02 METAR KCHS 032256Z 20008KT 10SM OVC010 20/19 A2993 RMK AO2 SLP135 T02000189 $ (BBE)","FM-15","7",,,,,,,,,,,,,,,,,,,,,,,,,,,,"2009-06-10"
"72208013880","2020-01-03T18:40:00","FM-16","7",,"SE","0.25","mi","TEMP, PRECIP, SNOW",,,"MMTS, SRG, SNOWBOARD",,,"WFO CHS",,,,,,,,,,,,,,,,,,,,,,,,,,,"29.93","65","67",,,,,"93",,"SCT:04 10","29.88","10.00","66","190",,"10",,,,,,,,,,,,,,,,,,,,,,,,,,,,,,,,,,,,,"MET09401/03/20 18:40:02 SPECI KCHS 032340Z 19009KT 10SM SCT010 19/18 A2993 RMK AO2 T01940183 $ (BBE)","FM-16","7",,,,,,,,,,,,,,,,,,,,,,,,,,,,"2009-06-10"
"72208013880","2020-01-03T18:56:00","FM-15","7",,"SE","0.25","mi","TEMP, PRECIP, SNOW",,,"MMTS, SRG, SNOWBOARD",,,"WFO CHS",,,,,,,,,,,,,,,,,,,,,,,,,,,"29.93","65","67","0.00",,"-0.02","3","93","29.93","SCT:04 10","29.88","10.00","66","200",,"10",,,,,,,,,,,,,,,,,,,,,,,,,,,,,,,,,,,,,"MET11901/03/20 18:56:02 METAR KCHS 032356Z 20009KT 10SM SCT010 19/18 A2993 RMK AO2 SLP135 T01940183 10211 20194 53006 $ (BBE)","FM-15","7",,,,,,,,,,,,,,,,,,,,,,,,,,,,"2009-06-10"
"72208013880","2020-01-03T19:00:00","FM-12","4",,"SE","0.25","mi","TEMP, PRECIP, SNOW",,,"MMTS, SRG, SNOWBOARD",,,"WFO CHS",,,,,,,,,,,,,,,,,,,,,,,,,,,"29.93","65","67",,,"-0.02","3","93","29.93","15","29.88","9.94","66","200",,"10",,,,,,,,,,,,,,,,,,,,,,,,,,,,,,,,,,,,,"SYN08072208 32466 42009 10194 20183 30119 40135 53006 92356 333 10228 20150 555 90400=","FM-12","4",,,,,,,,,,,,,,,,,,,,,,,,,,,,"2009-06-10"
"72208013880","2020-01-03T19:56:00","FM-15","7",,"SE","0.25","mi","TEMP, PRECIP, SNOW",,,"MMTS, SRG, SNOWBOARD",,,"WFO CHS",,,,,,,,,,,,,,,,,,,,,,,,,,,"29.94","65","67","0.00",,,,"93","29.93","SCT:04 10","29.89","10.00","66","200",,"10",,,,,,,,,,,,,,,,,,,,,,,,,,,,,,,,,,,,,"MET09501/03/20 19:56:01 METAR KCHS 040056Z 20009KT 10SM SCT010 19/18 A2994 RMK AO2 SLP137 T01940183 $","FM-15","7",,,,,,,,,,,,,,,,,,,,,,,,,,,,"2009-06-10"
"72208013880","2020-01-03T20:56:00","FM-15","7",,"SE","0.25","mi","TEMP, PRECIP, SNOW",,,"MMTS, SRG, SNOWBOARD",,,"WFO CHS",,,,,,,,,,,,,,,,,,,,,,,,,,,"29.94","66","67","0.00",,,,"97","29.93","FEW:02 10","29.89","10.00","66","200",,"11",,,,,,,,,,,,,,,,,,,,,,,,,,,,,,,,,,,,,"MET09501/03/20 20:56:01 METAR KCHS 040156Z 20010KT 10SM FEW010 19/19 A2994 RMK AO2 SLP137 T01940189 $","FM-15","7",,,,,,,,,,,,,,,,,,,,,,,,,,,,"2009-06-10"
"72208013880","2020-01-03T21:56:00","FM-15","7",,"SE","0.25","mi","TEMP, PRECIP, SNOW",,,"MMTS, SRG, SNOWBOARD",,,"WFO CHS",,,,,,,,,,,,,,,,,,,,,,,,,,,"29.94","66","69","0.00",,"-0.01","1","90","29.94","FEW:02 10","29.89","10.00","67","210","28","21",,,,,,,,,,,,,,,,,,,,,,,,,,,,,,,,,,,,,"MET10401/03/20 21:56:01 METAR KCHS 040256Z 21018G24KT 10SM FEW010 21/19 A2994 RMK AO2 SLP138 T02060189 51002 $","FM-15","7",,,,,,,,,,,,,,,,,,,,,,,,,,,,"2009-06-10"
"72208013880","2020-01-03T22:00:00","FM-12","4",,"SE","0.25","mi","TEMP, PRECIP, SNOW",,,"MMTS, SRG, SNOWBOARD",,,"WFO CHS",,,,,,,,,,,,,,,,,,,,,,,,,,,"29.94","66","69",,,"-0.01","1","90","29.94","15","29.89","9.94","67","210",,"21",,,,,,,,,,,,,,,,,,,,,,,,,,,,,,,,,,,,,"SYN07472208 32466 22118 10206 20189 30123 40138 51002 90256 333 91024 555 90403=","FM-12","4",,,,,,,,,,,,,,,,,,,,,,,,,,,,"2009-06-10"
"72208013880","2020-01-03T22:56:00","FM-15","7",,"SE","0.25","mi","TEMP, PRECIP, SNOW",,,"MMTS, SRG, SNOWBOARD",,,"WFO CHS",,,,,,,,,,,,,,,,,,,,,,,,,,,"29.93","66","69","0.00",,,,"90","29.93","CLR:00","29.88","10.00","67","210","26","16",,,,,,,,,,,,,,,,,,,,,,,,,,,,,,,,,,,,,"MET09501/03/20 22:56:01 METAR KCHS 040356Z 21014G23KT 10SM CLR 21/19 A2993 RMK AO2 SLP135 T02060189 $","FM-15","7",,,,,,,,,,,,,,,,,,,,,,,,,,,,"2009-06-10"
"72208013880","2020-01-03T23:56:00","FM-15","7",,"SE","0.25","mi","TEMP, PRECIP, SNOW",,,"MMTS, SRG, SNOWBOARD",,,"WFO CHS",,,,,,,,,,,,,,,,,,,,,,,,,,,"29.92","66","69","0.00",,,,"90","29.91","FEW:02 10","29.87","10.00","67","210","25","15",,,,,,,,,,,,,,,,,,,,,,,,,,,,,,,,,,,,,"MET10801/03/20 23:56:02 METAR KCHS 040456Z 21013G22KT 10SM FEW010 21/19 A2992 RMK AO2 SLP130 T02060189 402280144 $","FM-15","7",,,,,,,,,,,,,,,,,,,,,,,,,,,,"2009-06-10"
"72208013880","2020-01-03T23:59:00","SOD  ","6",,"SE","0.25","mi","TEMP, PRECIP, SNOW",,,"MMTS, SRG, SNOWBOARD",,,"WFO CHS",,,,"65","66","89","29.95","29.91","66","13.3","1","18.0","0","73","58","220","31","0.00","0","0.0","200","24",,,,,,,,,,,,,,,,,,,,,,,,,,,,,,,,,,,,,,,,,,,,,,,,,,,,,,,,,"SOD73924 HR PRECIPITATION (IN): 0.00 SNOW DEPTH (IN):0     24 HR SNOWFALL (IN):0.0  24 HR MAX TEMP (F): 7324 HR MIN TEMP (F): 58AVERAGE STATION PRESSURE:29.905 MINIMUM SEA LEVEL PRESSURE:29.90 TIME OF OCCURRENCE:1538 PEAK WIND SPEED (MPH): 31 PEAK WIND DIR (DEG):220 PEAK WIND TIME (LST):      FASTEST 2MIN SPEED (MPH): 24FASTEST 2MIN DIR (DEG):200 FASTEST 2MIN TIME (LST):     AVERAGE WIND SPEED (MPH):13.3 24 HR AVG TEMP (F): 66DEPART FROM NORMAL: 18  HEATING DEGREE DAYS:  0 COOLING DEGREE DAYS:  1 LATEST DAY MAX TEMP (0700-1900 LST):73  LATEST NIGHT MIN TEMP(1900-0800 LST):53 HOURLY INCREMENTAL PRECIPITATION VALUES (IN):.00 0.00 0.00 0.00 0.00 0.00 0.00 0.00 0.00 0.00 0.00 0.00 0.00 0.00 0.00 0.00 0.00 0.00 0.00 0.00 0.00 0.00 0.00 0.00","SOD  ","6",,,,,,,,,,,,,,,,,,,,,,,,,"0723","1726",,"2009-06-10"
"72208013880","2020-01-04T00:49:00","FM-16","7",,"SE","0.25","mi","TEMP, PRECIP, SNOW",,,"MMTS, SRG, SNOWBOARD",,,"WFO CHS",,,,,,,,,,,,,,,,,,,,,,,,,,,"29.90","67","70",,,,,"90",,"BKN:07 11 BKN:07 65","29.85","10.00","68","210","26","17",,,,,,,,,,,,,,,,,,,,,,,,,,,,,,,,,,,,,"MET10401/04/20 00:49:02 SPECI KCHS 040549Z 21015G23KT 10SM BKN011 BKN065 21/19 A2990 RMK AO2 T02110194 $ (ARB)","FM-16","7",,,,,,,,,,,,,,,,,,,,,,,,,,,,"2009-06-10"
"72208013880","2020-01-04T00:56:00","FM-15","7",,"SE","0.25","mi","TEMP, PRECIP, SNOW",,,"MMTS, SRG, SNOWBOARD",,,"WFO CHS",,,,,,,,,,,,,,,,,,,,,,,,,,,"29.90","67","70","0.00",,"+0.04","8","90","29.90","BKN:07 11 BKN:07 65","29.85","10.00","68","220","26","15",,,,,,,,,,,,,,,,,,,,,,,,,,,,,,,,,,,,,"MET12901/04/20 00:56:02 METAR KCHS 040556Z 22013G23KT 10SM BKN011 BKN065 21/19 A2990 RMK AO2 SLP124 T02110194 10211 20194 58013 $ (ARB)","FM-15","7",,,,,,,,,,,,,,,,,,,,,,,,,,,,"2009-06-10"
"72208013880","2020-01-04T01:00:00","FM-12","4",,"SE","0.25","mi","TEMP, PRECIP, SNOW",,,"MMTS, SRG, SNOWBOARD",,,"WFO CHS",,,,,,,,,,,,,,,,,,,,,,,,,,,"29.90","67","70",,,"+0.04","8","90","29.90","15","29.85","9.94","68","220",,"15",,,,,,,,,,,,,,,,,,,,,,,,,,,,,,,,,,,,,"SYN08672208 32466 62213 10211 20194 30109 40124 58013 90556 333 10211 20150 91023 555 90406=","FM-12","4",,,,,,,,,,,,,,,,,,,,,,,,,,,,"2009-06-10"
"72208013880","2020-01-04T01:54:00","FM-16","6",,"SE","0.25","mi","TEMP, PRECIP, SNOW",,,"MMTS, SRG, SNOWBOARD",,,"WFO CHS",,,,,,,,,,,,,,,,,,,,,,,,,,,"29.88","68","70",,,,,"94",,"SCT:04 11 BKN:07 36","29.83","10.00","69","200","22","15",,,,,,,,,,,,,,,,,,,,,,,,,,,,,,,,,,,,,"MET09901/04/20 01:54:02 SPECI KCHS 040654Z 20013G19KT 10SM SCT011 BKN036 21/20 A2988 RMK AO2 $ FIBI (ARB)","FM-16","6",,,,,,,,,,,,,,,,,,,,,,,,,,,,"2009-06-10"
"72208013880","2020-01-04T01:56:00","FM-15","7",,"SE","0.25","mi","TEMP, PRECIP, SNOW",,,"MMTS, SRG, SNOWBOARD",,,"WFO CHS",,,,,,,,,,,,,,,,,,,,,,,,,,,"29.88","68","70","0.00",,,,"93","29.88","SCT:04 11 BKN:07 33 BKN:07 42","29.83","10.00","69","200","22","15",,,,,,,,,,,,,,,,,,,,,,,,,,,,,,,,,,,,,"MET11801/04/20 01:56:02 METAR KCHS 040656Z 20013G19KT 10SM SCT011 BKN033 BKN042 21/20 A2988 RMK AO2 SLP118 T02110200 $ (ARB)","FM-15","7",,,,,,,,,,,,,,,,,,,,,,,,,,,,"2009-06-10"
"72208013880","2020-01-04T02:56:00","FM-15","7",,"SE","0.25","mi","TEMP, PRECIP, SNOW",,,"MMTS, SRG, SNOWBOARD",,,"WFO CHS",,,,,,,,,,,,,,,,,,,,,,,,,,,"29.87","67","70","0.00",,,,"90","29.87","FEW:02 12 BKN:07 29 OVC:08 37","29.82","10.00","68","220",,"13",,,,,,,,,,,,,,,,,,,,,,,,,,,,,,,,,,,,,"MET11501/04/20 02:56:02 METAR KCHS 040756Z 22011KT 10SM FEW012 BKN029 OVC037 21/19 A2987 RMK AO2 SLP114 T02110194 $ (ARB)","FM-15","7",,,,,,,,,,,,,,,,,,,,,,,,,,,,"2009-06-10"
"72208013880","2020-01-04T03:56:00","FM-15","7",,"SE","0.25","mi","TEMP, PRECIP, SNOW",,,"MMTS, SRG, SNOWBOARD",,,"WFO CHS",,,,,,,,,,,,,,,,,,,,,,,,,,,"29.86","66","70","0.00",,"+0.04","6","87","29.85","OVC:08 29","29.81","10.00","67","210","28","22",,,,,,,,,,,,,,,,,,,,,,,,,,,,,,,,,,,,,"MET12801/04/20 03:56:02 METAR KCHS 040856Z 21019G24KT 10SM OVC029 21/19 A2986 RMK AO2 PK WND 21028/0831 SLP110 T02110189 56014 $ (ARB)","FM-15","7",,,,,,,,,,,,,,,,,,,,,,,,,,,,"2009-06-10"
"72208013880","2020-01-04T04:00:00","FM-12","4",,"SE","0.25","mi","TEMP, PRECIP, SNOW",,,"MMTS, SRG, SNOWBOARD",,,"WFO CHS",,,,,,,,,,,,,,,,,,,,,,,,,,,"29.86","66","70",,,"+0.04","6","87","29.85","26","29.81","9.94","67","210",,"22",,,,,,,,,,,,,,,,,,,,,,,,,,,,,,,,,,,,,"SYN07472208 32566 82119 10211 20189 30096 40110 56014 90856 333 91024 555 90409=","FM-12","4",,,,,,,,,,,,,,,,,,,,,,,,,,,,"2009-06-10"
"72208013880","2020-01-04T04:52:00","FM-16","7",,"SE","0.25","mi","TEMP, PRECIP, SNOW",,,"MMTS, SRG, SNOWBOARD",,,"WFO CHS",,,,,,,,,,,,,,,,,,,,,,,,,,,"29.85","64","70",,,,,"83",,"BKN:07 33","29.80","10.00","66","220","24","13",,,,,,,,,,,,,,,,,,,,,,,,,,,,,,,,,,,,,"MET10501/04/20 04:52:02 SPECI KCHS 040952Z 22011G21KT 10SM BKN033 21/18 A2985 RMK AO2 PK WND 20026/0858 $ (ARB)","FM-16","7",,,,,,,,,,,,,,,,,,,,,,,,,,,,"2009-06-10"
"72208013880","2020-01-04T04:56:00","FM-15","7",,"SE","0.25","mi","TEMP, PRECIP, SNOW",,,"MMTS, SRG, SNOWBOARD",,,"WFO CHS",,,,,,,,,,,,,,,,,,,,,,,,,,,"29.84","65","69","0.00",,,,"87","29.84","SCT:04 30 BKN:07 33","29.79","10.00","66","220","23","15",,,,,,,,,,,,,,,,,,,,,,,,,,,,,,,,,,,,,"MET12901/04/20 04:56:02 METAR KCHS 040956Z 22013G20KT 10SM SCT030 BKN033 21/18 A2984 RMK AO2 PK WND 20026/0858 SLP105 T02060183 $ (ARB)","FM-15","7",,,,,,,,,,,,,,,,,,,,,,,,,,,,"2009-06-10"
"72208013880","2020-01-04T05:22:00","FM-16","7",,"SE","0.25","mi","TEMP, PRECIP, SNOW",,,"MMTS, SRG, SNOWBOARD",,,"WFO CHS",,,,,,,,,,,,,,,,,,,,,,,,,,,"29.85","65","69",,,,,"87",,"SCT:04 15 BKN:07 29 OVC:08 35","29.80","10.00","66","250",,"11",,,,,,,,,,,,,,,,,,,,,,,,,,,,,,,,,,,,,"MET10801/04/20 05:22:02 SPECI KCHS 041022Z 25010KT 10SM SCT015 BKN029 OVC035 21/18 A2985 RMK AO2 T02060183 $ (ARB)","FM-16","7",,,,,,,,,,,,,,,,,,,,,,,,,,,,"2009-06-10"
"72208013880","2020-01-04T05:56:00","FM-15","7",,"SE","0.25","mi","TEMP, PRECIP, SNOW",,,"MMTS, SRG, SNOWBOARD",,,"WFO CHS",,,,,,,,,,,,,,,,,,,,,,,,,,,"29.84","66","70","0.00",,,,"87","29.84","OVC:08 17","29.79","10.00","67","220",,"13",,,,,,,,,,,,,,,,,,,,,,,,,,,,,,,,,,,,,"MET10101/04/20 05:56:02 METAR KCHS 041056Z 22011KT 10SM OVC017 21/19 A2984 RMK AO2 SLP104 T02110189 $ (ARB)","FM-15","7",,,,,,,,,,,,,,,,,,,,,,,,,,,,"2009-06-10"
"72208013880","2020-01-04T06:17:00","FM-16","7",,"SE","0.25","mi","TEMP, PRECIP, SNOW",,,"MMTS, SRG, SNOWBOARD",,,"WFO CHS",,,,,,,,,,,,,,,,,,,,,,,,,,,"29.84","66","69",,,,,"90",,"BKN:07 13 OVC:08 19","29.79","10.00","67","230",,"10",,,,,,,,,,,,,,,,,,,,,,,,,,,,,,,,,,,,,"MET10101/04/20 06:17:02 SPECI KCHS 041117Z 23009KT 10SM BKN013 OVC019 21/19 A2984 RMK AO2 T02060189 $ (ARB)","FM-16","7",,,,,,,,,,,,,,,,,,,,,,,,,,,,"2009-06-10"
"72208013880","2020-01-04T06:56:00","FM-15","7",,"SE","0.25","mi","TEMP, PRECIP, SNOW",,,"MMTS, SRG, SNOWBOARD",,,"WFO CHS",,,,,,,,,,,,,,,,,,,,,,,,,,,"29.84","66","68","0.01","-RA:02 BR:1 |RA |RA","+0.01","6","93","29.83","BKN:07 11 OVC:08 14","29.79","6.00","67","250","22","16",,,,,,,,,,,,,,,,,,,,,,,,,,,,,,,,,,,,,"MET15901/04/20 06:56:02 METAR KCHS 041156Z 25014G19KT 6SM -RA BR BKN011 OVC014 20/19 A2984 RMK AO2 RAB20 SLP103 P0001 60001 70001 T02000189 10217 20200 56003 $ (DTU)","FM-15","7",,,,,,,,,,,,,,,,,,,,,,,,,,,,"2009-06-10"
"72208013880","2020-01-04T07:00:00","FM-12","4",,"SE","0.25","mi","TEMP, PRECIP, SNOW",,,"MMTS, SRG, SNOWBOARD",,,"WFO CHS",,,,,,,,,,,,,,,,,,,,,,,,,,,"29.84","66","68",,"||RA","+0.01","6","93","29.83","15","29.79","5.59","67","250",,"16",,,,,,,,,,,,,,,,,,,,,,,,,,,,,,,,,,,,,"SYN11072208 11459 82514 10200 20189 30089 40103 56003 69931 761// 91156 333 10228 20194 70003 91019 96010 555 90412=","FM-12","4",,,,,,,,,,,,,,,,,,,,,,,,,,,,"2009-06-10"
"72208013880","2020-01-04T07:54:00","FM-16","6",,"SE","0.25","mi","TEMP, PRECIP, SNOW",,,"MMTS, SRG, SNOWBOARD",,,"WFO CHS",,,,,,,,,,,,,,,,,,,,,,,,,,,"29.89","63","63",,"RA:02 BR:1 |RA |RA",,,"100",,"OVC:08 8","29.84","3.00","63","330","18","15",,,,,,,,,,,,,,,,,,,,,,,,,,,,,,,,,,,,,"MET14801/04/20 07:54:02 SPECI KCHS 041254Z 33013G16KT 3SM R15/5500VP6000FT RA BR OVC008 17/17 A2989 RMK AO2 RAE06B27 CIG 006V012 PRESRR P0001 $ FIBI (DTU)","FM-16","6",,,,,,,,,,,,,,,,,,,,,,,,,,,,"2009-06-10"
"72208013880","2020-01-04T07:56:00","FM-15","7",,"SE","0.25","mi","TEMP, PRECIP, SNOW",,,"MMTS, SRG, SNOWBOARD",,,"WFO CHS",,,,,,,,,,,,,,,,,,,,,,,,,,,"29.89","62","63","0.02","+RA:02 BR:1 |RA |RA",,,"97","29.88","OVC:08 8","29.84","2.50V","62","320","18","13",,,,,,,,,,,,,,,,,,,,,,,,,,,,,,,,,,,,,"MET17001/04/20 07:56:02 METAR KCHS 041256Z 32011G16KT 2 1/2SM R15/5500VP6000FT +RA BR OVC008 17/17 A2989 RMK AO2 VIS 1 3/4V5 RAE06B27 CIG 006V012 SLP120 P0001 T01720167 $ (DTU)","FM-15","7",,,,,,,,,,,,,,,,,,,,,,,,,,,,"2009-06-10"
"72208013880","2020-01-04T08:12:00","FM-16","7",,"SE","0.25","mi","TEMP, PRECIP, SNOW",,,"MMTS, SRG, SNOWBOARD",,,"WFO CHS",,,,,,,,,,,,,,,,,,,,,,,,,,,"29.90","61","63","0.01","-RA:02 |RA |RA",,,"93",,"BKN:07 8 BKN:07 14 OVC:08 21","29.85","10.00","62","310","21","11",,,,,,,,,,,,,,,,,,,,,,,,,,,,,,,,,,,,,"MET12101/04/20 08:12:02 SPECI KCHS 041312Z 31010G18KT 10SM -RA BKN008 BKN014 OVC021 17/16 A2990 RMK AO2 P0001 T01720161 $ (DTU)","FM-16","7",,,,,,,,,,,,,,,,,,,,,,,,,,,,"2009-06-10"
"72208013880","2020-01-04T08:32:00","FM-16","7",,"SE","0.25","mi","TEMP, PRECIP, SNOW",,,"MMTS, SRG, SNOWBOARD",,,"WFO CHS",,,,,,,,,,,,,,,,,,,,,,,,,,,"29.89","60","62","0.01","-RA:02 |RA |RA",,,"93",,"SCT:04 11 SCT:04 16 OVC:08 32","29.84","7.00","61","320",,"8",,,,,,,,,,,,,,,,,,,,,,,,,,,,,,,,,,,,,"MET11701/04/20 08:32:02 SPECI KCHS 041332Z 32007KT 7SM -RA SCT011 SCT016 OVC032 17/16 A2989 RMK AO2 P0001 T01670156 $ (DTU)","FM-16","7",,,,,,,,,,,,,,,,,,,,,,,,,,,,"2009-06-10"
"72208013880","2020-01-04T08:56:00","FM-15","7",,"SE","0.25","mi","TEMP, PRECIP, SNOW",,,"MMTS, SRG, SNOWBOARD",,,"WFO CHS",,,,,,,,,,,,,,,,,,,,,,,,,,,"29.89","60","62","T",,,,"93","29.88","FEW:02 11 SCT:04 28 OVC:08 37","29.84","10.00","61","320",,"6",,,,,,,,,,,,,,,,,,,,,,,,,,,,,,,,,,,,,"MET12701/04/20 08:56:02 METAR KCHS 041356Z 32005KT 10SM FEW011 SCT028 OVC037 17/16 A2989 RMK AO2 RAE41 SLP120 P0001 T01670156 $ (DTU)","FM-15","7",,,,,,,,,,,,,,,,,,,,,,,,,,,,"2009-06-10"
"72208013880","2020-01-04T09:56:00","FM-15","7",,"SE","0.25","mi","TEMP, PRECIP, SNOW",,,"MMTS, SRG, SNOWBOARD",,,"WFO CHS",,,,,,,,,,,,,,,,,,,,,,,,,,,"29.90","61","62","T","-RA:02 |RA |RA","-0.06","1","96","29.89","BKN:07 35 OVC:08 45","29.85","8.00","61","260",,"5",,,,,,,,,,,,,,,,,,,,,,,,,,,,,,,,,,,,,"MET13701/04/20 09:56:02 METAR KCHS 041456Z 26004KT 8SM -RA BKN035 OVC045 17/16 A2990 RMK AO2 RAB1359 SLP123 P0000 60002 T01670161 51020 $ (DTU)","FM-15","7",,,,,,,,,,,,,,,,,,,,,,,,,,,,"2009-06-10"
"72208013880","2020-01-04T10:00:00","FM-12","4",,"SE","0.25","mi","TEMP, PRECIP, SNOW",,,"MMTS, SRG, SNOWBOARD",,,"WFO CHS",,,,,,,,,,,,,,,,,,,,,,,,,,,"29.90","61","62",,"||RA","-0.06","1","96","29.89","41","29.85","7.46","61","260",,"5",,,,,,,,,,,,,,,,,,,,,,,,,,,,,,,,,,,,,"SYN07672208 11662 82604 10167 20161 30109 40123 51020 69957 761// 91456 555 90415=","FM-12","4",,,,,,,,,,,,,,,,,,,,,,,,,,,,"2009-06-10"
"72208013880","2020-01-04T10:34:00","FM-16","7",,"SE","0.25","mi","TEMP, PRECIP, SNOW",,,"MMTS, SRG, SNOWBOARD",,,"WFO CHS",,,,,,,,,,,,,,,,,,,,,,,,,,,"29.90","60","62","0.02","-RA:02 BR:1 |RA |RA",,,"93",,"FEW:02 11 OVC:08 27","29.85","5.00","61","230",,"6",,,,,,,,,,,,,,,,,,,,,,,,,,,,,,,,,,,,,"MET13001/04/20 10:34:02 SPECI KCHS 041534Z 23005KT 5SM R15/6000VP6000FT -RA BR FEW011 OVC027 17/16 A2990 RMK AO2 P0002 T01670156 $ (DTU)","FM-16","7",,,,,,,,,,,,,,,,,,,,,,,,,,,,"2009-06-10"
"72208013880","2020-01-04T10:54:00","FM-16","6",,"SE","0.25","mi","TEMP, PRECIP, SNOW",,,"MMTS, SRG, SNOWBOARD",,,"WFO CHS",,,,,,,,,,,,,,,,,,,,,,,,,,,"29.88","61","63",,"-RA:02 BR:1 |RA |RA",,,"94",,"FEW:02 7 SCT:04 25 OVC:08 31","29.83","4.00","62","230",,"7",,,,,,,,,,,,,,,,,,,,,,,,,,,,,,,,,,,,,"MET11501/04/20 10:54:02 SPECI KCHS 041554Z 23006KT 4SM -RA BR FEW007 SCT025 OVC031 17/16 A2988 RMK AO2 P0004 $ FIBI (DTU)","FM-16","6",,,,,,,,,,,,,,,,,,,,,,,,,,,,"2009-06-10"
"72208013880","2020-01-04T10:56:00","FM-15","7",,"SE","0.25","mi","TEMP, PRECIP, SNOW",,,"MMTS, SRG, SNOWBOARD",,,"WFO CHS",,,,,,,,,,,,,,,,,,,,,,,,,,,"29.88","61","62","0.04","-RA:02 BR:1 |RA |RA",,,"96","29.88","SCT:04 7 BKN:07 25 OVC:08 31","29.83","3.00","61","220",,"7",,,,,,,,,,,,,,,,,,,,,,,,,,,,,,,,,,,,,"MET12701/04/20 10:56:02 METAR KCHS 041556Z 22006KT 3SM -RA BR SCT007 BKN025 OVC031 17/16 A2988 RMK AO2 SLP118 P0004 T01670161 $ (DTU)","FM-15","7",,,,,,,,,,,,,,,,,,,,,,,,,,,,"2009-06-10"
"72208013880","2020-01-04T11:03:00","FM-16","7",,"SE","0.25","mi","TEMP, PRECIP, SNOW",,,"MMTS, SRG, SNOWBOARD",,,"WFO CHS",,,,,,,,,,,,,,,,,,,,,,,,,,,"29.88","61","62","0.01","RA:02 BR:1 |RA |RA",,,"96",,"SCT:04 7 BKN:07 25 OVC:08 31","29.83","2.00","61","260",,"7",,,,,,,,,,,,,,,,,,,,,,,,,,,,,,,,,,,,,"MET13601/04/20 11:03:02 SPECI KCHS 041603Z 26006KT 2SM R15/5500VP6000FT RA BR SCT007 BKN025 OVC031 17/16 A2988 RMK AO2 P0001 T01670161 $ (DTU)","FM-16","7",,,,,,,,,,,,,,,,,,,,,,,,,,,,"2009-06-10"
"72208013880","2020-01-04T11:12:00","FM-16","7",,"SE","0.25","mi","TEMP, PRECIP, SNOW",,,"MMTS, SRG, SNOWBOARD",,,"WFO CHS",,,,,,,,,,,,,,,,,,,,,,,,,,,"29.87","61","62","0.02","-RA:02 BR:1 |RA |RA",,,"96",,"SCT:04 7 BKN:07 19 OVC:08 31","29.82","5.00","61","240",,"7",,,,,,,,,,,,,,,,,,,,,,,,,,,,,,,,,,,,,"MET12001/04/20 11:12:02 SPECI KCHS 041612Z 24006KT 5SM -RA BR SCT007 BKN019 OVC031 17/16 A2987 RMK AO2 P0002 T01670161 $ (DTU)","FM-16","7",,,,,,,,,,,,,,,,,,,,,,,,,,,,"2009-06-10"
"72208013880","2020-01-04T11:54:00","FM-16","6",,"SE","0.25","mi","TEMP, PRECIP, SNOW",,,"MMTS, SRG, SNOWBOARD",,,"WFO CHS",,,,,,,,,,,,,,,,,,,,,,,,,,,"29.85","61","63",,,,,"94",,"SCT:04 11 BKN:07 14 OVC:08 25","29.80","10.00","62","250",,"11",,,,,,,,,,,,,,,,,,,,,,,,,,,,,,,,,,,,,"MET11501/04/20 11:54:02 SPECI KCHS 041654Z 25010KT 10SM SCT011 BKN014 OVC025 17/16 A2985 RMK AO2 RAE21 P0002 $ FIBI (DTU)","FM-16","6",,,,,,,,,,,,,,,,,,,,,,,,,,,,"2009-06-10"
"72208013880","2020-01-04T11:56:00","FM-15","7",,"SE","0.25","mi","TEMP, PRECIP, SNOW",,,"MMTS, SRG, SNOWBOARD",,,"WFO CHS",,,,,,,,,,,,,,,,,,,,,,,,,,,"29.85","61","63","0.02",,,,"93","29.85","BKN:07 12 BKN:07 19 OVC:08 25","29.80","10.00","62","250",,"13",,,,,,,,,,,,,,,,,,,,,,,,,,,,,,,,,,,,,"MET12701/04/20 11:56:02 METAR KCHS 041656Z 25011KT 10SM BKN012 BKN019 OVC025 17/16 A2985 RMK AO2 RAE21 SLP107 P0002 T01720161 $ (DTU)","FM-15","7",,,,,,,,,,,,,,,,,,,,,,,,,,,,"2009-06-10"
"72208013880","2020-01-04T12:53:00","FM-16","7",,"SE","0.25","mi","TEMP, PRECIP, SNOW",,,"MMTS, SRG, SNOWBOARD",,,"WFO CHS",,,,,,,,,,,,,,,,,,,,,,,,,,,"29.82","61","64","T",,,,"88",,"SCT:04 20 BKN:07 32 BKN:07 41","29.77","10.00","62","270",,"10",,,,,,,,,,,,,,,,,,,,,,,,,,,,,,,,,,,,,"MET11301/04/20 12:53:02 SPECI KCHS 041753Z 27009KT 10SM SCT020 BKN032 BKN041 18/16 A2982 RMK AO2 RAB10E20 P0000 $ (DTU)","FM-16","7",,,,,,,,,,,,,,,,,,,,,,,,,,,,"2009-06-10"
"72208013880","2020-01-04T12:56:00","FM-15","7",,"SE","0.25","mi","TEMP, PRECIP, SNOW",,,"MMTS, SRG, SNOWBOARD",,,"WFO CHS",,,,,,,,,,,,,,,,,,,,,,,,,,,"29.82","60","66","T",,"+0.07","8","81","29.82","SCT:04 20 BKN:07 32 BKN:07 41","29.77","10.00","62","280",,"8",,,,,,,,,,,,,,,,,,,,,,,,,,,,,,,,,,,,,"MET15401/04/20 12:56:02 METAR KCHS 041756Z 28007KT 10SM SCT020 BKN032 BKN041 19/16 A2982 RMK AO2 RAB10E20 SLP098 P0000 60008 T01890156 10200 20167 58025 $ (DTU)","FM-15","7",,,,,,,,,,,,,,,,,,,,,,,,,,,,"2009-06-10"
"72208013880","2020-01-04T13:00:00","FM-12","4",,"SE","0.25","mi","TEMP, PRECIP, SNOW",,,"MMTS, SRG, SNOWBOARD",,,"WFO CHS",,,,,,,,,,,,,,,,,,,,,,,,,,,"29.82","60","66",,,"+0.07","8","81","29.82","26","29.77","9.94","62","280",,"8",,,,,,,,,,,,,,,,,,,,,,,,,,,,,,,,,,,,,"SYN08672208 12566 62807 10189 20156 30082 40098 58025 60021 91756 333 10217 20167 555 90418=","FM-12","4",,,,,,,,,,,,,,,,,,,,,,,,,,,,"2009-06-10"
"72208013880","2020-01-04T13:14:00","FM-16","7",,"SE","0.25","mi","TEMP, PRECIP, SNOW",,,"MMTS, SRG, SNOWBOARD",,,"WFO CHS",,,,,,,,,,,,,,,,,,,,,,,,,,,"29.82","59","65",,,,,"81",,"BKN:07 19 BKN:07 26 BKN:07 42","29.77","10.00","61","260",,"10",,,,,,,,,,,,,,,,,,,,,,,,,,,,,,,,,,,,,"MET10801/04/20 13:14:02 SPECI KCHS 041814Z 26009KT 10SM BKN019 BKN026 BKN042 18/15 A2982 RMK AO2 T01830150 $ (DTU)","FM-16","7",,,,,,,,,,,,,,,,,,,,,,,,,,,,"2009-06-10"
"72208013880","2020-01-04T13:54:00","FM-16","6",,"SE","0.25","mi","TEMP, PRECIP, SNOW",,,"MMTS, SRG, SNOWBOARD",,,"WFO CHS",,,,,,,,,,,,,,,,,,,,,,,,,,,"29.80","57","68",,,,,"69",,"FEW:02 16 SCT:04 29 BKN:07 35","29.75","10.00","62","280","24","13",,,,,,,,,,,,,,,,,,,,,,,,,,,,,,,,,,,,,"MET10601/04/20 13:54:02 SPECI KCHS 041854Z 28011G21KT 10SM FEW016 SCT029 BKN035 20/14 A2980 RMK AO2 $ FIBI (DTU)","FM-16","6",,,,,,,,,,,,,,,,,,,,,,,,,,,,"2009-06-10"
"72208013880","2020-01-04T13:56:00","FM-15","7",,"SE","0.25","mi","TEMP, PRECIP, SNOW",,,"MMTS, SRG, SNOWBOARD",,,"WFO CHS",,,,,,,,,,,,,,,,,,,,,,,,,,,"29.80","58","68","0.00",,,,"70","29.80","FEW:02 16 SCT:04 29 BKN:07 35","29.75","10.00","62","280","24","11",,,,,,,,,,,,,,,,,,,,,,,,,,,,,,,,,,,,,"MET11801/04/20 13:56:02 METAR KCHS 041856Z 28010G21KT 10SM FEW016 SCT029 BKN035 20/14 A2980 RMK AO2 SLP091 T02000144 $ (DTU)","FM-15","7",,,,,,,,,,,,,,,,,,,,,,,,,,,,"2009-06-10"
"72208013880","2020-01-04T14:56:00","FM-15","7",,"SE","0.25","mi","TEMP, PRECIP, SNOW",,,"MMTS, SRG, SNOWBOARD",,,"WFO CHS",,,,,,,,,,,,,,,,,,,,,,,,,,,"29.79","56","68","0.00",,,,"65","29.79","SCT:04 32 SCT:04 50 BKN:07 120","29.74","10.00","61","280","22","13",,,,,,,,,,,,,,,,,,,,,,,,,,,,,,,,,,,,,"MET11801/04/20 14:56:02 METAR KCHS 041956Z 28011G19KT 10SM SCT032 SCT050 BKN120 20/13 A2979 RMK AO2 SLP088 T02000133 $ (DTU)","FM-15","7",,,,,,,,,,,,,,,,,,,,,,,,,,,,"2009-06-10"
"72208013880","2020-01-04T15:56:00","FM-15","7",,"SE","0.25","mi","TEMP, PRECIP, SNOW",,,"MMTS, SRG, SNOWBOARD",,,"WFO CHS",,,,,,,,,,,,,,,,,,,,,,,,,,,"29.80","53","67","0.00",,,,"61","29.79","FEW:02 40 SCT:04 150","29.75","10.00","59","270","23","18",,,,,,,,,,,,,,,,,,,,,,,,,,,,,,,,,,,,,"MET11101/04/20 15:56:02 METAR KCHS 042056Z 27016G20KT 10SM FEW040 SCT150 19/12 A2980 RMK AO2 SLP089 T01940117 $ (JRS)","FM-15","7",,,,,,,,,,,,,,,,,,,,,,,,,,,,"2009-06-10"
"72208013880","2020-01-04T16:00:00","FM-12","4",,"SE","0.25","mi","TEMP, PRECIP, SNOW",,,"MMTS, SRG, SNOWBOARD",,,"WFO CHS",,,,,,,,,,,,,,,,,,,,,,,,,,,"29.80","53","67",,,,,"61","29.79",,"29.75","9.94","59","270",,"18",,,,,,,,,,,,,,,,,,,,,,,,,,,,,,,,,,,,,"SYN06872208 32/66 /2716 10194 20117 30075 40089 92056 333 91020 555 90421=","FM-12","4",,,,,,,,,,,,,,,,,,,,,,,,,,,,"2009-06-10"
"72208013880","2020-01-04T16:56:00","FM-15","7",,"SE","0.25","mi","TEMP, PRECIP, SNOW",,,"MMTS, SRG, SNOWBOARD",,,"WFO CHS",,,,,,,,,,,,,,,,,,,,,,,,,,,"29.80","51","67","0.00",,,,"57","29.80","FEW:02 40 FEW:02 70","29.75","10.00","58","260","25","14",,,,,,,,,,,,,,,,,,,,,,,,,,,,,,,,,,,,,"MET11101/04/20 16:56:02 METAR KCHS 042156Z 26012G22KT 10SM FEW040 FEW070 19/11 A2980 RMK AO2 SLP090 T01940106 $ (JRS)","FM-15","7",,,,,,,,,,,,,,,,,,,,,,,,,,,,"2009-06-10"
"72208013880","2020-01-04T17:56:00","FM-15","7",,"SE","0.25","mi","TEMP, PRECIP, SNOW",,,"MMTS, SRG, SNOWBOARD",,,"WFO CHS",,,,,,,,,,,,,,,,,,,,,,,,,,,"29.81","50","64","0.00",,,,"60","29.81","SCT:04 50","29.76","10.00","56","260",,"11",,,,,,,,,,,,,,,,,,,,,,,,,,,,,,,,,,,,,"MET10101/04/20 17:56:02 METAR KCHS 042256Z 26010KT 10SM SCT050 18/10 A2981 RMK AO2 SLP095 T01780100 $ (JRS)","FM-15","7",,,,,,,,,,,,,,,,,,,,,,,,,,,,"2009-06-10"
"72208013880","2020-01-04T18:56:00","FM-15","7",,"SE","0.25","mi","TEMP, PRECIP, SNOW",,,"MMTS, SRG, SNOWBOARD",,,"WFO CHS",,,,,,,,,,,,,,,,,,,,,,,,,,,"29.86","48","62","0.00",,"-0.06","3","60","29.85","FEW:02 55","29.81","10.00","55","280","22","15",,,,,,,,,,,,,,,,,,,,,,,,,,,,,,,,,,,,,"MET14001/04/20 18:56:02 METAR KCHS 042356Z 28013G19KT 10SM FEW055 17/09 A2986 RMK AO2 PK WND 29031/2332 SLP109 T01670089 10206 20167 53020 $ (JRS)","FM-15","7",,,,,,,,,,,,,,,,,,,,,,,,,,,,"2009-06-10"
"72208013880","2020-01-04T19:00:00","FM-12","4",,"SE","0.25","mi","TEMP, PRECIP, SNOW",,,"MMTS, SRG, SNOWBOARD",,,"WFO CHS",,,,,,,,,,,,,,,,,,,,,,,,,,,"29.86","48","62",,,"-0.06","3","60","29.85","57","29.81","9.94","55","280",,"15",,,,,,,,,,,,,,,,,,,,,,,,,,,,,,,,,,,,,"SYN08672208 32766 22813 10167 20089 30096 40109 53020 92356 333 10206 20167 91019 555 90500=","FM-12","4",,,,,,,,,,,,,,,,,,,,,,,,,,,,"2009-06-10"
"72208013880","2020-01-04T19:56:00","FM-15","7",,"SE","0.25","mi","TEMP, PRECIP, SNOW",,,"MMTS, SRG, SNOWBOARD",,,"WFO CHS",,,,,,,,,,,,,,,,,,,,,,,,,,,"29.89","44","59","0.00",,,,"58","29.89","FEW:02 70","29.84","10.00","51","280","25","18",,,,,,,,,,,,,,,,,,,,,,,,,,,,,,,,,,,,,"MET11601/04/20 19:56:01 METAR KCHS 050056Z 28016G22KT 10SM FEW070 15/07 A2989 RMK AO2 PK WND 29028/0026 SLP121 T01500067 $","FM-15","7",,,,,,,,,,,,,,,,,,,,,,,,,,,,"2009-06-10"
"72208013880","2020-01-04T20:56:00","FM-15","7",,"SE","0.25","mi","TEMP, PRECIP, SNOW",,,"MMTS, SRG, SNOWBOARD",,,"WFO CHS",,,,,,,,,,,,,,,,,,,,,,,,,,,"29.93","36","58","0.00",,,,"44","29.92","CLR:00","29.88","10.00","48","280","26","20",,,,,,,,,,,,,,,,,,,,,,,,,,,,,,,,,,,,,"MET09501/04/20 20:56:01 METAR KCHS 050156Z 28017G23KT 10SM CLR 14/02 A2993 RMK AO2 SLP133 T01440022 $","FM-15","7",,,,,,,,,,,,,,,,,,,,,,,,,,,,"2009-06-10"
"72208013880","2020-01-04T21:56:00","FM-15","7",,"SE","0.25","mi","TEMP, PRECIP, SNOW",,,"MMTS, SRG, SNOWBOARD",,,"WFO CHS",,,,,,,,,,,,,,,,,,,,,,,,,,,"29.97","32","55","0.00",,"-0.11","3","42","29.96","FEW:02 60","29.92","10.00","45","300","33","20",,,,,,,,,,,,,,,,,,,,,,,,,,,,,,,,,,,,,"MET12201/04/20 21:56:01 METAR KCHS 050256Z 30017G29KT 10SM FEW060 13/00 A2997 RMK AO2 PK WND 32029/0249 SLP147 T01280000 53038 $","FM-15","7",,,,,,,,,,,,,,,,,,,,,,,,,,,,"2009-06-10"
"72208013880","2020-01-04T22:00:00","FM-12","4",,"SE","0.25","mi","TEMP, PRECIP, SNOW",,,"MMTS, SRG, SNOWBOARD",,,"WFO CHS",,,,,,,,,,,,,,,,,,,,,,,,,,,"29.97","32","55",,,"-0.11","3","42","29.96","57","29.92","9.94","45","300",,"20",,,,,,,,,,,,,,,,,,,,,,,,,,,,,,,,,,,,,"SYN07472208 32766 23017 10128 20000 30133 40147 53038 90256 333 91029 555 90503=","FM-12","4",,,,,,,,,,,,,,,,,,,,,,,,,,,,"2009-06-10"
"72208013880","2020-01-04T22:56:00","FM-15","7",,"SE","0.25","mi","TEMP, PRECIP, SNOW",,,"MMTS, SRG, SNOWBOARD",,,"WFO CHS",,,,,,,,,,,,,,,,,,,,,,,,,,,"30.02","30","53","0.00",,,,"41","30.01","BKN:07 85","29.97","10.00","43","300","34","21",,,,,,,,,,,,,,,,,,,,,,,,,,,,,,,,,,,,,"MET11701/04/20 22:56:01 METAR KCHS 050356Z 30018G30KT 10SM BKN085 12/M01 A3002 RMK AO2 PK WND 31034/0325 SLP163 T01171011 $","FM-15","7",,,,,,,,,,,,,,,,,,,,,,,,,,,,"2009-06-10"
"72208013880","2020-01-04T23:56:00","FM-15","7",,"SE","0.25","mi","TEMP, PRECIP, SNOW",,,"MMTS, SRG, SNOWBOARD",,,"WFO CHS",,,,,,,,,,,,,,,,,,,,,,,,,,,"30.05","30","50","0.00",,,,"46","30.05","CLR:00","30.00","10.00","41","300",,"14",,,,,,,,,,,,,,,,,,,,,,,,,,,,,,,,,,,,,"MET12101/04/20 23:56:02 METAR KCHS 050456Z 30012KT 10SM CLR 10/M01 A3005 RMK AO2 PK WND 30031/0409 SLP175 T01001011 402170100 $","FM-15","7",,,,,,,,,,,,,,,,,,,,,,,,,,,,"2009-06-10"
"72208013880","2020-01-04T23:59:00","SOD  ","6",,"SE","0.25","mi","TEMP, PRECIP, SNOW",,,"MMTS, SRG, SNOWBOARD",,,"WFO CHS",,,,"55","61","74","29.87","29.80","59","13.9","0","13.0","4","71","50","310","39","0.09","0","0.0","300","28","RA BR",,,,,,,,,,,,,,,,,,,,,,,,,,,,,,,,,,,,,,,,,,,,,,,,,,,,,,,,"SOD75624 HR PRECIPITATION (IN): 0.09 SNOW DEPTH (IN):0     24 HR SNOWFALL (IN):0.0  WEATHER(CODE):1  24 HR MAX TEMP (F): 7124 HR MIN TEMP (F): 50AVERAGE STATION PRESSURE:29.800 MINIMUM SEA LEVEL PRESSURE:29.78 TIME OF OCCURRENCE:1439 PEAK WIND SPEED (MPH): 39 PEAK WIND DIR (DEG):310 PEAK WIND TIME (LST):      FASTEST 2MIN SPEED (MPH): 28FASTEST 2MIN DIR (DEG):300 FASTEST 2MIN TIME (LST):     AVERAGE WIND SPEED (MPH):13.9 24 HR AVG TEMP (F): 61DEPART FROM NORMAL: 13  HEATING DEGREE DAYS:  4 COOLING DEGREE DAYS:  0 LATEST DAY MAX TEMP (0700-1900 LST):69  LATEST NIGHT MIN TEMP(1900-0800 LST):63 HOURLY INCREMENTAL PRECIPITATION VALUES (IN):.00 0.00 0.00 0.00 0.00 0.00 0.01 0.02 T    T    0.04 0.02 T    0.00 0.00 0.00 0.00 0.00 0.00 0.00 0.00 0.00 0.00 0.00","SOD  ","6",,,,,,,,,,,,,,,,,,,,,,,,,"0724","1727",,"2009-06-10"
"72208013880","2020-01-05T00:56:00","FM-15","7",,"SE","0.25","mi","TEMP, PRECIP, SNOW",,,"MMTS, SRG, SNOWBOARD",,,"WFO CHS",,,,,,,,,,,,,,,,,,,,,,,,,,,"30.09","30","48","0.00",,"-0.12","1","50","30.09","CLR:00","30.04","10.00","40","300","29","20",,,,,,,,,,,,,,,,,,,,,,,,,,,,,,,,,,,,,"MET13801/05/20 00:56:02 METAR KCHS 050556Z 30017G25KT 10SM CLR 09/M01 A3009 RMK AO2 PK WND 31029/0537 SLP189 T00891011 10167 20089 51042 $ (ARB)","FM-15","7",,,,,,,,,,,,,,,,,,,,,,,,,,,,"2009-06-10"
"72208013880","2020-01-05T01:00:00","FM-12","4",,"SE","0.25","mi","TEMP, PRECIP, SNOW",,,"MMTS, SRG, SNOWBOARD",,,"WFO CHS",,,,,,,,,,,,,,,,,,,,,,,,,,,"30.09","30","48",,,"-0.12","1","50","30.09",,"30.04","9.94","40","300",,"20",,,,,,,,,,,,,,,,,,,,,,,,,,,,,,,,,,,,,"SYN08672208 32966 03017 10089 21011 30173 40189 51042 90556 333 10217 20089 91025 555 90506=","FM-12","4",,,,,,,,,,,,,,,,,,,,,,,,,,,,"2009-06-10"
"72208013880","2020-01-05T01:56:00","FM-15","7",,"SE","0.25","mi","TEMP, PRECIP, SNOW",,,"MMTS, SRG, SNOWBOARD",,,"WFO CHS",,,,,,,,,,,,,,,,,,,,,,,,,,,"30.13","29","47","0.00",,,,"50","30.12","CLR:00","30.08","10.00","40","320","24","14",,,,,,,,,,,,,,,,,,,,,,,,,,,,,,,,,,,,,"MET12001/05/20 01:56:02 METAR KCHS 050656Z 32012G21KT 10SM CLR 08/M02 A3013 RMK AO2 PK WND 30031/0608 SLP201 T00831017 $ (ARB)","FM-15","7",,,,,,,,,,,,,,,,,,,,,,,,,,,,"2009-06-10"
"72208013880","2020-01-05T02:56:00","FM-15","7",,"SE","0.25","mi","TEMP, PRECIP, SNOW",,,"MMTS, SRG, SNOWBOARD",,,"WFO CHS",,,,,,,,,,,,,,,,,,,,,,,,,,,"30.15","30","45","0.00",,,,"56","30.14","CLR:00","30.10","10.00","39","310","22","11",,,,,,,,,,,,,,,,,,,,,,,,,,,,,,,,,,,,,"MET10201/05/20 02:56:02 METAR KCHS 050756Z 31010G19KT 10SM CLR 07/M01 A3015 RMK AO2 SLP208 T00721011 $ (ARB)","FM-15","7",,,,,,,,,,,,,,,,,,,,,,,,,,,,"2009-06-10"
"72208013880","2020-01-05T03:56:00","FM-15","7",,"SE","0.25","mi","TEMP, PRECIP, SNOW",,,"MMTS, SRG, SNOWBOARD",,,"WFO CHS",,,,,,,,,,,,,,,,,,,,,,,,,,,"30.17","29","43","0.00",,,,"58","30.16","CLR:00","30.12","10.00","37","310",,"10",,,,,,,,,,,,,,,,,,,,,,,,,,,,,,,,,,,,,"MET09901/05/20 03:56:02 METAR KCHS 050856Z 31009KT 10SM CLR 06/M02 A3017 RMK AO2 SLP214 T00611017 $ (ARB)","FM-15","7",,,,,,,,,,,,,,,,,,,,,,,,,,,,"2009-06-10"
"72208013880","2020-01-05T04:00:00","FM-12","4",,"SE","0.25","mi","TEMP, PRECIP, SNOW",,,"MMTS, SRG, SNOWBOARD",,,"WFO CHS",,,,,,,,,,,,,,,,,,,,,,,,,,,"30.17","29","43",,,,,"58","30.16",,"30.12","9.94","37","310",,"10",,,,,,,,,,,,,,,,,,,,,,,,,,,,,,,,,,,,,"SYN05872208 32966 03109 10061 21017 30201 40214 90856 555 90509=","FM-12","4",,,,,,,,,,,,,,,,,,,,,,,,,,,,"2009-06-10"
"72208013880","2020-01-05T04:56:00","FM-15","7",,"SE","0.25","mi","TEMP, PRECIP, SNOW",,,"MMTS, SRG, SNOWBOARD",,,"WFO CHS",,,,,,,,,,,,,,,,,,,,,,,,,,,"30.17","29","42","0.00",,,,"60","30.16","CLR:00","30.12","10.00","37","310",,"8",,,,,,,,,,,,,,,,,,,,,,,,,,,,,,,,,,,,,"MET09901/05/20 04:56:02 METAR KCHS 050956Z 31007KT 10SM CLR 06/M02 A3017 RMK AO2 SLP214 T00561017 $ (ARB)","FM-15","7",,,,,,,,,,,,,,,,,,,,,,,,,,,,"2009-06-10"
"72208013880","2020-01-05T05:56:00","FM-15","7",,"SE","0.25","mi","TEMP, PRECIP, SNOW",,,"MMTS, SRG, SNOWBOARD",,,"WFO CHS",,,,,,,,,,,,,,,,,,,,,,,,,,,"30.20","29","41","0.00",,,,"62","30.19","CLR:00","30.15","10.00","36","300",,"8",,,,,,,,,,,,,,,,,,,,,,,,,,,,,,,,,,,,,"MET09901/05/20 05:56:02 METAR KCHS 051056Z 30007KT 10SM CLR 05/M02 A3020 RMK AO2 SLP224 T00501017 $ (ARB)","FM-15","7",,,,,,,,,,,,,,,,,,,,,,,,,,,,"2009-06-10"
"72208013880","2020-01-05T06:56:00","FM-15","7",,"SE","0.25","mi","TEMP, PRECIP, SNOW",,,"MMTS, SRG, SNOWBOARD",,,"WFO CHS",,,,,,,,,,,,,,,,,,,,,,,,,,,"30.23","29","39","0.00",,"-0.06","3","67","30.22","CLR:00","30.18","10.00","35","290",,"8",,,,,,,,,,,,,,,,,,,,,,,,,,,,,,,,,,,,,"MET12301/05/20 06:56:02 METAR KCHS 051156Z 29007KT 10SM CLR 04/M02 A3023 RMK AO2 SLP235 70008 T00391017 10089 20039 53021 $ (DTU)","FM-15","7",,,,,,,,,,,,,,,,,,,,,,,,,,,,"2009-06-10"
"72208013880","2020-01-05T07:00:00","FM-12","4",,"SE","0.25","mi","TEMP, PRECIP, SNOW",,,"MMTS, SRG, SNOWBOARD",,,"WFO CHS",,,,,,,,,,,,,,,,,,,,,,,,,,,"30.23","29","39",,,"-0.06","3","67","30.22",,"30.18","9.94","35","290",,"8",,,,,,,,,,,,,,,,,,,,,,,,,,,,,,,,,,,,,"SYN08672208 32966 02907 10039 21017 30221 40235 53021 91156 333 10217 20039 70020 555 90512=","FM-12","4",,,,,,,,,,,,,,,,,,,,,,,,,,,,"2009-06-10"
"72208013880","2020-01-05T07:56:00","FM-15","7",,"SE","0.25","mi","TEMP, PRECIP, SNOW",,,"MMTS, SRG, SNOWBOARD",,,"WFO CHS",,,,,,,,,,,,,,,,,,,,,,,,,,,"30.26","30","39","0.00",,,,"70","30.25","CLR:00","30.21","10.00","35","290",,"9",,,,,,,,,,,,,,,,,,,,,,,,,,,,,,,,,,,,,"MET09901/05/20 07:56:02 METAR KCHS 051256Z 29008KT 10SM CLR 04/M01 A3026 RMK AO2 SLP245 T00391011 $ (DTU)","FM-15","7",,,,,,,,,,,,,,,,,,,,,,,,,,,,"2009-06-10"
"72208013880","2020-01-05T08:56:00","FM-15","7",,"SE","0.25","mi","TEMP, PRECIP, SNOW",,,"MMTS, SRG, SNOWBOARD",,,"WFO CHS",,,,,,,,,,,,,,,,,,,,,,,,,,,"30.30","30","42","0.00",,,,"62","30.29","CLR:00","30.25","10.00","37","300",,"11",,,,,,,,,,,,,,,,,,,,,,,,,,,,,,,,,,,,,"MET09901/05/20 08:56:02 METAR KCHS 051356Z 30010KT 10SM CLR 06/M01 A3030 RMK AO2 SLP259 T00561011 $ (DTU)","FM-15","7",,,,,,,,,,,,,,,,,,,,,,,,,,,,"2009-06-10"
"72208013880","2020-01-05T09:56:00","FM-15","7",,"SE","0.25","mi","TEMP, PRECIP, SNOW",,,"MMTS, SRG, SNOWBOARD",,,"WFO CHS",,,,,,,,,,,,,,,,,,,,,,,,,,,"30.31","30","46","0.00",,"-0.08","1","54","30.30","CLR:00","30.26","10.00","39","300",,"8",,,,,,,,,,,,,,,,,,,,,,,,,,,,,,,,,,,,,"MET10501/05/20 09:56:02 METAR KCHS 051456Z 30007KT 10SM CLR 08/M01 A3031 RMK AO2 SLP262 T00781011 51027 $ (DTU)","FM-15","7",,,,,,,,,,,,,,,,,,,,,,,,,,,,"2009-06-10"
"72208013880","2020-01-05T10:00:00","FM-12","4",,"SE","0.25","mi","TEMP, PRECIP, SNOW",,,"MMTS, SRG, SNOWBOARD",,,"WFO CHS",,,,,,,,,,,,,,,,,,,,,,,,,,,"30.31","30","46",,,"-0.08","1","54","30.30",,"30.26","9.94","39","300",,"8",,,,,,,,,,,,,,,,,,,,,,,,,,,,,,,,,,,,,"SYN06472208 32966 03007 10078 21011 30248 40262 51027 91456 555 90515=","FM-12","4",,,,,,,,,,,,,,,,,,,,,,,,,,,,"2009-06-10"
"72208013880","2020-01-05T10:56:00","FM-15","7",,"SE","0.25","mi","TEMP, PRECIP, SNOW",,,"MMTS, SRG, SNOWBOARD",,,"WFO CHS",,,,,,,,,,,,,,,,,,,,,,,,,,,"30.29","29","49","0.00",,,,"46","30.29","CLR:00","30.24","10.00","41","300",,"9",,,,,,,,,,,,,,,,,,,,,,,,,,,,,,,,,,,,,"MET09901/05/20 10:56:02 METAR KCHS 051556Z 30008KT 10SM CLR 09/M02 A3029 RMK AO2 SLP258 T00941017 $ (DTU)","FM-15","7",,,,,,,,,,,,,,,,,,,,,,,,,,,,"2009-06-10"
"72208013880","2020-01-05T11:56:00","FM-15","7",,"SE","0.25","mi","TEMP, PRECIP, SNOW",,,"MMTS, SRG, SNOWBOARD",,,"WFO CHS",,,,,,,,,,,,,,,,,,,,,,,,,,,"30.27","30","53","0.00",,,,"41","30.27","CLR:00","30.22","10.00","43","290",,"9",,,,,,,,,,,,,,,,,,,,,,,,,,,,,,,,,,,,,"MET09901/05/20 11:56:02 METAR KCHS 051656Z 29008KT 10SM CLR 12/M01 A3027 RMK AO2 SLP250 T01171011 $ (DTU)","FM-15","7",,,,,,,,,,,,,,,,,,,,,,,,,,,,"2009-06-10"
"72208013880","2020-01-05T12:56:00","FM-15","7",,"SE","0.25","mi","TEMP, PRECIP, SNOW",,,"MMTS, SRG, SNOWBOARD",,,"WFO CHS",,,,,,,,,,,,,,,,,,,,,,,,,,,"30.24","30","54","0.00",,"+0.06","8","40","30.24","CLR:00","30.19","10.00","44","270",,"7",,,,,,,,,,,,,,,,,,,,,,,,,,,,,,,,,,,,,"MET11701/05/20 12:56:02 METAR KCHS 051756Z 27006KT 10SM CLR 12/M01 A3024 RMK AO2 SLP240 T01221011 10122 20039 58022 $ (DTU)","FM-15","7",,,,,,,,,,,,,,,,,,,,,,,,,,,,"2009-06-10"
"72208013880","2020-01-05T13:00:00","FM-12","4",,"SE","0.25","mi","TEMP, PRECIP, SNOW",,,"MMTS, SRG, SNOWBOARD",,,"WFO CHS",,,,,,,,,,,,,,,,,,,,,,,,,,,"30.24","30","54",,,"+0.06","8","40","30.24",,"30.19","9.94","44","270",,"7",,,,,,,,,,,,,,,,,,,,,,,,,,,,,,,,,,,,,"SYN08072208 32966 02706 10122 21011 30224 40240 58022 91756 333 10122 20039 555 90518=","FM-12","4",,,,,,,,,,,,,,,,,,,,,,,,,,,,"2009-06-10"
"72208013880","2020-01-05T13:56:00","FM-15","7",,"SE","0.25","mi","TEMP, PRECIP, SNOW",,,"MMTS, SRG, SNOWBOARD",,,"WFO CHS",,,,,,,,,,,,,,,,,,,,,,,,,,,"30.22","30","55","0.00",,,,"38","30.22","CLR:00","30.17","10.00","44","320",,"7",,,,,,,,,,,,,,,,,,,,,,,,,,,,,,,,,,,,,"MET09901/05/20 13:56:02 METAR KCHS 051856Z 32006KT 10SM CLR 13/M01 A3022 RMK AO2 SLP233 T01281011 $ (DTU)","FM-15","7",,,,,,,,,,,,,,,,,,,,,,,,,,,,"2009-06-10"
"72208013880","2020-01-05T14:56:00","FM-15","7",,"SE","0.25","mi","TEMP, PRECIP, SNOW",,,"MMTS, SRG, SNOWBOARD",,,"WFO CHS",,,,,,,,,,,,,,,,,,,,,,,,,,,"30.20","30","58","0.00",,,,"35","30.19","CLR:00","30.15","10.00","46","300",,"7",,,,,,,,,,,,,,,,,,,,,,,,,,,,,,,,,,,,,"MET09901/05/20 14:56:02 METAR KCHS 051956Z 30006KT 10SM CLR 14/M01 A3020 RMK AO2 SLP225 T01441011 $ (DTU)","FM-15","7",,,,,,,,,,,,,,,,,,,,,,,,,,,,"2009-06-10"
"72208013880","2020-01-05T15:56:00","FM-15","7",,"SE","0.25","mi","TEMP, PRECIP, SNOW",,,"MMTS, SRG, SNOWBOARD",,,"WFO CHS",,,,,,,,,,,,,,,,,,,,,,,,,,,"30.19","30","57","0.00",,"+0.05","6","36","30.19","CLR:00","30.14","10.00","45","290",,"9",,,,,,,,,,,,,,,,,,,,,,,,,,,,,,,,,,,,,"MET10501/05/20 15:56:02 METAR KCHS 052056Z 29008KT 10SM CLR 14/M01 A3019 RMK AO2 SLP223 T01391011 56017 $ (JRS)","FM-15","7",,,,,,,,,,,,,,,,,,,,,,,,,,,,"2009-06-10"
"72208013880","2020-01-05T16:00:00","FM-12","4",,"SE","0.25","mi","TEMP, PRECIP, SNOW",,,"MMTS, SRG, SNOWBOARD",,,"WFO CHS",,,,,,,,,,,,,,,,,,,,,,,,,,,"30.19","30","57",,,"+0.05","6","36","30.19",,"30.14","9.94","45","290",,"9",,,,,,,,,,,,,,,,,,,,,,,,,,,,,,,,,,,,,"SYN06472208 32966 02908 10139 21011 30207 40223 56017 92056 555 90521=","FM-12","4",,,,,,,,,,,,,,,,,,,,,,,,,,,,"2009-06-10"
"72208013880","2020-01-05T16:56:00","FM-15","7",,"SE","0.25","mi","TEMP, PRECIP, SNOW",,,"MMTS, SRG, SNOWBOARD",,,"WFO CHS",,,,,,,,,,,,,,,,,,,,,,,,,,,"30.20","32","55","0.00",,,,"42","30.19","CLR:00","30.15","10.00","45","280",,"7",,,,,,,,,,,,,,,,,,,,,,,,,,,,,,,,,,,,,"MET09801/05/20 16:56:02 METAR KCHS 052156Z 28006KT 10SM CLR 13/00 A3020 RMK AO2 SLP225 T01280000 $ (JRS)","FM-15","7",,,,,,,,,,,,,,,,,,,,,,,,,,,,"2009-06-10"
"72208013880","2020-01-05T17:56:00","FM-15","7",,"SE","0.25","mi","TEMP, PRECIP, SNOW",,,"MMTS, SRG, SNOWBOARD",,,"WFO CHS",,,,,,,,,,,,,,,,,,,,,,,,,,,"30.22","33","51","0.00",,,,"50","30.21","CLR:00","30.17","10.00","43","290",,"3",,,,,,,,,,,,,,,,,,,,,,,,,,,,,,,,,,,,,"MET09801/05/20 17:56:02 METAR KCHS 052256Z 29003KT 10SM CLR 11/01 A3022 RMK AO2 SLP231 T01060006 $ (JRS)","FM-15","7",,,,,,,,,,,,,,,,,,,,,,,,,,,,"2009-06-10"
"72208013880","2020-01-05T18:56:00","FM-15","7",,"SE","0.25","mi","TEMP, PRECIP, SNOW",,,"MMTS, SRG, SNOWBOARD",,,"WFO CHS",,,,,,,,,,,,,,,,,,,,,,,,,,,"30.22","34","49","0.00",,"-0.03","1","56","30.22","CLR:00","30.17","10.00","42","260",,"3",,,,,,,,,,,,,,,,,,,,,,,,,,,,,,,,,,,,,"MET11601/05/20 18:56:02 METAR KCHS 052356Z 26003KT 10SM CLR 09/01 A3022 RMK AO2 SLP232 T00940011 10144 20094 51009 $ (JRS)","FM-15","7",,,,,,,,,,,,,,,,,,,,,,,,,,,,"2009-06-10"
"72208013880","2020-01-05T19:00:00","FM-12","4",,"SE","0.25","mi","TEMP, PRECIP, SNOW",,,"MMTS, SRG, SNOWBOARD",,,"WFO CHS",,,,,,,,,,,,,,,,,,,,,,,,,,,"30.22","34","49",,,"-0.03","1","56","30.22",,"30.17","9.94","42","260",,"3",,,,,,,,,,,,,,,,,,,,,,,,,,,,,,,,,,,,,"SYN08072208 32966 02603 10094 20011 30217 40232 51009 92356 333 10144 20039 555 90600=","FM-12","4",,,,,,,,,,,,,,,,,,,,,,,,,,,,"2009-06-10"
"72208013880","2020-01-05T19:56:00","FM-15","7",,"SE","0.25","mi","TEMP, PRECIP, SNOW",,,"MMTS, SRG, SNOWBOARD",,,"WFO CHS",,,,,,,,,,,,,,,,,,,,,,,,,,,"30.23","35","45","0.00",,,,"68","30.22","CLR:00","30.18","10.00","41","270",,"5",,,,,,,,,,,,,,,,,,,,,,,,,,,,,,,,,,,,,"MET09201/05/20 19:56:01 METAR KCHS 060056Z 27004KT 10SM CLR 07/02 A3023 RMK AO2 SLP235 T00720017 $","FM-15","7",,,,,,,,,,,,,,,,,,,,,,,,,,,,"2009-06-10"
"72208013880","2020-01-05T20:56:00","FM-15","7",,"SE","0.25","mi","TEMP, PRECIP, SNOW",,,"MMTS, SRG, SNOWBOARD",,,"WFO CHS",,,,,,,,,,,,,,,,,,,,,,,,,,,"30.23","34","45","0.00",,,,"66","30.23","CLR:00","30.18","10.00","40","270",,"5",,,,,,,,,,,,,,,,,,,,,,,,,,,,,,,,,,,,,"MET09201/05/20 20:56:01 METAR KCHS 060156Z 27004KT 10SM CLR 07/01 A3023 RMK AO2 SLP237 T00720011 $","FM-15","7",,,,,,,,,,,,,,,,,,,,,,,,,,,,"2009-06-10"
"72208013880","2020-01-05T21:56:00","FM-15","7",,"SE","0.25","mi","TEMP, PRECIP, SNOW",,,"MMTS, SRG, SNOWBOARD",,,"WFO CHS",,,,,,,,,,,,,,,,,,,,,,,,,,,"30.22","35","43","0.00",,"-0.00","0","74","30.22","CLR:00","30.17","10.00","40","220",,"3",,,,,,,,,,,,,,,,,,,,,,,,,,,,,,,,,,,,,"MET09801/05/20 21:56:01 METAR KCHS 060256Z 22003KT 10SM CLR 06/02 A3022 RMK AO2 SLP233 T00610017 50001 $","FM-15","7",,,,,,,,,,,,,,,,,,,,,,,,,,,,"2009-06-10"
"72208013880","2020-01-05T22:00:00","FM-12","4",,"SE","0.25","mi","TEMP, PRECIP, SNOW",,,"MMTS, SRG, SNOWBOARD",,,"WFO CHS",,,,,,,,,,,,,,,,,,,,,,,,,,,"30.22","35","43",,,"0.00","9","74","30.22",,"30.17","9.94","40","220",,"3",,,,,,,,,,,,,,,,,,,,,,,,,,,,,,,,,,,,,"SYN06472208 32966 02203 10061 20017 30217 40233 50001 90256 555 90603=","FM-12","4",,,,,,,,,,,,,,,,,,,,,,,,,,,,"2009-06-10"
"72208013880","2020-01-05T22:56:00","FM-15","7",,"SE","0.25","mi","TEMP, PRECIP, SNOW",,,"MMTS, SRG, SNOWBOARD",,,"WFO CHS",,,,,,,,,,,,,,,,,,,,,,,,,,,"30.22","35","43","0.00",,,,"74","30.22","CLR:00","30.17","10.00","40","250",,"5",,,,,,,,,,,,,,,,,,,,,,,,,,,,,,,,,,,,,"MET09201/05/20 22:56:01 METAR KCHS 060356Z 25004KT 10SM CLR 06/02 A3022 RMK AO2 SLP232 T00610017 $","FM-15","7",,,,,,,,,,,,,,,,,,,,,,,,,,,,"2009-06-10"
"72208013880","2020-01-05T23:56:00","FM-15","7",,"SE","0.25","mi","TEMP, PRECIP, SNOW",,,"MMTS, SRG, SNOWBOARD",,,"WFO CHS",,,,,,,,,,,,,,,,,,,,,,,,,,,"30.19","35","43","0.00",,,,"74","30.19","CLR:00","30.14","10.00","40","240",,"6",,,,,,,,,,,,,,,,,,,,,,,,,,,,,,,,,,,,,"MET10201/05/20 23:56:02 METAR KCHS 060456Z 24005KT 10SM CLR 06/02 A3019 RMK AO2 SLP223 T00610017 401440039 $","FM-15","7",,,,,,,,,,,,,,,,,,,,,,,,,,,,"2009-06-10"
"72208013880","2020-01-05T23:59:00","SOD  ","6",,"SE","0.25","mi","TEMP, PRECIP, SNOW",,,"MMTS, SRG, SNOWBOARD",,,"WFO CHS",,,,"31","49","56","30.21","30.14","40","8.1","0","1.0","16","58","39","300","35","0.00","0","0.0","300","26",,,,,,,,,,,,,,,,,,,,,,,,,,,,,,,,,,,,,,,,,,,,,,,,,,,,,,,,,"SOD73924 HR PRECIPITATION (IN): 0.00 SNOW DEPTH (IN):0     24 HR SNOWFALL (IN):0.0  24 HR MAX TEMP (F): 5824 HR MIN TEMP (F): 39AVERAGE STATION PRESSURE:30.135 MINIMUM SEA LEVEL PRESSURE:30.05 TIME OF OCCURRENCE:0004 PEAK WIND SPEED (MPH): 35 PEAK WIND DIR (DEG):300 PEAK WIND TIME (LST):      FASTEST 2MIN SPEED (MPH): 26FASTEST 2MIN DIR (DEG):300 FASTEST 2MIN TIME (LST):     AVERAGE WIND SPEED (MPH): 8.1 24 HR AVG TEMP (F): 49DEPART FROM NORMAL:  1  HEATING DEGREE DAYS: 16 COOLING DEGREE DAYS:  0 LATEST DAY MAX TEMP (0700-1900 LST):58  LATEST NIGHT MIN TEMP(1900-0800 LST):39 HOURLY INCREMENTAL PRECIPITATION VALUES (IN):.00 0.00 0.00 0.00 0.00 0.00 0.00 0.00 0.00 0.00 0.00 0.00 0.00 0.00 0.00 0.00 0.00 0.00 0.00 0.00 0.00 0.00 0.00 0.00","SOD  ","6",,,,,,,,,,,,,,,,,,,,,,,,,"0724","1728",,"2009-06-10"
"72208013880","2020-01-06T00:56:00","FM-15","7",,"SE","0.25","mi","TEMP, PRECIP, SNOW",,,"MMTS, SRG, SNOWBOARD",,,"WFO CHS",,,,,,,,,,,,,,,,,,,,,,,,,,,"30.19","35","42","0.00",,"+0.04","8","76","30.18","CLR:00","30.14","10.00","39","250",,"6",,,,,,,,,,,,,,,,,,,,,,,,,,,,,,,,,,,,,"MET11601/06/20 00:56:02 METAR KCHS 060556Z 25005KT 10SM CLR 06/02 A3019 RMK AO2 SLP221 T00560017 10094 20044 58012 $ (KLJ)","FM-15","7",,,,,,,,,,,,,,,,,,,,,,,,,,,,"2009-06-10"
"72208013880","2020-01-06T01:00:00","FM-12","4",,"SE","0.25","mi","TEMP, PRECIP, SNOW",,,"MMTS, SRG, SNOWBOARD",,,"WFO CHS",,,,,,,,,,,,,,,,,,,,,,,,,,,"30.19","35","42",,,"+0.04","8","76","30.18",,"30.14","9.94","39","250",,"6",,,,,,,,,,,,,,,,,,,,,,,,,,,,,,,,,,,,,"SYN08072208 32966 02505 10056 20017 30207 40221 58012 90556 333 10094 20039 555 90606=","FM-12","4",,,,,,,,,,,,,,,,,,,,,,,,,,,,"2009-06-10"
"72208013880","2020-01-06T01:56:00","FM-15","7",,"SE","0.25","mi","TEMP, PRECIP, SNOW",,,"MMTS, SRG, SNOWBOARD",,,"WFO CHS",,,,,,,,,,,,,,,,,,,,,,,,,,,"30.18","34","41","0.00",,,,"76","30.17","CLR:00","30.13","10.00","38","240",,"6",,,,,,,,,,,,,,,,,,,,,,,,,,,,,,,,,,,,,"MET09801/06/20 01:56:02 METAR KCHS 060656Z 24005KT 10SM CLR 05/01 A3018 RMK AO2 SLP217 T00500011 $ (KLJ)","FM-15","7",,,,,,,,,,,,,,,,,,,,,,,,,,,,"2009-06-10"
"72208013880","2020-01-06T02:56:00","FM-15","7",,"SE","0.25","mi","TEMP, PRECIP, SNOW",,,"MMTS, SRG, SNOWBOARD",,,"WFO CHS",,,,,,,,,,,,,,,,,,,,,,,,,,,"30.16","33","38","0.00",,,,"83","30.16","CLR:00","30.11","10.00","36","210",,"7",,,,,,,,,,,,,,,,,,,,,,,,,,,,,,,,,,,,,"MET09801/06/20 02:56:02 METAR KCHS 060756Z 21006KT 10SM CLR 03/01 A3016 RMK AO2 SLP213 T00330006 $ (KLJ)","FM-15","7",,,,,,,,,,,,,,,,,,,,,,,,,,,,"2009-06-10"
"72208013880","2020-01-06T03:56:00","FM-15","7",,"SE","0.25","mi","TEMP, PRECIP, SNOW",,,"MMTS, SRG, SNOWBOARD",,,"WFO CHS",,,,,,,,,,,,,,,,,,,,,,,,,,,"30.15","34","41","0.00",,"+0.03","6","76","30.15","CLR:00","30.10","10.00","38","260",,"7",,,,,,,,,,,,,,,,,,,,,,,,,,,,,,,,,,,,,"MET10401/06/20 03:56:02 METAR KCHS 060856Z 26006KT 10SM CLR 05/01 A3015 RMK AO2 SLP210 T00500011 56011 $ (KLJ)","FM-15","7",,,,,,,,,,,,,,,,,,,,,,,,,,,,"2009-06-10"
"72208013880","2020-01-06T04:00:00","FM-12","4",,"SE","0.25","mi","TEMP, PRECIP, SNOW",,,"MMTS, SRG, SNOWBOARD",,,"WFO CHS",,,,,,,,,,,,,,,,,,,,,,,,,,,"30.15","34","41",,,"+0.03","6","76","30.15",,"30.10","9.94","38","260",,"7",,,,,,,,,,,,,,,,,,,,,,,,,,,,,,,,,,,,,"SYN06472208 32966 02606 10050 20011 30194 40210 56011 90856 555 90609=","FM-12","4",,,,,,,,,,,,,,,,,,,,,,,,,,,,"2009-06-10"
"72208013880","2020-01-06T04:56:00","FM-15","7",,"SE","0.25","mi","TEMP, PRECIP, SNOW",,,"MMTS, SRG, SNOWBOARD",,,"WFO CHS",,,,,,,,,,,,,,,,,,,,,,,,,,,"30.15","33","41","0.00",,,,"73","30.15","CLR:00","30.10","10.00","38","260",,"7",,,,,,,,,,,,,,,,,,,,,,,,,,,,,,,,,,,,,"MET09801/06/20 04:56:02 METAR KCHS 060956Z 26006KT 10SM CLR 05/01 A3015 RMK AO2 SLP209 T00500006 $ (KLJ)","FM-15","7",,,,,,,,,,,,,,,,,,,,,,,,,,,,"2009-06-10"
"72208013880","2020-01-06T05:56:00","FM-15","7",,"SE","0.25","mi","TEMP, PRECIP, SNOW",,,"MMTS, SRG, SNOWBOARD",,,"WFO CHS",,,,,,,,,,,,,,,,,,,,,,,,,,,"30.16","33","40","0.00",,,,"77","30.15","CLR:00","30.11","10.00","37","230",,"6",,,,,,,,,,,,,,,,,,,,,,,,,,,,,,,,,,,,,"MET09801/06/20 05:56:02 METAR KCHS 061056Z 23005KT 10SM CLR 04/01 A3016 RMK AO2 SLP211 T00440006 $ (KLJ)","FM-15","7",,,,,,,,,,,,,,,,,,,,,,,,,,,,"2009-06-10"
"72208013880","2020-01-06T06:56:00","FM-15","7",,"SE","0.25","mi","TEMP, PRECIP, SNOW",,,"MMTS, SRG, SNOWBOARD",,,"WFO CHS",,,,,,,,,,,,,,,,,,,,,,,,,,,"30.17","33","42","0.00",,"-0.02","3","71","30.17","CLR:00","30.12","10.00","38","270",,"7",,,,,,,,,,,,,,,,,,,,,,,,,,,,,,,,,,,,,"MET11601/06/20 06:56:02 METAR KCHS 061156Z 27006KT 10SM CLR 06/01 A3017 RMK AO2 SLP216 T00560006 10056 20028 53006 $ (KLJ)","FM-15","7",,,,,,,,,,,,,,,,,,,,,,,,,,,,"2009-06-10"
"72208013880","2020-01-06T07:00:00","FM-12","4",,"SE","0.25","mi","TEMP, PRECIP, SNOW",,,"MMTS, SRG, SNOWBOARD",,,"WFO CHS",,,,,,,,,,,,,,,,,,,,,,,,,,,"30.17","33","42",,,"-0.02","3","71","30.17",,"30.12","9.94","38","270",,"7",,,,,,,,,,,,,,,,,,,,,,,,,,,,,,,,,,,,,"SYN08072208 32966 02706 10056 20006 30201 40216 53006 91156 333 10144 20028 555 90612=","FM-12","4",,,,,,,,,,,,,,,,,,,,,,,,,,,,"2009-06-10"
"72208013880","2020-01-06T07:56:00","FM-15","7",,"SE","0.25","mi","TEMP, PRECIP, SNOW",,,"MMTS, SRG, SNOWBOARD",,,"WFO CHS",,,,,,,,,,,,,,,,,,,,,,,,,,,"30.19","34","42","0.00",,,,"73","30.19","CLR:00","30.14","10.00","39","250",,"6",,,,,,,,,,,,,,,,,,,,,,,,,,,,,,,,,,,,,"MET09601/06/20 07:56:02 METAR KCHS 061256Z 25005KT 10SM CLR 06/01 A3019 RMK AO2 SLP222 T00560011 (JMB)","FM-15","7",,,,,,,,,,,,,,,,,,,,,,,,,,,,"2009-06-10"
"72208013880","2020-01-06T08:56:00","FM-15","7",,"SE","0.25","mi","TEMP, PRECIP, SNOW",,,"MMTS, SRG, SNOWBOARD",,,"WFO CHS",,,,,,,,,,,,,,,,,,,,,,,,,,,"30.21","34","47","0.00",,,,"61","30.21","CLR:00","30.16","10.00","41","270",,"11",,,,,,,,,,,,,,,,,,,,,,,,,,,,,,,,,,,,,"MET09601/06/20 08:56:02 METAR KCHS 061356Z 27010KT 10SM CLR 08/01 A3021 RMK AO2 SLP229 T00830011 (JMB)","FM-15","7",,,,,,,,,,,,,,,,,,,,,,,,,,,,"2009-06-10"
"72208013880","2020-01-06T09:56:00","FM-15","7",,"SE","0.25","mi","TEMP, PRECIP, SNOW",,,"MMTS, SRG, SNOWBOARD",,,"WFO CHS",,,,,,,,,,,,,,,,,,,,,,,,,,,"30.23","36","51","0.00",,,,"56","30.22","CLR:00","30.18","10.00","44","300",,"9",,,,,,,,,,,,,,,,,,,,,,,,,,,,,,,,,,,,,"MET09801/06/20 09:56:02 METAR KCHS 061456Z 30008KT 10SM CLR 11/02 A3023 RMK AO2 SLP234 T01060022 $ (JMB)","FM-15","7",,,,,,,,,,,,,,,,,,,,,,,,,,,,"2009-06-10"
"72208013880","2020-01-06T10:00:00","FM-12","4",,"SE","0.25","mi","TEMP, PRECIP, SNOW",,,"MMTS, SRG, SNOWBOARD",,,"WFO CHS",,,,,,,,,,,,,,,,,,,,,,,,,,,"30.23","36","51",,,,,"56","30.22",,"30.18","9.94","44","300",,"9",,,,,,,,,,,,,,,,,,,,,,,,,,,,,,,,,,,,,"SYN05872208 32966 03008 10106 20022 30221 40234 91456 555 90615=","FM-12","4",,,,,,,,,,,,,,,,,,,,,,,,,,,,"2009-06-10"
"72208013880","2020-01-06T10:56:00","FM-15","7",,"SE","0.25","mi","TEMP, PRECIP, SNOW",,,"MMTS, SRG, SNOWBOARD",,,"WFO CHS",,,,,,,,,,,,,,,,,,,,,,,,,,,"30.21","36","56","0.00",,,,"47","30.21","CLR:00","30.16","10.00","47","290",,"7",,,,,,,,,,,,,,,,,,,,,,,,,,,,,,,,,,,,,"MET09801/06/20 10:56:02 METAR KCHS 061556Z 29006KT 10SM CLR 13/02 A3021 RMK AO2 SLP230 T01330022 $ (JMB)","FM-15","7",,,,,,,,,,,,,,,,,,,,,,,,,,,,"2009-06-10"
"72208013880","2020-01-06T11:56:00","FM-15","7",,"SE","0.25","mi","TEMP, PRECIP, SNOW",,,"MMTS, SRG, SNOWBOARD",,,"WFO CHS",,,,,,,,,,,,,,,,,,,,,,,,,,,"30.18","36","59","0.00",,,,"42","30.18","CLR:00","30.13","10.00","48","270",,"8",,,,,,,,,,,,,,,,,,,,,,,,,,,,,,,,,,,,,"MET09801/06/20 11:56:02 METAR KCHS 061656Z 27007KT 10SM CLR 15/02 A3018 RMK AO2 SLP219 T01500022 $ (JMB)","FM-15","7",,,,,,,,,,,,,,,,,,,,,,,,,,,,"2009-06-10"
"72208013880","2020-01-06T12:56:00","FM-15","7",,"SE","0.25","mi","TEMP, PRECIP, SNOW",,,"MMTS, SRG, SNOWBOARD",,,"WFO CHS",,,,,,,,,,,,,,,,,,,,,,,,,,,"30.14","36","62","0.00",,"+0.09","8","38","30.14","CLR:00","30.09","10.00","50","330",,"7",,,,,,,,,,,,,,,,,,,,,,,,,,,,,,,,,,,,,"MET11601/06/20 12:56:02 METAR KCHS 061756Z 33006KT 10SM CLR 17/02 A3014 RMK AO2 SLP206 T01670022 10167 20050 58029 $ (JMB)","FM-15","7",,,,,,,,,,,,,,,,,,,,,,,,,,,,"2009-06-10"
"72208013880","2020-01-06T13:00:00","FM-12","4",,"SE","0.25","mi","TEMP, PRECIP, SNOW",,,"MMTS, SRG, SNOWBOARD",,,"WFO CHS",,,,,,,,,,,,,,,,,,,,,,,,,,,"30.14","36","62",,,"+0.09","8","38","30.14",,"30.09","9.94","50","330",,"7",,,,,,,,,,,,,,,,,,,,,,,,,,,,,,,,,,,,,"SYN08072208 32966 03306 10167 20022 30190 40206 58029 91756 333 10167 20050 555 90618=","FM-12","4",,,,,,,,,,,,,,,,,,,,,,,,,,,,"2009-06-10"
"72208013880","2020-01-06T13:56:00","FM-15","7",,"SE","0.25","mi","TEMP, PRECIP, SNOW",,,"MMTS, SRG, SNOWBOARD",,,"WFO CHS",,,,,,,,,,,,,,,,,,,,,,,,,,,"30.12","37","63","0.00",,,,"38","30.12","CLR:00","30.07","10.00","50","VRB",,"5",,,,,,,,,,,,,,,,,,,,,,,,,,,,,,,,,,,,,"MET09801/06/20 13:56:02 METAR KCHS 061856Z VRB04KT 10SM CLR 17/03 A3012 RMK AO2 SLP200 T01720028 $ (JMB)","FM-15","7",,,,,,,,,,,,,,,,,,,,,,,,,,,,"2009-06-10"
"72208013880","2020-01-06T14:56:00","FM-15","7",,"SE","0.25","mi","TEMP, PRECIP, SNOW",,,"MMTS, SRG, SNOWBOARD",,,"WFO CHS",,,,,,,,,,,,,,,,,,,,,,,,,,,"30.12","38","64","0.00",,,,"38","30.11","CLR:00","30.07","10.00","51","250",,"8",,,,,,,,,,,,,,,,,,,,,,,,,,,,,,,,,,,,,"MET09601/06/20 14:56:02 METAR KCHS 061956Z 25007KT 10SM CLR 18/03 A3012 RMK AO2 SLP197 T01780033 (JMB)","FM-15","7",,,,,,,,,,,,,,,,,,,,,,,,,,,,"2009-06-10"
"72208013880","2020-01-06T15:56:00","FM-15","7",,"SE","0.25","mi","TEMP, PRECIP, SNOW",,,"MMTS, SRG, SNOWBOARD",,,"WFO CHS",,,,,,,,,,,,,,,,,,,,,,,,,,,"30.12","38","63","0.00",,"+0.02","5","40","30.11","CLR:00","30.07","10.00","51","240",,"6",,,,,,,,,,,,,,,,,,,,,,,,,,,,,,,,,,,,,"MET10201/06/20 15:56:02 METAR KCHS 062056Z 24005KT 10SM CLR 17/03 A3012 RMK AO2 SLP197 T01720033 55008 (BBE)","FM-15","7",,,,,,,,,,,,,,,,,,,,,,,,,,,,"2009-06-10"
"72208013880","2020-01-06T16:00:00","FM-12","4",,"SE","0.25","mi","TEMP, PRECIP, SNOW",,,"MMTS, SRG, SNOWBOARD",,,"WFO CHS",,,,,,,,,,,,,,,,,,,,,,,,,,,"30.12","38","63",,,"+0.02","5","40","30.11",,"30.07","9.94","51","240",,"6",,,,,,,,,,,,,,,,,,,,,,,,,,,,,,,,,,,,,"SYN06472208 32966 02405 10172 20033 30184 40197 55008 92056 555 90621=","FM-12","4",,,,,,,,,,,,,,,,,,,,,,,,,,,,"2009-06-10"
"72208013880","2020-01-06T16:56:00","FM-15","7",,"SE","0.25","mi","TEMP, PRECIP, SNOW",,,"MMTS, SRG, SNOWBOARD",,,"WFO CHS",,,,,,,,,,,,,,,,,,,,,,,,,,,"30.12","39","61","0.00",,,,"44","30.12","CLR:00","30.07","10.00","50","270",,"5",,,,,,,,,,,,,,,,,,,,,,,,,,,,,,,,,,,,,"MET09601/06/20 16:56:02 METAR KCHS 062156Z 27004KT 10SM CLR 16/04 A3012 RMK AO2 SLP200 T01610039 (BBE)","FM-15","7",,,,,,,,,,,,,,,,,,,,,,,,,,,,"2009-06-10"
"72208013880","2020-01-06T17:56:00","FM-15","7",,"SE","0.25","mi","TEMP, PRECIP, SNOW",,,"MMTS, SRG, SNOWBOARD",,,"WFO CHS",,,,,,,,,,,,,,,,,,,,,,,,,,,"30.13","39","56","0.00",,,,"53","30.12","FEW:02 250","30.08","10.00","48","000",,"0",,,,,,,,,,,,,,,,,,,,,,,,,,,,,,,,,,,,,"MET09901/06/20 17:56:02 METAR KCHS 062256Z 00000KT 10SM FEW250 13/04 A3013 RMK AO2 SLP201 T01330039 (BBE)","FM-15","7",,,,,,,,,,,,,,,,,,,,,,,,,,,,"2009-06-10"
"72208013880","2020-01-06T18:56:00","FM-15","7",,"SE","0.25","mi","TEMP, PRECIP, SNOW",,,"MMTS, SRG, SNOWBOARD",,,"WFO CHS",,,,,,,,,,,,,,,,,,,,,,,,,,,"30.14","40","50","0.00",,"-0.02","3","68","30.13","CLR:00","30.09","10.00","45","000",,"0",,,,,,,,,,,,,,,,,,,,,,,,,,,,,,,,,,,,,"MET11401/06/20 18:56:02 METAR KCHS 062356Z 00000KT 10SM CLR 10/04 A3014 RMK AO2 SLP204 T01000044 10183 20100 53007 (BBE)","FM-15","7",,,,,,,,,,,,,,,,,,,,,,,,,,,,"2009-06-10"
"72208013880","2020-01-06T19:00:00","FM-12","4",,"SE","0.25","mi","TEMP, PRECIP, SNOW",,,"MMTS, SRG, SNOWBOARD",,,"WFO CHS",,,,,,,,,,,,,,,,,,,,,,,,,,,"30.14","40","50",,,"-0.02","3","68","30.13",,"30.09","9.94","45","000",,"0",,,,,,,,,,,,,,,,,,,,,,,,,,,,,,,,,,,,,"SYN08072208 32966 00000 10100 20044 30190 40204 53007 92356 333 10183 20028 555 90700=","FM-12","4",,,,,,,,,,,,,,,,,,,,,,,,,,,,"2009-06-10"
"72208013880","2020-01-06T19:56:00","FM-15","7",,"SE","0.25","mi","TEMP, PRECIP, SNOW",,,"MMTS, SRG, SNOWBOARD",,,"WFO CHS",,,,,,,,,,,,,,,,,,,,,,,,,,,"30.14","40","50","0.00",,,,"68","30.14","CLR:00","30.09","10.00","45","000",,"0",,,,,,,,,,,,,,,,,,,,,,,,,,,,,,,,,,,,,"MET09001/06/20 19:56:01 METAR KCHS 070056Z 00000KT 10SM CLR 10/04 A3014 RMK AO2 SLP205 T01000044","FM-15","7",,,,,,,,,,,,,,,,,,,,,,,,,,,,"2009-06-10"
"72208013880","2020-01-06T20:56:00","FM-15","7",,"SE","0.25","mi","TEMP, PRECIP, SNOW",,,"MMTS, SRG, SNOWBOARD",,,"WFO CHS",,,,,,,,,,,,,,,,,,,,,,,,,,,"30.15","41","49","0.00",,,,"74","30.15","CLR:00","30.10","10.00","45","000",,"0",,,,,,,,,,,,,,,,,,,,,,,,,,,,,,,,,,,,,"MET09001/06/20 20:56:01 METAR KCHS 070156Z 00000KT 10SM CLR 09/05 A3015 RMK AO2 SLP209 T00940050","FM-15","7",,,,,,,,,,,,,,,,,,,,,,,,,,,,"2009-06-10"
"72208013880","2020-01-06T21:56:00","FM-15","7",,"SE","0.25","mi","TEMP, PRECIP, SNOW",,,"MMTS, SRG, SNOWBOARD",,,"WFO CHS",,,,,,,,,,,,,,,,,,,,,,,,,,,"30.14","40","46","0.00",,"-0.01","0","79","30.14","SCT:04 200","30.09","10.00","43","000",,"0",,,,,,,,,,,,,,,,,,,,,,,,,,,,,,,,,,,,,"MET10101/06/20 21:56:01 METAR KCHS 070256Z 00000KT 10SM SCT200 08/04 A3014 RMK AO2 SLP206 T00780044 50002 $","FM-15","7",,,,,,,,,,,,,,,,,,,,,,,,,,,,"2009-06-10"
"72208013880","2020-01-06T22:00:00","FM-12","4",,"SE","0.25","mi","TEMP, PRECIP, SNOW",,,"MMTS, SRG, SNOWBOARD",,,"WFO CHS",,,,,,,,,,,,,,,,,,,,,,,,,,,"30.14","40","46",,,"0.01","9","79","30.14",,"30.09","9.94","43","000",,"0",,,,,,,,,,,,,,,,,,,,,,,,,,,,,,,,,,,,,"SYN06472208 32966 40000 10078 20044 30190 40206 50002 90256 555 90703=","FM-12","4",,,,,,,,,,,,,,,,,,,,,,,,,,,,"2009-06-10"
"72208013880","2020-01-06T22:56:00","FM-15","7",,"SE","0.25","mi","TEMP, PRECIP, SNOW",,,"MMTS, SRG, SNOWBOARD",,,"WFO CHS",,,,,,,,,,,,,,,,,,,,,,,,,,,"30.14","41","46","0.00",,,,"83","30.13","SCT:04 200","30.09","10.00","44","000",,"0",,,,,,,,,,,,,,,,,,,,,,,,,,,,,,,,,,,,,"MET09501/06/20 22:56:01 METAR KCHS 070356Z 00000KT 10SM SCT200 08/05 A3014 RMK AO2 SLP204 T00780050 $","FM-15","7",,,,,,,,,,,,,,,,,,,,,,,,,,,,"2009-06-10"
"72208013880","2020-01-06T23:56:00","FM-15","7",,"SE","0.25","mi","TEMP, PRECIP, SNOW",,,"MMTS, SRG, SNOWBOARD",,,"WFO CHS",,,,,,,,,,,,,,,,,,,,,,,,,,,"30.14","42","46","0.00",,,,"86","30.13","SCT:04 200","30.09","10.00","44","000",,"0",,,,,,,,,,,,,,,,,,,,,,,,,,,,,,,,,,,,,"MET10501/06/20 23:56:02 METAR KCHS 070456Z 00000KT 10SM SCT200 08/06 A3014 RMK AO2 SLP204 T00780056 401830028 $","FM-15","7",,,,,,,,,,,,,,,,,,,,,,,,,,,,"2009-06-10"
"72208013880","2020-01-06T23:59:00","SOD  ","6",,"SE","0.25","mi","TEMP, PRECIP, SNOW",,,"MMTS, SRG, SNOWBOARD",,,"WFO CHS",,,,"37","51","63","30.15","30.10","44","4.8","0","3.1","14","65","37","270","18","0.00","0","0.0","280","14",,,,,,,,,,,,,,,,,,,,,,,,,,,,,,,,,,,,,,,,,,,,,,,,,,,,,,,,,"SOD73924 HR PRECIPITATION (IN): 0.00 SNOW DEPTH (IN):0     24 HR SNOWFALL (IN):0.0  24 HR MAX TEMP (F): 6524 HR MIN TEMP (F): 37AVERAGE STATION PRESSURE:30.100 MINIMUM SEA LEVEL PRESSURE:30.11 TIME OF OCCURRENCE:1623 PEAK WIND SPEED (MPH): 18 PEAK WIND DIR (DEG):270 PEAK WIND TIME (LST):      FASTEST 2MIN SPEED (MPH): 14FASTEST 2MIN DIR (DEG):280 FASTEST 2MIN TIME (LST):     AVERAGE WIND SPEED (MPH): 4.8 24 HR AVG TEMP (F): 51DEPART FROM NORMAL:  3  HEATING DEGREE DAYS: 14 COOLING DEGREE DAYS:  0 LATEST DAY MAX TEMP (0700-1900 LST):65  LATEST NIGHT MIN TEMP(1900-0800 LST):37 HOURLY INCREMENTAL PRECIPITATION VALUES (IN):.00 0.00 0.00 0.00 0.00 0.00 0.00 0.00 0.00 0.00 0.00 0.00 0.00 0.00 0.00 0.00 0.00 0.00 0.00 0.00 0.00 0.00 0.00 0.00","SOD  ","6",,,,,,,,,,,,,,,,,,,,,,,,,"0724","1729",,"2009-06-10"
"72208013880","2020-01-07T00:56:00","FM-15","7",,"SE","0.25","mi","TEMP, PRECIP, SNOW",,,"MMTS, SRG, SNOWBOARD",,,"WFO CHS",,,,,,,,,,,,,,,,,,,,,,,,,,,"30.13","41","44","0.00",,"+0.01","6","89","30.13","SCT:04 200","30.08","10.00","43","000",,"0",,,,,,,,,,,,,,,,,,,,,,,,,,,,,,,,,,,,,"MET11901/07/20 00:56:02 METAR KCHS 070556Z 00000KT 10SM SCT200 07/05 A3013 RMK AO2 SLP203 T00670050 10117 20067 56003 $ (KLJ)","FM-15","7",,,,,,,,,,,,,,,,,,,,,,,,,,,,"2009-06-10"
"72208013880","2020-01-07T01:00:00","FM-12","4",,"SE","0.25","mi","TEMP, PRECIP, SNOW",,,"MMTS, SRG, SNOWBOARD",,,"WFO CHS",,,,,,,,,,,,,,,,,,,,,,,,,,,"30.13","41","44",,,"+0.01","6","89","30.13",,"30.08","9.94","43","000",,"0",,,,,,,,,,,,,,,,,,,,,,,,,,,,,,,,,,,,,"SYN08072208 32966 40000 10067 20050 30187 40203 56003 90556 333 10117 20028 555 90706=","FM-12","4",,,,,,,,,,,,,,,,,,,,,,,,,,,,"2009-06-10"
"72208013880","2020-01-07T01:56:00","FM-15","7",,"SE","0.25","mi","TEMP, PRECIP, SNOW",,,"MMTS, SRG, SNOWBOARD",,,"WFO CHS",,,,,,,,,,,,,,,,,,,,,,,,,,,"30.13","41","43","0.00","MI:1 FG:2 |FG |",,,"93","30.12","FEW:02 250","30.08","10.00","42","000",,"0",,,,,,,,,,,,,,,,,,,,,,,,,,,,,,,,,,,,,"MET10601/07/20 01:56:02 METAR KCHS 070656Z 00000KT 10SM MIFG FEW250 06/05 A3013 RMK AO2 SLP201 T00610050 $ (KLJ)","FM-15","7",,,,,,,,,,,,,,,,,,,,,,,,,,,,"2009-06-10"
"72208013880","2020-01-07T02:56:00","FM-15","7",,"SE","0.25","mi","TEMP, PRECIP, SNOW",,,"MMTS, SRG, SNOWBOARD",,,"WFO CHS",,,,,,,,,,,,,,,,,,,,,,,,,,,"30.12","44","44","0.00","MI:1 FG:2 |FG |",,,"100","30.11","FEW:02 50 FEW:02 250","30.07","10.00","44","000",,"0",,,,,,,,,,,,,,,,,,,,,,,,,,,,,,,,,,,,,"MET11301/07/20 02:56:02 METAR KCHS 070756Z 00000KT 10SM MIFG FEW050 FEW250 07/07 A3012 RMK AO2 SLP198 T00670067 $ (KLJ)","FM-15","7",,,,,,,,,,,,,,,,,,,,,,,,,,,,"2009-06-10"
"72208013880","2020-01-07T03:56:00","FM-15","7",,"SE","0.25","mi","TEMP, PRECIP, SNOW",,,"MMTS, SRG, SNOWBOARD",,,"WFO CHS",,,,,,,,,,,,,,,,,,,,,,,,,,,"30.12","44","45","0.00","MI:1 FG:2 |FG |","+0.02","6","97","30.11","FEW:02 50 FEW:02 250","30.07","10.00","45","220",,"3",,,,,,,,,,,,,,,,,,,,,,,,,,,,,,,,,,,,,"MET11901/07/20 03:56:02 METAR KCHS 070856Z 22003KT 10SM MIFG FEW050 FEW250 07/07 A3012 RMK AO2 SLP197 T00720067 56006 $ (KLJ)","FM-15","7",,,,,,,,,,,,,,,,,,,,,,,,,,,,"2009-06-10"
"72208013880","2020-01-07T04:00:00","FM-12","4",,"SE","0.25","mi","TEMP, PRECIP, SNOW",,,"MMTS, SRG, SNOWBOARD",,,"WFO CHS",,,,,,,,,,,,,,,,,,,,,,,,,,,"30.12","44","45",,,"+0.02","6","97","30.11","57","30.07","9.94","45","220",,"3",,,,,,,,,,,,,,,,,,,,,,,,,,,,,,,,,,,,,"SYN06472208 31766 22203 10072 20067 30184 40197 56006 90856 555 90709=","FM-12","4",,,,,,,,,,,,,,,,,,,,,,,,,,,,"2009-06-10"
"72208013880","2020-01-07T04:56:00","FM-15","7",,"SE","0.25","mi","TEMP, PRECIP, SNOW",,,"MMTS, SRG, SNOWBOARD",,,"WFO CHS",,,,,,,,,,,,,,,,,,,,,,,,,,,"30.11","44","47","0.00",,,,"90","30.10","FEW:02 50 SCT:04 250","30.06","10.00","46","240",,"5",,,,,,,,,,,,,,,,,,,,,,,,,,,,,,,,,,,,,"MET10801/07/20 04:56:02 METAR KCHS 070956Z 24004KT 10SM FEW050 SCT250 08/07 A3011 RMK AO2 SLP194 T00830067 $ (KLJ)","FM-15","7",,,,,,,,,,,,,,,,,,,,,,,,,,,,"2009-06-10"
"72208013880","2020-01-07T05:56:00","FM-15","7",,"SE","0.25","mi","TEMP, PRECIP, SNOW",,,"MMTS, SRG, SNOWBOARD",,,"WFO CHS",,,,,,,,,,,,,,,,,,,,,,,,,,,"30.09","44","46","0.00",,,,"93","30.09","FEW:02 50 BKN:07 250","30.04","10.00","45","220",,"8",,,,,,,,,,,,,,,,,,,,,,,,,,,,,,,,,,,,,"MET10801/07/20 05:56:02 METAR KCHS 071056Z 22007KT 10SM FEW050 BKN250 08/07 A3009 RMK AO2 SLP190 T00780067 $ (KLJ)","FM-15","7",,,,,,,,,,,,,,,,,,,,,,,,,,,,"2009-06-10"
"72208013880","2020-01-07T06:56:00","FM-15","7",,"SE","0.25","mi","TEMP, PRECIP, SNOW",,,"MMTS, SRG, SNOWBOARD",,,"WFO CHS",,,,,,,,,,,,,,,,,,,,,,,,,,,"30.08","42","45","0.00",,"+0.03","8","90","30.08","FEW:02 50 BKN:07 250","30.03","10.00","44","220",,"6",,,,,,,,,,,,,,,,,,,,,,,,,,,,,,,,,,,,,"MET12601/07/20 06:56:02 METAR KCHS 071156Z 22005KT 10SM FEW050 BKN250 07/06 A3008 RMK AO2 SLP186 T00720056 10089 20061 58011 $ (KLJ)","FM-15","7",,,,,,,,,,,,,,,,,,,,,,,,,,,,"2009-06-10"
"72208013880","2020-01-07T07:00:00","FM-12","4",,"SE","0.25","mi","TEMP, PRECIP, SNOW",,,"MMTS, SRG, SNOWBOARD",,,"WFO CHS",,,,,,,,,,,,,,,,,,,,,,,,,,,"30.08","42","45",,,"+0.03","8","90","30.08","57","30.03","9.94","44","220",,"6",,,,,,,,,,,,,,,,,,,,,,,,,,,,,,,,,,,,,"SYN08072208 32766 62205 10072 20056 30170 40186 58011 91156 333 10183 20061 555 90712=","FM-12","4",,,,,,,,,,,,,,,,,,,,,,,,,,,,"2009-06-10"
"72208013880","2020-01-07T07:56:00","FM-15","7",,"SE","0.25","mi","TEMP, PRECIP, SNOW",,,"MMTS, SRG, SNOWBOARD",,,"WFO CHS",,,,,,,,,,,,,,,,,,,,,,,,,,,"30.08","43","47","0.00",,,,"86","30.08","FEW:02 50 SCT:04 250","30.03","10.00","45","220",,"7",,,,,,,,,,,,,,,,,,,,,,,,,,,,,,,,,,,,,"MET10801/07/20 07:56:02 METAR KCHS 071256Z 22006KT 10SM FEW050 SCT250 08/06 A3008 RMK AO2 SLP185 T00830061 $ (JMB)","FM-15","7",,,,,,,,,,,,,,,,,,,,,,,,,,,,"2009-06-10"
"72208013880","2020-01-07T08:56:00","FM-15","7",,"SE","0.25","mi","TEMP, PRECIP, SNOW",,,"MMTS, SRG, SNOWBOARD",,,"WFO CHS",,,,,,,,,,,,,,,,,,,,,,,,,,,"30.09","47","51","0.00",,,,"86","30.08","FEW:02 150 FEW:02 250","30.04","10.00","49","210",,"7",,,,,,,,,,,,,,,,,,,,,,,,,,,,,,,,,,,,,"MET10601/07/20 08:56:02 METAR KCHS 071356Z 21006KT 10SM FEW150 FEW250 11/08 A3009 RMK AO2 SLP187 T01060083 (JMB)","FM-15","7",,,,,,,,,,,,,,,,,,,,,,,,,,,,"2009-06-10"
"72208013880","2020-01-07T09:56:00","FM-15","7",,"SE","0.25","mi","TEMP, PRECIP, SNOW",,,"MMTS, SRG, SNOWBOARD",,,"WFO CHS",,,,,,,,,,,,,,,,,,,,,,,,,,,"30.08","47","58","0.00",,"+0.00","5","67","30.08","FEW:02 200","30.03","10.00","52","230",,"10",,,,,,,,,,,,,,,,,,,,,,,,,,,,,,,,,,,,,"MET10701/07/20 09:56:02 METAR KCHS 071456Z 23009KT 10SM FEW200 14/08 A3008 RMK AO2 SLP186 T01440083 55000 $ (JMB)","FM-15","7",,,,,,,,,,,,,,,,,,,,,,,,,,,,"2009-06-10"
"72208013880","2020-01-07T10:00:00","FM-12","4",,"SE","0.25","mi","TEMP, PRECIP, SNOW",,,"MMTS, SRG, SNOWBOARD",,,"WFO CHS",,,,,,,,,,,,,,,,,,,,,,,,,,,"30.08","47","58",,,"+0.00","5","67","30.08",,"30.03","9.94","52","230",,"10",,,,,,,,,,,,,,,,,,,,,,,,,,,,,,,,,,,,,"SYN06472208 32966 22309 10144 20083 30170 40186 55000 91456 555 90715=","FM-12","4",,,,,,,,,,,,,,,,,,,,,,,,,,,,"2009-06-10"
"72208013880","2020-01-07T10:56:00","FM-15","7",,"SE","0.25","mi","TEMP, PRECIP, SNOW",,,"MMTS, SRG, SNOWBOARD",,,"WFO CHS",,,,,,,,,,,,,,,,,,,,,,,,,,,"30.06","45","63","0.00",,,,"52","30.06","FEW:02 200","30.01","10.00","54","250","24","17",,,,,,,,,,,,,,,,,,,,,,,,,,,,,,,,,,,,,"MET10401/07/20 10:56:02 METAR KCHS 071556Z 25015G21KT 10SM FEW200 17/07 A3006 RMK AO2 SLP179 T01720072 $ (JMB)","FM-15","7",,,,,,,,,,,,,,,,,,,,,,,,,,,,"2009-06-10"
"72208013880","2020-01-07T11:56:00","FM-15","7",,"SE","0.25","mi","TEMP, PRECIP, SNOW",,,"MMTS, SRG, SNOWBOARD",,,"WFO CHS",,,,,,,,,,,,,,,,,,,,,,,,,,,"30.01","42","66","0.00",,,,"42","30.01","FEW:02 60 FEW:02 200","29.96","10.00","54","230","22","15",,,,,,,,,,,,,,,,,,,,,,,,,,,,,,,,,,,,,"MET11101/07/20 11:56:02 METAR KCHS 071656Z 23013G19KT 10SM FEW060 FEW200 19/06 A3001 RMK AO2 SLP162 T01890056 $ (JMB)","FM-15","7",,,,,,,,,,,,,,,,,,,,,,,,,,,,"2009-06-10"
"72208013880","2020-01-07T12:56:00","FM-15","7",,"SE","0.25","mi","TEMP, PRECIP, SNOW",,,"MMTS, SRG, SNOWBOARD",,,"WFO CHS",,,,,,,,,,,,,,,,,,,,,,,,,,,"29.99","45","66","0.00",,"+0.09","6","47","29.99","BKN:07 65","29.94","10.00","55","250",,"15",,,,,,,,,,,,,,,,,,,,,,,,,,,,,,,,,,,,,"MET11901/07/20 12:56:02 METAR KCHS 071756Z 25013KT 10SM BKN065 19/07 A2999 RMK AO2 SLP156 T01890072 10200 20072 56030 $ (JMB)","FM-15","7",,,,,,,,,,,,,,,,,,,,,,,,,,,,"2009-06-10"
"72208013880","2020-01-07T13:00:00","FM-12","4",,"SE","0.25","mi","TEMP, PRECIP, SNOW",,,"MMTS, SRG, SNOWBOARD",,,"WFO CHS",,,,,,,,,,,,,,,,,,,,,,,,,,,"29.99","45","66",,,"+0.09","6","47","29.99","57","29.94","9.94","55","250",,"15",,,,,,,,,,,,,,,,,,,,,,,,,,,,,,,,,,,,,"SYN08072208 32766 62513 10189 20072 30140 40156 56030 91756 333 10200 20072 555 90718=","FM-12","4",,,,,,,,,,,,,,,,,,,,,,,,,,,,"2009-06-10"
"72208013880","2020-01-07T13:56:00","FM-15","7",,"SE","0.25","mi","TEMP, PRECIP, SNOW",,,"MMTS, SRG, SNOWBOARD",,,"WFO CHS",,,,,,,,,,,,,,,,,,,,,,,,,,,"29.97","49","66","0.00",,,,"54","29.97","BKN:07 60 BKN:07 200","29.92","10.00","57","260","23","16",,,,,,,,,,,,,,,,,,,,,,,,,,,,,,,,,,,,,"MET10901/07/20 13:56:02 METAR KCHS 071856Z 26014G20KT 10SM BKN060 BKN200 19/09 A2997 RMK AO2 SLP149 T01890094 (JMB)","FM-15","7",,,,,,,,,,,,,,,,,,,,,,,,,,,,"2009-06-10"
"72208013880","2020-01-07T14:56:00","FM-15","7",,"SE","0.25","mi","TEMP, PRECIP, SNOW",,,"MMTS, SRG, SNOWBOARD",,,"WFO CHS",,,,,,,,,,,,,,,,,,,,,,,,,,,"29.98","44","67","0.00",,,,"44","29.98","FEW:02 60 FEW:02 200","29.93","10.00","55","290","30","16",,,,,,,,,,,,,,,,,,,,,,,,,,,,,,,,,,,,,"MET12701/07/20 14:56:02 METAR KCHS 071956Z 29014G26KT 10SM FEW060 FEW200 19/07 A2998 RMK AO2 PK WND 27026/1955 SLP151 T01940067 (JMB)","FM-15","7",,,,,,,,,,,,,,,,,,,,,,,,,,,,"2009-06-10"
"72208013880","2020-01-07T15:56:00","FM-15","7",,"SE","0.25","mi","TEMP, PRECIP, SNOW",,,"MMTS, SRG, SNOWBOARD",,,"WFO CHS",,,,,,,,,,,,,,,,,,,,,,,,,,,"30.01","42","66","0.00",,"-0.01","3","42","30.01","FEW:02 55 SCT:04 200","29.96","10.00","54","290","24","17",,,,,,,,,,,,,,,,,,,,,,,,,,,,,,,,,,,,,"MET11701/07/20 15:56:02 METAR KCHS 072056Z 29015G21KT 10SM FEW055 SCT200 19/06 A3001 RMK AO2 SLP161 T01890056 53005 $ (BBE)","FM-15","7",,,,,,,,,,,,,,,,,,,,,,,,,,,,"2009-06-10"
"72208013880","2020-01-07T16:00:00","FM-12","4",,"SE","0.25","mi","TEMP, PRECIP, SNOW",,,"MMTS, SRG, SNOWBOARD",,,"WFO CHS",,,,,,,,,,,,,,,,,,,,,,,,,,,"30.01","42","66",,,"-0.01","3","42","30.01","57","29.96","9.94","54","290",,"17",,,,,,,,,,,,,,,,,,,,,,,,,,,,,,,,,,,,,"SYN07472208 32766 42915 10189 20056 30146 40161 53005 92056 333 91021 555 90721=","FM-12","4",,,,,,,,,,,,,,,,,,,,,,,,,,,,"2009-06-10"
"72208013880","2020-01-07T16:56:00","FM-15","7",,"SE","0.25","mi","TEMP, PRECIP, SNOW",,,"MMTS, SRG, SNOWBOARD",,,"WFO CHS",,,,,,,,,,,,,,,,,,,,,,,,,,,"30.04","40","63","0.00",,,,"43","30.03","FEW:02 60","29.99","10.00","52","290","20","13",,,,,,,,,,,,,,,,,,,,,,,,,,,,,,,,,,,,,"MET10401/07/20 16:56:02 METAR KCHS 072156Z 29011G17KT 10SM FEW060 17/04 A3004 RMK AO2 SLP170 T01720044 $ (BBE)","FM-15","7",,,,,,,,,,,,,,,,,,,,,,,,,,,,"2009-06-10"
"72208013880","2020-01-07T17:56:00","FM-15","7",,"SE","0.25","mi","TEMP, PRECIP, SNOW",,,"MMTS, SRG, SNOWBOARD",,,"WFO CHS",,,,,,,,,,,,,,,,,,,,,,,,,,,"30.07","38","60","0.00",,,,"44","30.06","FEW:02 60","30.02","10.00","49","280",,"8",,,,,,,,,,,,,,,,,,,,,,,,,,,,,,,,,,,,,"MET10101/07/20 17:56:02 METAR KCHS 072256Z 28007KT 10SM FEW060 16/03 A3007 RMK AO2 SLP181 T01560033 $ (BBE)","FM-15","7",,,,,,,,,,,,,,,,,,,,,,,,,,,,"2009-06-10"
"72208013880","2020-01-07T18:56:00","FM-15","7",,"SE","0.25","mi","TEMP, PRECIP, SNOW",,,"MMTS, SRG, SNOWBOARD",,,"WFO CHS",,,,,,,,,,,,,,,,,,,,,,,,,,,"30.11","38","57","0.00",,"-0.10","3","49","30.10","CLR:00","30.06","10.00","48","270",,"5",,,,,,,,,,,,,,,,,,,,,,,,,,,,,,,,,,,,,"MET11601/07/20 18:56:02 METAR KCHS 072356Z 27004KT 10SM CLR 14/03 A3011 RMK AO2 SLP194 T01390033 10194 20139 53033 $ (BBE)","FM-15","7",,,,,,,,,,,,,,,,,,,,,,,,,,,,"2009-06-10"
"72208013880","2020-01-07T19:00:00","FM-12","4",,"SE","0.25","mi","TEMP, PRECIP, SNOW",,,"MMTS, SRG, SNOWBOARD",,,"WFO CHS",,,,,,,,,,,,,,,,,,,,,,,,,,,"30.11","38","57",,,"-0.10","3","49","30.10",,"30.06","9.94","48","270",,"5",,,,,,,,,,,,,,,,,,,,,,,,,,,,,,,,,,,,,"SYN08072208 32966 02704 10139 20033 30180 40194 53033 92356 333 10200 20061 555 90800=","FM-12","4",,,,,,,,,,,,,,,,,,,,,,,,,,,,"2009-06-10"
"72208013880","2020-01-07T19:56:00","FM-15","7",,"SE","0.25","mi","TEMP, PRECIP, SNOW",,,"MMTS, SRG, SNOWBOARD",,,"WFO CHS",,,,,,,,,,,,,,,,,,,,,,,,,,,"30.15","39","55","0.00",,,,"55","30.14","CLR:00","30.10","10.00","47","290",,"7",,,,,,,,,,,,,,,,,,,,,,,,,,,,,,,,,,,,,"MET09201/07/20 19:56:01 METAR KCHS 080056Z 29006KT 10SM CLR 13/04 A3015 RMK AO2 SLP208 T01280039 $","FM-15","7",,,,,,,,,,,,,,,,,,,,,,,,,,,,"2009-06-10"
"72208013880","2020-01-07T20:56:00","FM-15","7",,"SE","0.25","mi","TEMP, PRECIP, SNOW",,,"MMTS, SRG, SNOWBOARD",,,"WFO CHS",,,,,,,,,,,,,,,,,,,,,,,,,,,"30.17","36","54","0.00",,,,"51","30.16","CLR:00","30.12","10.00","46","290",,"6",,,,,,,,,,,,,,,,,,,,,,,,,,,,,,,,,,,,,"MET09201/07/20 20:56:01 METAR KCHS 080156Z 29005KT 10SM CLR 12/02 A3017 RMK AO2 SLP215 T01220022 $","FM-15","7",,,,,,,,,,,,,,,,,,,,,,,,,,,,"2009-06-10"
"72208013880","2020-01-07T21:56:00","FM-15","7",,"SE","0.25","mi","TEMP, PRECIP, SNOW",,,"MMTS, SRG, SNOWBOARD",,,"WFO CHS",,,,,,,,,,,,,,,,,,,,,,,,,,,"30.20","37","49","0.00",,"-0.10","1","64","30.20","CLR:00","30.15","10.00","44","280",,"6",,,,,,,,,,,,,,,,,,,,,,,,,,,,,,,,,,,,,"MET09801/07/20 21:56:01 METAR KCHS 080256Z 28005KT 10SM CLR 09/03 A3020 RMK AO2 SLP226 T00940028 51033 $","FM-15","7",,,,,,,,,,,,,,,,,,,,,,,,,,,,"2009-06-10"
"72208013880","2020-01-07T22:00:00","FM-12","4",,"SE","0.25","mi","TEMP, PRECIP, SNOW",,,"MMTS, SRG, SNOWBOARD",,,"WFO CHS",,,,,,,,,,,,,,,,,,,,,,,,,,,"30.20","37","49",,,"-0.10","1","64","30.20",,"30.15","9.94","44","280",,"6",,,,,,,,,,,,,,,,,,,,,,,,,,,,,,,,,,,,,"SYN06472208 32966 02805 10094 20028 30211 40226 51033 90256 555 90803=","FM-12","4",,,,,,,,,,,,,,,,,,,,,,,,,,,,"2009-06-10"
"72208013880","2020-01-07T22:56:00","FM-15","7",,"SE","0.25","mi","TEMP, PRECIP, SNOW",,,"MMTS, SRG, SNOWBOARD",,,"WFO CHS",,,,,,,,,,,,,,,,,,,,,,,,,,,"30.22","34","49","0.00",,,,"56","30.22","CLR:00","30.17","10.00","42","290",,"6",,,,,,,,,,,,,,,,,,,,,,,,,,,,,,,,,,,,,"MET09201/07/20 22:56:01 METAR KCHS 080356Z 29005KT 10SM CLR 09/01 A3022 RMK AO2 SLP232 T00940011 $","FM-15","7",,,,,,,,,,,,,,,,,,,,,,,,,,,,"2009-06-10"
"72208013880","2020-01-07T23:56:00","FM-15","7",,"SE","0.25","mi","TEMP, PRECIP, SNOW",,,"MMTS, SRG, SNOWBOARD",,,"WFO CHS",,,,,,,,,,,,,,,,,,,,,,,,,,,"30.23","32","48","0.00",,,,"54","30.23","CLR:00","30.18","10.00","41","290",,"8",,,,,,,,,,,,,,,,,,,,,,,,,,,,,,,,,,,,,"MET10201/07/20 23:56:02 METAR KCHS 080456Z 29007KT 10SM CLR 09/00 A3023 RMK AO2 SLP237 T00890000 402000061 $","FM-15","7",,,,,,,,,,,,,,,,,,,,,,,,,,,,"2009-06-10"
"72208013880","2020-01-07T23:59:00","SOD  ","6",,"SE","0.25","mi","TEMP, PRECIP, SNOW",,,"MMTS, SRG, SNOWBOARD",,,"WFO CHS",,,,"42","56","65","30.09","30.02","48","8.3","0","8.1","9","68","43","270","30","0.00","0","0.0","270","24","MIFG FG",,,,,,,,,,,,,,,,,,,,,,,,,,,,,,,,,,,,,,,,,,,,,,,,,,,,,,,,"SOD75624 HR PRECIPITATION (IN): 0.00 SNOW DEPTH (IN):0     24 HR SNOWFALL (IN):0.0  WEATHER(CODE):1  24 HR MAX TEMP (F): 6824 HR MIN TEMP (F): 43AVERAGE STATION PRESSURE:30.020 MINIMUM SEA LEVEL PRESSURE:29.97 TIME OF OCCURRENCE:1459 PEAK WIND SPEED (MPH): 30 PEAK WIND DIR (DEG):270 PEAK WIND TIME (LST):      FASTEST 2MIN SPEED (MPH): 24FASTEST 2MIN DIR (DEG):270 FASTEST 2MIN TIME (LST):     AVERAGE WIND SPEED (MPH): 8.3 24 HR AVG TEMP (F): 56DEPART FROM NORMAL:  8  HEATING DEGREE DAYS:  9 COOLING DEGREE DAYS:  0 LATEST DAY MAX TEMP (0700-1900 LST):68  LATEST NIGHT MIN TEMP(1900-0800 LST):43 HOURLY INCREMENTAL PRECIPITATION VALUES (IN):.00 0.00 0.00 0.00 0.00 0.00 0.00 0.00 0.00 0.00 0.00 0.00 0.00 0.00 0.00 0.00 0.00 0.00 0.00 0.00 0.00 0.00 0.00 0.00","SOD  ","6",,,,,,,,,,,,,,,,,,,,,,,,,"0724","1729",,"2009-06-10"
"72208013880","2020-01-08T00:56:00","FM-15","7",,"SE","0.25","mi","TEMP, PRECIP, SNOW",,,"MMTS, SRG, SNOWBOARD",,,"WFO CHS",,,,,,,,,,,,,,,,,,,,,,,,,,,"30.25","31","46",,,"-0.05","1","56","30.24","CLR:00","30.20","10.00","40","280",,"5",,,,,,,,,,,,,,,,,,,,,,,,,,,,,,,,,,,,,"MET11701/08/20 00:56:02 METAR KCHS 080556Z 28004KT 10SM CLR 08/M01 A3025 RMK AO2 SLP242 T00781006 10139 20078 51016 $ (KLJ)","FM-15","7",,,,,,,,,,,,,,,,,,,,,,,,,,,,"2009-06-10"
"72208013880","2020-01-08T01:00:00","FM-12","4",,"SE","0.25","mi","TEMP, PRECIP, SNOW",,,"MMTS, SRG, SNOWBOARD",,,"WFO CHS",,,,,,,,,,,,,,,,,,,,,,,,,,,"30.25","31","46",,,"-0.05","1","56","30.24",,"30.20","9.94","40","280",,"5",,,,,,,,,,,,,,,,,,,,,,,,,,,,,,,,,,,,,"SYN08072208 32966 02804 10078 21006 30228 40242 51016 90556 333 10139 20061 555 90806=","FM-12","4",,,,,,,,,,,,,,,,,,,,,,,,,,,,"2009-06-10"
"72208013880","2020-01-08T01:56:00","FM-15","7",,"SE","0.25","mi","TEMP, PRECIP, SNOW",,,"MMTS, SRG, SNOWBOARD",,,"WFO CHS",,,,,,,,,,,,,,,,,,,,,,,,,,,"30.26","30","41",,,,,"65","30.26","CLR:00","30.21","10.00","37","280",,"3",,,,,,,,,,,,,,,,,,,,,,,,,,,,,,,,,,,,,"MET09901/08/20 01:56:02 METAR KCHS 080656Z 28003KT 10SM CLR 05/M01 A3026 RMK AO2 SLP246 T00501011 $ (KLJ)","FM-15","7",,,,,,,,,,,,,,,,,,,,,,,,,,,,"2009-06-10"
"72208013880","2020-01-08T02:56:00","FM-15","7",,"SE","0.25","mi","TEMP, PRECIP, SNOW",,,"MMTS, SRG, SNOWBOARD",,,"WFO CHS",,,,,,,,,,,,,,,,,,,,,,,,,,,"30.27","31","43",,,,,"63","30.27","CLR:00","30.22","10.00","38","280",,"6",,,,,,,,,,,,,,,,,,,,,,,,,,,,,,,,,,,,,"MET09901/08/20 02:56:02 METAR KCHS 080756Z 28005KT 10SM CLR 06/M01 A3027 RMK AO2 SLP249 T00611006 $ (KLJ)","FM-15","7",,,,,,,,,,,,,,,,,,,,,,,,,,,,"2009-06-10"
"72208013880","2020-01-08T03:56:00","FM-15","7",,"SE","0.25","mi","TEMP, PRECIP, SNOW",,,"MMTS, SRG, SNOWBOARD",,,"WFO CHS",,,,,,,,,,,,,,,,,,,,,,,,,,,"30.28","31","42",,,"-0.03","2","65","30.28","CLR:00","30.23","10.00","38","280",,"5",,,,,,,,,,,,,,,,,,,,,,,,,,,,,,,,,,,,,"MET10501/08/20 03:56:02 METAR KCHS 080856Z 28004KT 10SM CLR 06/M01 A3028 RMK AO2 SLP253 T00561006 52010 $ (KLJ)","FM-15","7",,,,,,,,,,,,,,,,,,,,,,,,,,,,"2009-06-10"
"72208013880","2020-01-08T04:00:00","FM-12","4",,"SE","0.25","mi","TEMP, PRECIP, SNOW",,,"MMTS, SRG, SNOWBOARD",,,"WFO CHS",,,,,,,,,,,,,,,,,,,,,,,,,,,"30.28","31","42",,,"-0.03","2","65","30.28",,"30.23","9.94","38","280",,"5",,,,,,,,,,,,,,,,,,,,,,,,,,,,,,,,,,,,,"SYN06472208 32966 02804 10056 21006 30238 40253 52010 90856 555 90809=","FM-12","4",,,,,,,,,,,,,,,,,,,,,,,,,,,,"2009-06-10"
"72208013880","2020-01-08T04:56:00","FM-15","7",,"SE","0.25","mi","TEMP, PRECIP, SNOW",,,"MMTS, SRG, SNOWBOARD",,,"WFO CHS",,,,,,,,,,,,,,,,,,,,,,,,,,,"30.27","30","39",,,,,"70","30.27","CLR:00","30.22","10.00","35","000",,"0",,,,,,,,,,,,,,,,,,,,,,,,,,,,,,,,,,,,,"MET09901/08/20 04:56:02 METAR KCHS 080956Z 00000KT 10SM CLR 04/M01 A3027 RMK AO2 SLP251 T00391011 $ (KLJ)","FM-15","7",,,,,,,,,,,,,,,,,,,,,,,,,,,,"2009-06-10"
"72208013880","2020-01-08T05:56:00","FM-15","7",,"SE","0.25","mi","TEMP, PRECIP, SNOW",,,"MMTS, SRG, SNOWBOARD",,,"WFO CHS",,,,,,,,,,,,,,,,,,,,,,,,,,,"30.31","30","37",,,,,"76","30.30","CLR:00","30.26","10.00","34","290",,"5",,,,,,,,,,,,,,,,,,,,,,,,,,,,,,,,,,,,,"MET09901/08/20 05:56:02 METAR KCHS 081056Z 29004KT 10SM CLR 03/M01 A3031 RMK AO2 SLP261 T00281011 $ (KLJ)","FM-15","7",,,,,,,,,,,,,,,,,,,,,,,,,,,,"2009-06-10"
"72208013880","2020-01-08T06:56:00","FM-15","7",,"SE","0.25","mi","TEMP, PRECIP, SNOW",,,"MMTS, SRG, SNOWBOARD",,,"WFO CHS",,,,,,,,,,,,,,,,,,,,,,,,,,,"30.33","30","37",,,"-0.05","3","76","30.32","CLR:00","30.28","10.00","34","000",,"0",,,,,,,,,,,,,,,,,,,,,,,,,,,,,,,,,,,,,"MET11701/08/20 06:56:02 METAR KCHS 081156Z 00000KT 10SM CLR 03/M01 A3033 RMK AO2 SLP269 T00281011 10083 20017 53016 $ (KLJ)","FM-15","7",,,,,,,,,,,,,,,,,,,,,,,,,,,,"2009-06-10"
"72208013880","2020-01-08T07:00:00","FM-12","4",,"SE","0.25","mi","TEMP, PRECIP, SNOW",,,"MMTS, SRG, SNOWBOARD",,,"WFO CHS",,,,,,,,,,,,,,,,,,,,,,,,,,,"30.33","30","37",,,"-0.05","3","76","30.32",,"30.28","9.94","34","000",,"0",,,,,,,,,,,,,,,,,,,,,,,,,,,,,,,,,,,,,"SYN08072208 32966 00000 10028 21011 30255 40269 53016 91156 333 10200 20017 555 90812=","FM-12","4",,,,,,,,,,,,,,,,,,,,,,,,,,,,"2009-06-10"
"72208013880","2020-01-08T07:56:00","FM-15","7",,"SE","0.25","mi","TEMP, PRECIP, SNOW",,,"MMTS, SRG, SNOWBOARD",,,"WFO CHS",,,,,,,,,,,,,,,,,,,,,,,,,,,"30.35","31","39",,,,,"73","30.34","CLR:00","30.29","10.00","36","300",,"3",,,,,,,,,,,,,,,,,,,,,,,,,,,,,,,,,,,,,"MET09701/08/20 07:56:02 METAR KCHS 081256Z 30003KT 10SM CLR 04/M01 A3035 RMK AO2 SLP275 T00391006 (JMB)","FM-15","7",,,,,,,,,,,,,,,,,,,,,,,,,,,,"2009-06-10"
"72208013880","2020-01-08T08:56:00","FM-15","7",,"SE","0.25","mi","TEMP, PRECIP, SNOW",,,"MMTS, SRG, SNOWBOARD",,,"WFO CHS",,,,,,,,,,,,,,,,,,,,,,,,,,,"30.39","31","44",,,,,"60","30.38","CLR:00","30.34","10.00","39","320",,"8",,,,,,,,,,,,,,,,,,,,,,,,,,,,,,,,,,,,,"MET09701/08/20 08:56:02 METAR KCHS 081356Z 32007KT 10SM CLR 07/M01 A3039 RMK AO2 SLP289 T00671006 (JMB)","FM-15","7",,,,,,,,,,,,,,,,,,,,,,,,,,,,"2009-06-10"
"72208013880","2020-01-08T09:56:00","FM-15","7",,"SE","0.25","mi","TEMP, PRECIP, SNOW",,,"MMTS, SRG, SNOWBOARD",,,"WFO CHS",,,,,,,,,,,,,,,,,,,,,,,,,,,"30.40","31","50",,,"-0.08","1","48","30.40","CLR:00","30.35","10.00","42","VRB",,"5",,,,,,,,,,,,,,,,,,,,,,,,,,,,,,,,,,,,,"MET10301/08/20 09:56:02 METAR KCHS 081456Z VRB04KT 10SM CLR 10/M01 A3040 RMK AO2 SLP295 T01001006 51026 (JMB)","FM-15","7",,,,,,,,,,,,,,,,,,,,,,,,,,,,"2009-06-10"
"72208013880","2020-01-08T10:00:00","FM-12","4",,"SE","0.25","mi","TEMP, PRECIP, SNOW",,,"MMTS, SRG, SNOWBOARD",,,"WFO CHS",,,,,,,,,,,,,,,,,,,,,,,,,,,"30.40","31","50",,,"-0.08","1","48","30.40",,"30.35","9.94","42",,,"5",,,,,,,,,,,,,,,,,,,,,,,,,,,,,,,,,,,,,"SYN06472208 32966 0//04 10100 21006 30278 40295 51026 91456 555 90815=","FM-12","4",,,,,,,,,,,,,,,,,,,,,,,,,,,,"2009-06-10"
"72208013880","2020-01-08T10:56:00","FM-15","7",,"SE","0.25","mi","TEMP, PRECIP, SNOW",,,"MMTS, SRG, SNOWBOARD",,,"WFO CHS",,,,,,,,,,,,,,,,,,,,,,,,,,,"30.40","30","55",,,,,"38","30.40","CLR:00","30.35","10.00","44","270",,"5",,,,,,,,,,,,,,,,,,,,,,,,,,,,,,,,,,,,,"MET09701/08/20 10:56:02 METAR KCHS 081556Z 27004KT 10SM CLR 13/M01 A3040 RMK AO2 SLP293 T01281011 (JMB)","FM-15","7",,,,,,,,,,,,,,,,,,,,,,,,,,,,"2009-06-10"
"72208013880","2020-01-08T11:56:00","FM-15","7",,"SE","0.25","mi","TEMP, PRECIP, SNOW",,,"MMTS, SRG, SNOWBOARD",,,"WFO CHS",,,,,,,,,,,,,,,,,,,,,,,,,,,"30.38","28","59",,,,,"31","30.37","CLR:00","30.33","10.00","45","250",,"8",,,,,,,,,,,,,,,,,,,,,,,,,,,,,,,,,,,,,"MET09701/08/20 11:56:02 METAR KCHS 081656Z 25007KT 10SM CLR 15/M02 A3038 RMK AO2 SLP285 T01501022 (JMB)","FM-15","7",,,,,,,,,,,,,,,,,,,,,,,,,,,,"2009-06-10"
"72208013880","2020-01-08T12:56:00","FM-15","7",,"SE","0.25","mi","TEMP, PRECIP, SNOW",,,"MMTS, SRG, SNOWBOARD",,,"WFO CHS",,,,,,,,,,,,,,,,,,,,,,,,,,,"30.36","27","61",,,,,"27","30.35","FEW:02 250","30.31","10.00","46","270",,"9",,,,,,,,,,,,,,,,,,,,,,,,,,,,,,,,,,,,,"MET11201/08/20 12:56:02 METAR KCHS 081756Z 27008KT 10SM FEW250 16/M03 A3036 RMK AO2 SLP279 T01611028 10161 20028 (JMB)","FM-15","7",,,,,,,,,,,,,,,,,,,,,,,,,,,,"2009-06-10"
"72208013880","2020-01-08T13:00:00","FM-12","4",,"SE","0.25","mi","TEMP, PRECIP, SNOW",,,"MMTS, SRG, SNOWBOARD",,,"WFO CHS",,,,,,,,,,,,,,,,,,,,,,,,,,,"30.36","27","61",,,,,"27","30.35",,"30.31","9.94","46","270",,"9",,,,,,,,,,,,,,,,,,,,,,,,,,,,,,,,,,,,,"SYN07472208 32966 22708 10161 21028 30265 40279 91756 333 10161 20028 555 90818=","FM-12","4",,,,,,,,,,,,,,,,,,,,,,,,,,,,"2009-06-10"
"72208013880","2020-01-08T13:56:00","FM-15","7",,"SE","0.25","mi","TEMP, PRECIP, SNOW",,,"MMTS, SRG, SNOWBOARD",,,"WFO CHS",,,,,,,,,,,,,,,,,,,,,,,,,,,"30.34","27","63","0.00",,,,"26","30.33","FEW:02 250","30.29","10.00","47","260",,"9",,,,,,,,,,,,,,,,,,,,,,,,,,,,,,,,,,,,,"MET10001/08/20 13:56:02 METAR KCHS 081856Z 26008KT 10SM FEW250 17/M03 A3034 RMK AO2 SLP272 T01721028 (JMB)","FM-15","7",,,,,,,,,,,,,,,,,,,,,,,,,,,,"2009-06-10"
"72208013880","2020-01-08T14:56:00","FM-15","7",,"SE","0.25","mi","TEMP, PRECIP, SNOW",,,"MMTS, SRG, SNOWBOARD",,,"WFO CHS",,,,,,,,,,,,,,,,,,,,,,,,,,,"30.33","27","64","0.00",,,,"25","30.33","CLR:00","30.28","10.00","48","270",,"10",,,,,,,,,,,,,,,,,,,,,,,,,,,,,,,,,,,,,"MET09701/08/20 14:56:02 METAR KCHS 081956Z 27009KT 10SM CLR 18/M03 A3033 RMK AO2 SLP271 T01781028 (JMB)","FM-15","7",,,,,,,,,,,,,,,,,,,,,,,,,,,,"2009-06-10"
"72208013880","2020-01-08T15:56:00","FM-15","7",,"SE","0.25","mi","TEMP, PRECIP, SNOW",,,"MMTS, SRG, SNOWBOARD",,,"WFO CHS",,,,,,,,,,,,,,,,,,,,,,,,,,,"30.35","27","64","0.00",,"+0.01","5","25","30.34","CLR:00","30.29","10.00","48","290",,"8",,,,,,,,,,,,,,,,,,,,,,,,,,,,,,,,,,,,,"MET10501/08/20 15:56:02 METAR KCHS 082056Z 29007KT 10SM CLR 18/M03 A3035 RMK AO2 SLP275 T01781028 55004 $ (BBE)","FM-15","7",,,,,,,,,,,,,,,,,,,,,,,,,,,,"2009-06-10"
"72208013880","2020-01-08T16:00:00","FM-12","4",,"SE","0.25","mi","TEMP, PRECIP, SNOW",,,"MMTS, SRG, SNOWBOARD",,,"WFO CHS",,,,,,,,,,,,,,,,,,,,,,,,,,,"30.35","27","64",,,"+0.01","5","25","30.34",,"30.30","9.94","48","290",,"8",,,,,,,,,,,,,,,,,,,,,,,,,,,,,,,,,,,,,"SYN06472208 32966 02907 10178 21028 30261 40275 55004 92056 555 90821=","FM-12","4",,,,,,,,,,,,,,,,,,,,,,,,,,,,"2009-06-10"
"72208013880","2020-01-08T16:56:00","FM-15","7",,"SE","0.25","mi","TEMP, PRECIP, SNOW",,,"MMTS, SRG, SNOWBOARD",,,"WFO CHS",,,,,,,,,,,,,,,,,,,,,,,,,,,"30.37","28","61","0.00",,,,"29","30.37","CLR:00","30.32","10.00","46","270",,"7",,,,,,,,,,,,,,,,,,,,,,,,,,,,,,,,,,,,,"MET09901/08/20 16:56:02 METAR KCHS 082156Z 27006KT 10SM CLR 16/M02 A3037 RMK AO2 SLP285 T01611022 $ (BBE)","FM-15","7",,,,,,,,,,,,,,,,,,,,,,,,,,,,"2009-06-10"
"72208013880","2020-01-08T17:56:00","FM-15","7",,"SE","0.25","mi","TEMP, PRECIP, SNOW",,,"MMTS, SRG, SNOWBOARD",,,"WFO CHS",,,,,,,,,,,,,,,,,,,,,,,,,,,"30.39","28","56","0.00",,,,"34","30.38","CLR:00","30.34","10.00","44","270",,"5",,,,,,,,,,,,,,,,,,,,,,,,,,,,,,,,,,,,,"MET09901/08/20 17:56:02 METAR KCHS 082256Z 27004KT 10SM CLR 13/M02 A3039 RMK AO2 SLP289 T01331022 $ (BBE)","FM-15","7",,,,,,,,,,,,,,,,,,,,,,,,,,,,"2009-06-10"
"72208013880","2020-01-08T18:56:00","FM-15","7",,"SE","0.25","mi","TEMP, PRECIP, SNOW",,,"MMTS, SRG, SNOWBOARD",,,"WFO CHS",,,,,,,,,,,,,,,,,,,,,,,,,,,"30.41","29","54","0.00",,,,"38","30.40","CLR:00","30.36","10.00","43","280",,"5",,,,,,,,,,,,,,,,,,,,,,,,,,,,,,,,,,,,,"MET10901/08/20 18:56:02 METAR KCHS 082356Z 28004KT 10SM CLR 12/M02 A3041 RMK AO2 SLP296 10178 20122 T01221017 (BBE)","FM-15","7",,,,,,,,,,,,,,,,,,,,,,,,,,,,"2009-06-10"
"72208013880","2020-01-08T19:00:00","FM-12","4",,"SE","0.25","mi","TEMP, PRECIP, SNOW",,,"MMTS, SRG, SNOWBOARD",,,"WFO CHS",,,,,,,,,,,,,,,,,,,,,,,,,,,"30.41","29","54",,,,,"38","30.40",,"30.36","9.94","43","280",,"5",,,,,,,,,,,,,,,,,,,,,,,,,,,,,,,,,,,,,"SYN07472208 32966 02804 10122 21017 30282 40296 92356 333 10178 20017 555 90900=","FM-12","4",,,,,,,,,,,,,,,,,,,,,,,,,,,,"2009-06-10"
"72208013880","2020-01-08T19:56:00","FM-15","7",,"SE","0.25","mi","TEMP, PRECIP, SNOW",,,"MMTS, SRG, SNOWBOARD",,,"WFO CHS",,,,,,,,,,,,,,,,,,,,,,,,,,,"30.43","31","48","0.00",,,,"52","30.43","CLR:00","30.38","10.00","41","000",,"0",,,,,,,,,,,,,,,,,,,,,,,,,,,,,,,,,,,,,"MET09101/08/20 19:56:01 METAR KCHS 090056Z 00000KT 10SM CLR 09/M01 A3043 RMK AO2 SLP304 T00891006","FM-15","7",,,,,,,,,,,,,,,,,,,,,,,,,,,,"2009-06-10"
"72208013880","2020-01-08T20:56:00","FM-15","7",,"SE","0.25","mi","TEMP, PRECIP, SNOW",,,"MMTS, SRG, SNOWBOARD",,,"WFO CHS",,,,,,,,,,,,,,,,,,,,,,,,,,,"30.45","31","50","0.00",,,,"48","30.45","CLR:00","30.40","10.00","42","000",,"0",,,,,,,,,,,,,,,,,,,,,,,,,,,,,,,,,,,,,"MET09101/08/20 20:56:01 METAR KCHS 090156Z 00000KT 10SM CLR 10/M01 A3045 RMK AO2 SLP312 T01001006","FM-15","7",,,,,,,,,,,,,,,,,,,,,,,,,,,,"2009-06-10"
"72208013880","2020-01-08T21:56:00","FM-15","7",,"SE","0.25","mi","TEMP, PRECIP, SNOW",,,"MMTS, SRG, SNOWBOARD",,,"WFO CHS",,,,,,,,,,,,,,,,,,,,,,,,,,,"30.47","31","46","0.00",,"-0.06","1","56","30.46","CLR:00","30.42","10.00","40","000",,"0",,,,,,,,,,,,,,,,,,,,,,,,,,,,,,,,,,,,,"MET09701/08/20 21:56:01 METAR KCHS 090256Z 00000KT 10SM CLR 08/M01 A3047 RMK AO2 SLP316 T00781006 51020","FM-15","7",,,,,,,,,,,,,,,,,,,,,,,,,,,,"2009-06-10"
"72208013880","2020-01-08T22:00:00","FM-12","4",,"SE","0.25","mi","TEMP, PRECIP, SNOW",,,"MMTS, SRG, SNOWBOARD",,,"WFO CHS",,,,,,,,,,,,,,,,,,,,,,,,,,,"30.47","31","46",,,"-0.06","1","56","30.46",,"30.42","9.94","40","000",,"0",,,,,,,,,,,,,,,,,,,,,,,,,,,,,,,,,,,,,"SYN06472208 32966 00000 10078 21006 30302 40316 51020 90256 555 90903=","FM-12","4",,,,,,,,,,,,,,,,,,,,,,,,,,,,"2009-06-10"
"72208013880","2020-01-08T22:56:00","FM-15","7",,"SE","0.25","mi","TEMP, PRECIP, SNOW",,,"MMTS, SRG, SNOWBOARD",,,"WFO CHS",,,,,,,,,,,,,,,,,,,,,,,,,,,"30.47","34","42","0.00",,,,"73","30.46","CLR:00","30.42","10.00","39","000",,"0",,,,,,,,,,,,,,,,,,,,,,,,,,,,,,,,,,,,,"MET09001/08/20 22:56:01 METAR KCHS 090356Z 00000KT 10SM CLR 06/01 A3047 RMK AO2 SLP316 T00560011","FM-15","7",,,,,,,,,,,,,,,,,,,,,,,,,,,,"2009-06-10"
"72208013880","2020-01-08T23:56:00","FM-15","7",,"SE","0.25","mi","TEMP, PRECIP, SNOW",,,"MMTS, SRG, SNOWBOARD",,,"WFO CHS",,,,,,,,,,,,,,,,,,,,,,,,,,,"30.47","32","41","0.00",,,,"70","30.47","CLR:00","30.42","10.00","37","000",,"0",,,,,,,,,,,,,,,,,,,,,,,,,,,,,,,,,,,,,"MET10001/08/20 23:56:02 METAR KCHS 090456Z 00000KT 10SM CLR 05/00 A3047 RMK AO2 SLP317 T00500000 401780017","FM-15","7",,,,,,,,,,,,,,,,,,,,,,,,,,,,"2009-06-10"
"72208013880","2020-01-08T23:59:00","SOD  ","6",,"SE","0.25","mi","TEMP, PRECIP, SNOW",,,"MMTS, SRG, SNOWBOARD",,,"WFO CHS",,,,"30","50","51","30.36","30.28","41","4.2","0","2.1","15","64","35","260","15","0.00","0","0.0","250","12",,,,,,,,,,,,,,,,,,,,,,,,,,,,,,,,,,,,,,,,,,,,,,,,,,,,,,,,,"SOD69924 HR PRECIPITATION (IN): 0.00 SNOW DEPTH (IN):0     24 HR SNOWFALL (IN):0.0  24 HR MAX TEMP (F): 6424 HR MIN TEMP (F): 35AVERAGE STATION PRESSURE:30.280 MINIMUM SEA LEVEL PRESSURE:30.23 TIME OF OCCURRENCE:0020 PEAK WIND SPEED (MPH): 15 PEAK WIND DIR (DEG):260 PEAK WIND TIME (LST):      FASTEST 2MIN SPEED (MPH): 12FASTEST 2MIN DIR (DEG):250 FASTEST 2MIN TIME (LST):     AVERAGE WIND SPEED (MPH): 4.2 24 HR AVG TEMP (F): 50DEPART FROM NORMAL:  2  HEATING DEGREE DAYS: 15 COOLING DEGREE DAYS:  0 LATEST NIGHT MIN TEMP(1900-0800 LST):35 HOURLY INCREMENTAL PRECIPITATION VALUES (IN):    M    M    M    M    M    M    M    M    M    M    M    M    0.00 0.00 0.00 0.00 0.00 0.00 0.00 0.00 0.00 0.00 0.00","SOD  ","6",,,,,,,,,,,,,,,,,,,,,,,,,"0724","1730",,"2009-06-10"
"72208013880","2020-01-09T00:56:00","FM-15","7",,"SE","0.25","mi","TEMP, PRECIP, SNOW",,,"MMTS, SRG, SNOWBOARD",,,"WFO CHS",,,,,,,,,,,,,,,,,,,,,,,,,,,"30.48","33","40","0.00",,"-0.01","3","77","30.47","CLR:00","30.42","10.00","37","000",,"0",,,,,,,,,,,,,,,,,,,,,,,,,,,,,,,,,,,,,"MET11401/09/20 00:56:02 METAR KCHS 090556Z 00000KT 10SM CLR 04/01 A3048 RMK AO2 SLP319 T00440006 10122 20039 53003 (KLJ)","FM-15","7",,,,,,,,,,,,,,,,,,,,,,,,,,,,"2009-06-10"
"72208013880","2020-01-09T01:00:00","FM-12","4",,"SE","0.25","mi","TEMP, PRECIP, SNOW",,,"MMTS, SRG, SNOWBOARD",,,"WFO CHS",,,,,,,,,,,,,,,,,,,,,,,,,,,"30.48","33","40",,,"-0.01","3","77","30.47",,"30.43","9.94","37","000",,"0",,,,,,,,,,,,,,,,,,,,,,,,,,,,,,,,,,,,,"SYN08072208 32966 00000 10044 20006 30305 40319 53003 90556 333 10122 20017 555 90906=","FM-12","4",,,,,,,,,,,,,,,,,,,,,,,,,,,,"2009-06-10"
"72208013880","2020-01-09T01:56:00","FM-15","7",,"SE","0.25","mi","TEMP, PRECIP, SNOW",,,"MMTS, SRG, SNOWBOARD",,,"WFO CHS",,,,,,,,,,,,,,,,,,,,,,,,,,,"30.48","33","37","0.00",,,,"86","30.48","CLR:00","30.42","10.00","35","020",,"3",,,,,,,,,,,,,,,,,,,,,,,,,,,,,,,,,,,,,"MET09601/09/20 01:56:02 METAR KCHS 090656Z 02003KT 10SM CLR 03/01 A3048 RMK AO2 SLP322 T00280006 (KLJ)","FM-15","7",,,,,,,,,,,,,,,,,,,,,,,,,,,,"2009-06-10"
"72208013880","2020-01-09T02:56:00","FM-15","7",,"SE","0.25","mi","TEMP, PRECIP, SNOW",,,"MMTS, SRG, SNOWBOARD",,,"WFO CHS",,,,,,,,,,,,,,,,,,,,,,,,,,,"30.50","34","38","0.00",,,,"86","30.49","CLR:00","30.45","10.00","36","000",,"0",,,,,,,,,,,,,,,,,,,,,,,,,,,,,,,,,,,,,"MET09601/09/20 02:56:02 METAR KCHS 090756Z 00000KT 10SM CLR 03/01 A3050 RMK AO2 SLP326 T00330011 (KLJ)","FM-15","7",,,,,,,,,,,,,,,,,,,,,,,,,,,,"2009-06-10"
"72208013880","2020-01-09T03:56:00","FM-15","7",,"SE","0.25","mi","TEMP, PRECIP, SNOW",,,"MMTS, SRG, SNOWBOARD",,,"WFO CHS",,,,,,,,,,,,,,,,,,,,,,,,,,,"30.51","35","38","0.00",,"-0.03","3","89","30.50","CLR:00","30.46","10.00","37","000",,"0",,,,,,,,,,,,,,,,,,,,,,,,,,,,,,,,,,,,,"MET10201/09/20 03:56:02 METAR KCHS 090856Z 00000KT 10SM CLR 03/02 A3051 RMK AO2 SLP330 T00330017 53010 (KLJ)","FM-15","7",,,,,,,,,,,,,,,,,,,,,,,,,,,,"2009-06-10"
"72208013880","2020-01-09T04:00:00","FM-12","4",,"SE","0.25","mi","TEMP, PRECIP, SNOW",,,"MMTS, SRG, SNOWBOARD",,,"WFO CHS",,,,,,,,,,,,,,,,,,,,,,,,,,,"30.51","35","38",,,"-0.03","3","89","30.50",,"30.46","9.94","37","000",,"0",,,,,,,,,,,,,,,,,,,,,,,,,,,,,,,,,,,,,"SYN06472208 32966 00000 10033 20017 30316 40330 53010 90856 555 90909=","FM-12","4",,,,,,,,,,,,,,,,,,,,,,,,,,,,"2009-06-10"
"72208013880","2020-01-09T04:56:00","FM-15","7",,"SE","0.25","mi","TEMP, PRECIP, SNOW",,,"MMTS, SRG, SNOWBOARD",,,"WFO CHS",,,,,,,,,,,,,,,,,,,,,,,,,,,"30.51","34","36","0.00",,,,"93","30.51","CLR:00","30.46","10.00","35","000",,"0",,,,,,,,,,,,,,,,,,,,,,,,,,,,,,,,,,,,,"MET09601/09/20 04:56:02 METAR KCHS 090956Z 00000KT 10SM CLR 02/01 A3051 RMK AO2 SLP331 T00220011 (KLJ)","FM-15","7",,,,,,,,,,,,,,,,,,,,,,,,,,,,"2009-06-10"
"72208013880","2020-01-09T05:56:00","FM-15","7",,"SE","0.25","mi","TEMP, PRECIP, SNOW",,,"MMTS, SRG, SNOWBOARD",,,"WFO CHS",,,,,,,,,,,,,,,,,,,,,,,,,,,"30.53","34","36","0.00",,,,"93","30.53","CLR:00","30.47","10.00","35","000",,"0",,,,,,,,,,,,,,,,,,,,,,,,,,,,,,,,,,,,,"MET09601/09/20 05:56:02 METAR KCHS 091056Z 00000KT 10SM CLR 02/01 A3053 RMK AO2 SLP337 T00220011 (KLJ)","FM-15","7",,,,,,,,,,,,,,,,,,,,,,,,,,,,"2009-06-10"
"72208013880","2020-01-09T06:56:00","FM-15","7",,"SE","0.25","mi","TEMP, PRECIP, SNOW",,,"MMTS, SRG, SNOWBOARD",,,"WFO CHS",,,,,,,,,,,,,,,,,,,,,,,,,,,"30.54","34","38","0.00",,"-0.04","3","86","30.54","CLR:00","30.49","10.00","36","050",,"7",,,,,,,,,,,,,,,,,,,,,,,,,,,,,,,,,,,,,"MET11601/09/20 06:56:02 METAR KCHS 091156Z 05006KT 10SM CLR 03/01 A3054 RMK AO2 SLP341 T00330011 10050 20011 53012 $ (KLJ)","FM-15","7",,,,,,,,,,,,,,,,,,,,,,,,,,,,"2009-06-10"
"72208013880","2020-01-09T07:00:00","FM-12","4",,"SE","0.25","mi","TEMP, PRECIP, SNOW",,,"MMTS, SRG, SNOWBOARD",,,"WFO CHS",,,,,,,,,,,,,,,,,,,,,,,,,,,"30.54","34","38",,,"-0.04","3","86","30.54",,"30.49","9.94","36","050",,"7",,,,,,,,,,,,,,,,,,,,,,,,,,,,,,,,,,,,,"SYN08072208 32966 00506 10033 20011 30326 40341 53012 91156 333 10178 20011 555 90912=","FM-12","4",,,,,,,,,,,,,,,,,,,,,,,,,,,,"2009-06-10"
"72208013880","2020-01-09T07:56:00","FM-15","7",,"SE","0.25","mi","TEMP, PRECIP, SNOW",,,"MMTS, SRG, SNOWBOARD",,,"WFO CHS",,,,,,,,,,,,,,,,,,,,,,,,,,,"30.57","34","41","0.00",,,,"76","30.56","CLR:00","30.52","10.00","38","060",,"7",,,,,,,,,,,,,,,,,,,,,,,,,,,,,,,,,,,,,"MET09801/09/20 07:56:02 METAR KCHS 091256Z 06006KT 10SM CLR 05/01 A3057 RMK AO2 SLP349 T00500011 $ (JMB)","FM-15","7",,,,,,,,,,,,,,,,,,,,,,,,,,,,"2009-06-10"
"72208013880","2020-01-09T08:56:00","FM-15","7",,"SE","0.25","mi","TEMP, PRECIP, SNOW",,,"MMTS, SRG, SNOWBOARD",,,"WFO CHS",,,,,,,,,,,,,,,,,,,,,,,,,,,"30.59","40","50","0.00",,,,"68","30.58","CLR:00","30.54","10.00","45","060",,"6",,,,,,,,,,,,,,,,,,,,,,,,,,,,,,,,,,,,,"MET09801/09/20 08:56:02 METAR KCHS 091356Z 06005KT 10SM CLR 10/04 A3059 RMK AO2 SLP356 T01000044 $ (JMB)","FM-15","7",,,,,,,,,,,,,,,,,,,,,,,,,,,,"2009-06-10"
"72208013880","2020-01-09T09:56:00","FM-15","7",,"SE","0.25","mi","TEMP, PRECIP, SNOW",,,"MMTS, SRG, SNOWBOARD",,,"WFO CHS",,,,,,,,,,,,,,,,,,,,,,,,,,,"30.61","42","57","0.00",,"-0.07","1","58","30.60","CLR:00","30.55","10.00","50","070",,"8",,,,,,,,,,,,,,,,,,,,,,,,,,,,,,,,,,,,,"MET10401/09/20 09:56:02 METAR KCHS 091456Z 07007KT 10SM CLR 14/06 A3061 RMK AO2 SLP364 T01390056 51023 $ (JMB)","FM-15","7",,,,,,,,,,,,,,,,,,,,,,,,,,,,"2009-06-10"
"72208013880","2020-01-09T10:00:00","FM-12","4",,"SE","0.25","mi","TEMP, PRECIP, SNOW",,,"MMTS, SRG, SNOWBOARD",,,"WFO CHS",,,,,,,,,,,,,,,,,,,,,,,,,,,"30.61","42","57",,,"-0.07","1","58","30.60",,"30.56","9.94","50","070",,"8",,,,,,,,,,,,,,,,,,,,,,,,,,,,,,,,,,,,,"SYN06472208 32966 00707 10139 20056 30349 40364 51023 91456 555 90915=","FM-12","4",,,,,,,,,,,,,,,,,,,,,,,,,,,,"2009-06-10"
"72208013880","2020-01-09T10:56:00","FM-15","7",,"SE","0.25","mi","TEMP, PRECIP, SNOW",,,"MMTS, SRG, SNOWBOARD",,,"WFO CHS",,,,,,,,,,,,,,,,,,,,,,,,,,,"30.61","45","62","0.00",,,,"54","30.61","FEW:02 250","30.55","10.00","53","090",,"15",,,,,,,,,,,,,,,,,,,,,,,,,,,,,,,,,,,,,"MET10101/09/20 10:56:02 METAR KCHS 091556Z 09013KT 10SM FEW250 17/07 A3061 RMK AO2 SLP365 T01670072 $ (JMB)","FM-15","7",,,,,,,,,,,,,,,,,,,,,,,,,,,,"2009-06-10"
"72208013880","2020-01-09T11:56:00","FM-15","7",,"SE","0.25","mi","TEMP, PRECIP, SNOW",,,"MMTS, SRG, SNOWBOARD",,,"WFO CHS",,,,,,,,,,,,,,,,,,,,,,,,,,,"30.60","45","65","0.00",,,,"49","30.59","SCT:04 250","30.55","10.00","55","090",,"11",,,,,,,,,,,,,,,,,,,,,,,,,,,,,,,,,,,,,"MET10101/09/20 11:56:02 METAR KCHS 091656Z 09010KT 10SM SCT250 18/07 A3060 RMK AO2 SLP360 T01830072 $ (JMB)","FM-15","7",,,,,,,,,,,,,,,,,,,,,,,,,,,,"2009-06-10"
"72208013880","2020-01-09T12:56:00","FM-15","7",,"SE","0.25","mi","TEMP, PRECIP, SNOW",,,"MMTS, SRG, SNOWBOARD",,,"WFO CHS",,,,,,,,,,,,,,,,,,,,,,,,,,,"30.58","45","66","0.00",,"+0.03","8","47","30.57","FEW:02 250","30.53","10.00","55","080","22","15",,,,,,,,,,,,,,,,,,,,,,,,,,,,,,,,,,,,,"MET12201/09/20 12:56:02 METAR KCHS 091756Z 08013G19KT 10SM FEW250 19/07 A3058 RMK AO2 SLP353 T01890072 10189 20033 58011 $ (JMB)","FM-15","7",,,,,,,,,,,,,,,,,,,,,,,,,,,,"2009-06-10"
"72208013880","2020-01-09T13:00:00","FM-12","4",,"SE","0.25","mi","TEMP, PRECIP, SNOW",,,"MMTS, SRG, SNOWBOARD",,,"WFO CHS",,,,,,,,,,,,,,,,,,,,,,,,,,,"30.58","45","66",,,"+0.03","8","47","30.57",,"30.53","9.94","55","080",,"15",,,,,,,,,,,,,,,,,,,,,,,,,,,,,,,,,,,,,"SYN08672208 32966 20813 10189 20072 30339 40353 58011 91756 333 10189 20033 91019 555 90918=","FM-12","4",,,,,,,,,,,,,,,,,,,,,,,,,,,,"2009-06-10"
"72208013880","2020-01-09T13:56:00","FM-15","7",,"SE","0.25","mi","TEMP, PRECIP, SNOW",,,"MMTS, SRG, SNOWBOARD",,,"WFO CHS",,,,,,,,,,,,,,,,,,,,,,,,,,,"30.56","45","66","0.00",,,,"47","30.56","FEW:02 250","30.50","10.00","55","110",,"15",,,,,,,,,,,,,,,,,,,,,,,,,,,,,,,,,,,,,"MET10101/09/20 13:56:02 METAR KCHS 091856Z 11013KT 10SM FEW250 19/07 A3056 RMK AO2 SLP349 T01890072 $ (JMB)","FM-15","7",,,,,,,,,,,,,,,,,,,,,,,,,,,,"2009-06-10"
"72208013880","2020-01-09T14:56:00","FM-15","7",,"SE","0.25","mi","TEMP, PRECIP, SNOW",,,"MMTS, SRG, SNOWBOARD",,,"WFO CHS",,,,,,,,,,,,,,,,,,,,,,,,,,,"30.54","46","66","0.00",,,,"49","30.54","SCT:04 250","30.49","10.00","55","090","21","13",,,,,,,,,,,,,,,,,,,,,,,,,,,,,,,,,,,,,"MET10401/09/20 14:56:02 METAR KCHS 091956Z 09011G18KT 10SM SCT250 19/08 A3054 RMK AO2 SLP341 T01890078 $ (JMB)","FM-15","7",,,,,,,,,,,,,,,,,,,,,,,,,,,,"2009-06-10"
"72208013880","2020-01-09T15:56:00","FM-15","7",,"SE","0.25","mi","TEMP, PRECIP, SNOW",,,"MMTS, SRG, SNOWBOARD",,,"WFO CHS",,,,,,,,,,,,,,,,,,,,,,,,,,,"30.56","46","63","0.00",,"+0.02","5","54","30.55","BKN:07 250","30.50","10.00","54","100",,"14",,,,,,,,,,,,,,,,,,,,,,,,,,,,,,,,,,,,,"MET10701/09/20 15:56:02 METAR KCHS 092056Z 10012KT 10SM BKN250 17/08 A3056 RMK AO2 SLP346 T01720078 55007 $ (BBE)","FM-15","7",,,,,,,,,,,,,,,,,,,,,,,,,,,,"2009-06-10"
"72208013880","2020-01-09T16:00:00","FM-12","4",,"SE","0.25","mi","TEMP, PRECIP, SNOW",,,"MMTS, SRG, SNOWBOARD",,,"WFO CHS",,,,,,,,,,,,,,,,,,,,,,,,,,,"30.56","46","63",,,"+0.02","5","54","30.55",,"30.51","9.94","54","100",,"14",,,,,,,,,,,,,,,,,,,,,,,,,,,,,,,,,,,,,"SYN06472208 32966 61012 10172 20078 30332 40346 55007 92056 555 90921=","FM-12","4",,,,,,,,,,,,,,,,,,,,,,,,,,,,"2009-06-10"
"72208013880","2020-01-09T16:56:00","FM-15","7",,"SE","0.25","mi","TEMP, PRECIP, SNOW",,,"MMTS, SRG, SNOWBOARD",,,"WFO CHS",,,,,,,,,,,,,,,,,,,,,,,,,,,"30.56","45","60","0.00",,,,"58","30.56","FEW:02 50 BKN:07 250","30.50","10.00","52","090",,"10",,,,,,,,,,,,,,,,,,,,,,,,,,,,,,,,,,,,,"MET10801/09/20 16:56:02 METAR KCHS 092156Z 09009KT 10SM FEW050 BKN250 16/07 A3056 RMK AO2 SLP348 T01560072 $ (BBE)","FM-15","7",,,,,,,,,,,,,,,,,,,,,,,,,,,,"2009-06-10"
"72208013880","2020-01-09T17:56:00","FM-15","7",,"SE","0.25","mi","TEMP, PRECIP, SNOW",,,"MMTS, SRG, SNOWBOARD",,,"WFO CHS",,,,,,,,,,,,,,,,,,,,,,,,,,,"30.56","45","57","0.00",,,,"64","30.56","FEW:02 50 BKN:07 150 BKN:07 250","30.50","10.00","51","060",,"10",,,,,,,,,,,,,,,,,,,,,,,,,,,,,,,,,,,,,"MET11501/09/20 17:56:02 METAR KCHS 092256Z 06009KT 10SM FEW050 BKN150 BKN250 14/07 A3056 RMK AO2 SLP348 T01390072 $ (BBE)","FM-15","7",,,,,,,,,,,,,,,,,,,,,,,,,,,,"2009-06-10"
"72208013880","2020-01-09T18:56:00","FM-15","7",,"SE","0.25","mi","TEMP, PRECIP, SNOW",,,"MMTS, SRG, SNOWBOARD",,,"WFO CHS",,,,,,,,,,,,,,,,,,,,,,,,,,,"30.55","46","55","0.00",,"+0.01","8","72","30.55","SCT:04 150 BKN:07 250","30.50","10.00","50","070",,"10",,,,,,,,,,,,,,,,,,,,,,,,,,,,,,,,,,,,,"MET12601/09/20 18:56:02 METAR KCHS 092356Z 07009KT 10SM SCT150 BKN250 13/08 A3055 RMK AO2 SLP345 T01280078 10194 20128 58002 $ (BBE)","FM-15","7",,,,,,,,,,,,,,,,,,,,,,,,,,,,"2009-06-10"
"72208013880","2020-01-09T19:00:00","FM-12","4",,"SE","0.25","mi","TEMP, PRECIP, SNOW",,,"MMTS, SRG, SNOWBOARD",,,"WFO CHS",,,,,,,,,,,,,,,,,,,,,,,,,,,"30.55","46","55",,,"+0.01","8","72","30.55",,"30.50","9.94","50","070",,"10",,,,,,,,,,,,,,,,,,,,,,,,,,,,,,,,,,,,,"SYN08072208 32966 60709 10128 20078 30329 40345 58002 92356 333 10194 20011 555 91000=","FM-12","4",,,,,,,,,,,,,,,,,,,,,,,,,,,,"2009-06-10"
"72208013880","2020-01-09T19:56:00","FM-15","7",,"SE","0.25","mi","TEMP, PRECIP, SNOW",,,"MMTS, SRG, SNOWBOARD",,,"WFO CHS",,,,,,,,,,,,,,,,,,,,,,,,,,,"30.56","48","54","0.00",,,,"80","30.55","BKN:07 55 BKN:07 150","30.50","10.00","51","050",,"7",,,,,,,,,,,,,,,,,,,,,,,,,,,,,,,,,,,,,"MET10201/09/20 19:56:01 METAR KCHS 100056Z 05006KT 10SM BKN055 BKN150 12/09 A3056 RMK AO2 SLP346 T01220089 $","FM-15","7",,,,,,,,,,,,,,,,,,,,,,,,,,,,"2009-06-10"
"72208013880","2020-01-09T20:56:00","FM-15","7",,"SE","0.25","mi","TEMP, PRECIP, SNOW",,,"MMTS, SRG, SNOWBOARD",,,"WFO CHS",,,,,,,,,,,,,,,,,,,,,,,,,,,"30.57","49","54","0.00",,,,"83","30.56","BKN:07 45 BKN:07 60","30.52","10.00","51","060",,"8",,,,,,,,,,,,,,,,,,,,,,,,,,,,,,,,,,,,,"MET10201/09/20 20:56:01 METAR KCHS 100156Z 06007KT 10SM BKN045 BKN060 12/09 A3057 RMK AO2 SLP350 T01220094 $","FM-15","7",,,,,,,,,,,,,,,,,,,,,,,,,,,,"2009-06-10"
"72208013880","2020-01-09T21:56:00","FM-15","7",,"SE","0.25","mi","TEMP, PRECIP, SNOW",,,"MMTS, SRG, SNOWBOARD",,,"WFO CHS",,,,,,,,,,,,,,,,,,,,,,,,,,,"30.55","50","54","0.00",,"-0.00","0","87","30.55","SCT:04 45 BKN:07 55 BKN:07 200","30.50","10.00","52","060",,"7",,,,,,,,,,,,,,,,,,,,,,,,,,,,,,,,,,,,,"MET11501/09/20 21:56:01 METAR KCHS 100256Z 06006KT 10SM SCT045 BKN055 BKN200 12/10 A3055 RMK AO2 SLP345 T01220100 50000 $","FM-15","7",,,,,,,,,,,,,,,,,,,,,,,,,,,,"2009-06-10"
"72208013880","2020-01-09T22:00:00","FM-12","4",,"SE","0.25","mi","TEMP, PRECIP, SNOW",,,"MMTS, SRG, SNOWBOARD",,,"WFO CHS",,,,,,,,,,,,,,,,,,,,,,,,,,,"30.55","50","54",,,"0.00","9","87","30.55","41","30.50","9.94","52","060",,"7",,,,,,,,,,,,,,,,,,,,,,,,,,,,,,,,,,,,,"SYN06472208 32666 60606 10122 20100 30329 40345 50000 90256 555 91003=","FM-12","4",,,,,,,,,,,,,,,,,,,,,,,,,,,,"2009-06-10"
"72208013880","2020-01-09T22:56:00","FM-15","7",,"SE","0.25","mi","TEMP, PRECIP, SNOW",,,"MMTS, SRG, SNOWBOARD",,,"WFO CHS",,,,,,,,,,,,,,,,,,,,,,,,,,,"30.55","50","53","0.00",,,,"89","30.55","SCT:04 40 SCT:04 55 BKN:07 200","30.50","10.00","51","040",,"8",,,,,,,,,,,,,,,,,,,,,,,,,,,,,,,,,,,,,"MET10901/09/20 22:56:01 METAR KCHS 100356Z 04007KT 10SM SCT040 SCT055 BKN200 12/10 A3055 RMK AO2 SLP344 T01170100 $","FM-15","7",,,,,,,,,,,,,,,,,,,,,,,,,,,,"2009-06-10"
"72208013880","2020-01-09T23:56:00","FM-15","7",,"SE","0.25","mi","TEMP, PRECIP, SNOW",,,"MMTS, SRG, SNOWBOARD",,,"WFO CHS",,,,,,,,,,,,,,,,,,,,,,,,,,,"30.55","50","53","0.00",,,,"89","30.54","FEW:02 40 BKN:07 60","30.50","10.00","51","020",,"8",,,,,,,,,,,,,,,,,,,,,,,,,,,,,,,,,,,,,"MET11201/09/20 23:56:02 METAR KCHS 100456Z 02007KT 10SM FEW040 BKN060 12/10 A3055 RMK AO2 SLP343 T01170100 401940011 $","FM-15","7",,,,,,,,,,,,,,,,,,,,,,,,,,,,"2009-06-10"
"72208013880","2020-01-09T23:59:00","SOD  ","6",,"SE","0.25","mi","TEMP, PRECIP, SNOW",,,"MMTS, SRG, SNOWBOARD",,,"WFO CHS",,,,"42","51","72","30.55","30.48","47","7.6","0","3.1","14","67","34","090","24","0.00","0","0.0","110","18",,,,,,,,,,,,,,,,,,,,,,,,,,,,,,,,,,,,,,,,,,,,,,,,,,,,,,,,,"SOD73924 HR PRECIPITATION (IN): 0.00 SNOW DEPTH (IN):0     24 HR SNOWFALL (IN):0.0  24 HR MAX TEMP (F): 6724 HR MIN TEMP (F): 34AVERAGE STATION PRESSURE:30.480 MINIMUM SEA LEVEL PRESSURE:30.46 TIME OF OCCURRENCE:0028 PEAK WIND SPEED (MPH): 24 PEAK WIND DIR (DEG): 90 PEAK WIND TIME (LST):      FASTEST 2MIN SPEED (MPH): 18FASTEST 2MIN DIR (DEG):110 FASTEST 2MIN TIME (LST):     AVERAGE WIND SPEED (MPH): 7.6 24 HR AVG TEMP (F): 51DEPART FROM NORMAL:  3  HEATING DEGREE DAYS: 14 COOLING DEGREE DAYS:  0 LATEST DAY MAX TEMP (0700-1900 LST):67  LATEST NIGHT MIN TEMP(1900-0800 LST):34 HOURLY INCREMENTAL PRECIPITATION VALUES (IN):.00 0.00 0.00 0.00 0.00 0.00 0.00 0.00 0.00 0.00 0.00 0.00 0.00 0.00 0.00 0.00 0.00 0.00 0.00 0.00 0.00 0.00 0.00 0.00","SOD  ","6",,,,,,,,,,,,,,,,,,,,,,,,,"0724","1731",,"2009-06-10"
"72208013880","2020-01-10T00:56:00","FM-15","7",,"SE","0.25","mi","TEMP, PRECIP, SNOW",,,"MMTS, SRG, SNOWBOARD",,,"WFO CHS",,,,,,,,,,,,,,,,,,,,,,,,,,,"30.54","51","53","0.00",,"+0.01","8","93","30.53","FEW:02 45 OVC:08 60","30.49","10.00","52","040",,"9",,,,,,,,,,,,,,,,,,,,,,,,,,,,,,,,,,,,,"MET12601/10/20 00:56:02 METAR KCHS 100556Z 04008KT 10SM FEW045 OVC060 12/11 A3054 RMK AO2 SLP339 T01170106 10128 20111 58005 $ (KLJ)","FM-15","7",,,,,,,,,,,,,,,,,,,,,,,,,,,,"2009-06-10"
"72208013880","2020-01-10T01:00:00","FM-12","4",,"SE","0.25","mi","TEMP, PRECIP, SNOW",,,"MMTS, SRG, SNOWBOARD",,,"WFO CHS",,,,,,,,,,,,,,,,,,,,,,,,,,,"30.54","51","53",,,"+0.01","8","93","30.53","41","30.49","9.94","52","040",,"9",,,,,,,,,,,,,,,,,,,,,,,,,,,,,,,,,,,,,"SYN08072208 32666 80408 10117 20106 30326 40339 58005 90556 333 10128 20011 555 91006=","FM-12","4",,,,,,,,,,,,,,,,,,,,,,,,,,,,"2009-06-10"
"72208013880","2020-01-10T01:56:00","FM-15","7",,"SE","0.25","mi","TEMP, PRECIP, SNOW",,,"MMTS, SRG, SNOWBOARD",,,"WFO CHS",,,,,,,,,,,,,,,,,,,,,,,,,,,"30.53","52","54","0.00",,,,"93","30.53","OVC:08 60","30.47","10.00","53","040",,"5",,,,,,,,,,,,,,,,,,,,,,,,,,,,,,,,,,,,,"MET10101/10/20 01:56:02 METAR KCHS 100656Z 04004KT 10SM OVC060 12/11 A3053 RMK AO2 SLP338 T01220111 $ (KLJ)","FM-15","7",,,,,,,,,,,,,,,,,,,,,,,,,,,,"2009-06-10"
"72208013880","2020-01-10T02:56:00","FM-15","7",,"SE","0.25","mi","TEMP, PRECIP, SNOW",,,"MMTS, SRG, SNOWBOARD",,,"WFO CHS",,,,,,,,,,,,,,,,,,,,,,,,,,,"30.52","51","53","0.00",,,,"93","30.52","BKN:07 65","30.47","10.00","52","040",,"6",,,,,,,,,,,,,,,,,,,,,,,,,,,,,,,,,,,,,"MET10101/10/20 02:56:02 METAR KCHS 100756Z 04005KT 10SM BKN065 12/11 A3052 RMK AO2 SLP334 T01170106 $ (KLJ)","FM-15","7",,,,,,,,,,,,,,,,,,,,,,,,,,,,"2009-06-10"
"72208013880","2020-01-10T03:56:00","FM-15","7",,"SE","0.25","mi","TEMP, PRECIP, SNOW",,,"MMTS, SRG, SNOWBOARD",,,"WFO CHS",,,,,,,,,,,,,,,,,,,,,,,,,,,"30.50","51","54","0.00",,"+0.04","8","90","30.50","SCT:04 48 OVC:08 60","30.45","10.00","52","050",,"8",,,,,,,,,,,,,,,,,,,,,,,,,,,,,,,,,,,,,"MET11401/10/20 03:56:02 METAR KCHS 100856Z 05007KT 10SM SCT048 OVC060 12/11 A3050 RMK AO2 SLP327 T01220106 58013 $ (KLJ)","FM-15","7",,,,,,,,,,,,,,,,,,,,,,,,,,,,"2009-06-10"
"72208013880","2020-01-10T04:00:00","FM-12","4",,"SE","0.25","mi","TEMP, PRECIP, SNOW",,,"MMTS, SRG, SNOWBOARD",,,"WFO CHS",,,,,,,,,,,,,,,,,,,,,,,,,,,"30.50","51","54",,,"+0.04","8","90","30.50","41","30.45","9.94","52","050",,"8",,,,,,,,,,,,,,,,,,,,,,,,,,,,,,,,,,,,,"SYN06472208 32666 80507 10122 20106 30312 40327 58013 90856 555 91009=","FM-12","4",,,,,,,,,,,,,,,,,,,,,,,,,,,,"2009-06-10"
"72208013880","2020-01-10T04:56:00","FM-15","7",,"SE","0.25","mi","TEMP, PRECIP, SNOW",,,"MMTS, SRG, SNOWBOARD",,,"WFO CHS",,,,,,,,,,,,,,,,,,,,,,,,,,,"30.49","52","54","0.00",,,,"93","30.49","FEW:02 45 BKN:07 65","30.44","8.00","53","050",,"5",,,,,,,,,,,,,,,,,,,,,,,,,,,,,,,,,,,,,"MET10701/10/20 04:56:02 METAR KCHS 100956Z 05004KT 8SM FEW045 BKN065 12/11 A3049 RMK AO2 SLP325 T01220111 $ (KLJ)","FM-15","7",,,,,,,,,,,,,,,,,,,,,,,,,,,,"2009-06-10"
"72208013880","2020-01-10T05:56:00","FM-15","7",,"SE","0.25","mi","TEMP, PRECIP, SNOW",,,"MMTS, SRG, SNOWBOARD",,,"WFO CHS",,,,,,,,,,,,,,,,,,,,,,,,,,,"30.49","51","53","0.00",,,,"93","30.48","BKN:07 70","30.44","10.00","52","040",,"7",,,,,,,,,,,,,,,,,,,,,,,,,,,,,,,,,,,,,"MET10101/10/20 05:56:02 METAR KCHS 101056Z 04006KT 10SM BKN070 12/11 A3049 RMK AO2 SLP322 T01170106 $ (KLJ)","FM-15","7",,,,,,,,,,,,,,,,,,,,,,,,,,,,"2009-06-10"
"72208013880","2020-01-10T06:56:00","FM-15","7",,"SE","0.25","mi","TEMP, PRECIP, SNOW",,,"MMTS, SRG, SNOWBOARD",,,"WFO CHS",,,,,,,,,,,,,,,,,,,,,,,,,,,"30.49","52","54","T",,"+0.01","5","93","30.49","FEW:02 48 OVC:08 70","30.44","10.00","53","020",,"3",,,,,,,,,,,,,,,,,,,,,,,,,,,,,,,,,,,,,"MET14701/10/20 06:56:02 METAR KCHS 101156Z 02003KT 10SM FEW048 OVC070 12/11 A3049 RMK AO2 RAB18E32 SLP325 P0000 60000 T01220111 10122 20117 55002 $ (MBT)","FM-15","7",,,,,,,,,,,,,,,,,,,,,,,,,,,,"2009-06-10"
"72208013880","2020-01-10T07:00:00","FM-12","4",,"SE","0.25","mi","TEMP, PRECIP, SNOW",,,"MMTS, SRG, SNOWBOARD",,,"WFO CHS",,,,,,,,,,,,,,,,,,,,,,,,,,,"30.49","52","54",,,"+0.01","5","93","30.49","41","30.44","9.94","53","020",,"3",,,,,,,,,,,,,,,,,,,,,,,,,,,,,,,,,,,,,"SYN08672208 12666 80203 10122 20111 30309 40325 55002 69901 91156 333 10194 20111 555 91012=","FM-12","4",,,,,,,,,,,,,,,,,,,,,,,,,,,,"2009-06-10"
"72208013880","2020-01-10T07:56:00","FM-15","7",,"SE","0.25","mi","TEMP, PRECIP, SNOW",,,"MMTS, SRG, SNOWBOARD",,,"WFO CHS",,,,,,,,,,,,,,,,,,,,,,,,,,,"30.50","52","55","0.00",,,,"90","30.49","BKN:07 50 OVC:08 75","30.45","10.00","53","040",,"5",,,,,,,,,,,,,,,,,,,,,,,,,,,,,,,,,,,,,"MET10801/10/20 07:56:02 METAR KCHS 101256Z 04004KT 10SM BKN050 OVC075 13/11 A3050 RMK AO2 SLP326 T01280111 $ (MBT)","FM-15","7",,,,,,,,,,,,,,,,,,,,,,,,,,,,"2009-06-10"
"72208013880","2020-01-10T08:56:00","FM-15","7",,"SE","0.25","mi","TEMP, PRECIP, SNOW",,,"MMTS, SRG, SNOWBOARD",,,"WFO CHS",,,,,,,,,,,,,,,,,,,,,,,,,,,"30.51","52","57","0.00",,,,"83","30.50","BKN:07 45 OVC:08 55","30.46","10.00","54","040",,"3",,,,,,,,,,,,,,,,,,,,,,,,,,,,,,,,,,,,,"MET10801/10/20 08:56:02 METAR KCHS 101356Z 04003KT 10SM BKN045 OVC055 14/11 A3051 RMK AO2 SLP330 T01390111 $ (MBT)","FM-15","7",,,,,,,,,,,,,,,,,,,,,,,,,,,,"2009-06-10"
"72208013880","2020-01-10T09:56:00","FM-15","7",,"SE","0.25","mi","TEMP, PRECIP, SNOW",,,"MMTS, SRG, SNOWBOARD",,,"WFO CHS",,,,,,,,,,,,,,,,,,,,,,,,,,,"30.52","53","60","0.00",,"-0.03","3","78","30.52","BKN:07 45 OVC:08 60","30.47","10.00","56","050",,"5",,,,,,,,,,,,,,,,,,,,,,,,,,,,,,,,,,,,,"MET11401/10/20 09:56:02 METAR KCHS 101456Z 05004KT 10SM BKN045 OVC060 16/12 A3052 RMK AO2 SLP334 T01560117 53009 $ (MBT)","FM-15","7",,,,,,,,,,,,,,,,,,,,,,,,,,,,"2009-06-10"
"72208013880","2020-01-10T10:00:00","FM-12","4",,"SE","0.25","mi","TEMP, PRECIP, SNOW",,,"MMTS, SRG, SNOWBOARD",,,"WFO CHS",,,,,,,,,,,,,,,,,,,,,,,,,,,"30.52","53","60",,,"-0.03","3","78","30.52","41","30.47","9.94","56","050",,"5",,,,,,,,,,,,,,,,,,,,,,,,,,,,,,,,,,,,,"SYN06472208 32666 80504 10156 20117 30319 40334 53009 91456 555 91015=","FM-12","4",,,,,,,,,,,,,,,,,,,,,,,,,,,,"2009-06-10"
"72208013880","2020-01-10T10:56:00","FM-15","7",,"SE","0.25","mi","TEMP, PRECIP, SNOW",,,"MMTS, SRG, SNOWBOARD",,,"WFO CHS",,,,,,,,,,,,,,,,,,,,,,,,,,,"30.51","55","65","0.00",,,,"70","30.51","FEW:02 60 BKN:07 75","30.46","10.00","59","VRB",,"3",,,,,,,,,,,,,,,,,,,,,,,,,,,,,,,,,,,,,"MET10801/10/20 10:56:02 METAR KCHS 101556Z VRB03KT 10SM FEW060 BKN075 18/13 A3051 RMK AO2 SLP331 T01830128 $ (MBT)","FM-15","7",,,,,,,,,,,,,,,,,,,,,,,,,,,,"2009-06-10"
"72208013880","2020-01-10T11:56:00","FM-15","7",,"SE","0.25","mi","TEMP, PRECIP, SNOW",,,"MMTS, SRG, SNOWBOARD",,,"WFO CHS",,,,,,,,,,,,,,,,,,,,,,,,,,,"30.48","55","72","0.00",,,,"55","30.48","SCT:04 65 BKN:07 75","30.42","10.00","62","140",,"17",,,,,,,,,,,,,,,,,,,,,,,,,,,,,,,,,,,,,"MET10801/10/20 11:56:02 METAR KCHS 101656Z 14015KT 10SM SCT065 BKN075 22/13 A3048 RMK AO2 SLP322 T02220128 $ (MBT)","FM-15","7",,,,,,,,,,,,,,,,,,,,,,,,,,,,"2009-06-10"
"72208013880","2020-01-10T12:56:00","FM-15","7",,"SE","0.25","mi","TEMP, PRECIP, SNOW",,,"MMTS, SRG, SNOWBOARD",,,"WFO CHS",,,,,,,,,,,,,,,,,,,,,,,,,,,"30.45","55","73","0.00",,"+0.07","8","53","30.45","FEW:02 60 BKN:07 70","30.40","10.00","62","130","24","18",,,,,,,,,,,,,,,,,,,,,,,,,,,,,,,,,,,,,"MET12901/10/20 12:56:02 METAR KCHS 101756Z 13016G21KT 10SM FEW060 BKN070 23/13 A3045 RMK AO2 SLP310 T02280128 10233 20122 58024 $ (MBT)","FM-15","7",,,,,,,,,,,,,,,,,,,,,,,,,,,,"2009-06-10"
"72208013880","2020-01-10T13:00:00","FM-12","4",,"SE","0.25","mi","TEMP, PRECIP, SNOW",,,"MMTS, SRG, SNOWBOARD",,,"WFO CHS",,,,,,,,,,,,,,,,,,,,,,,,,,,"30.45","55","73",,,"+0.07","8","53","30.45","57","30.40","9.94","62","130",,"18",,,,,,,,,,,,,,,,,,,,,,,,,,,,,,,,,,,,,"SYN08672208 32766 61316 10228 20128 30295 40310 58024 91756 333 10233 20122 91021 555 91018=","FM-12","4",,,,,,,,,,,,,,,,,,,,,,,,,,,,"2009-06-10"
"72208013880","2020-01-10T13:56:00","FM-15","7",,"SE","0.25","mi","TEMP, PRECIP, SNOW",,,"MMTS, SRG, SNOWBOARD",,,"WFO CHS",,,,,,,,,,,,,,,,,,,,,,,,,,,"30.43","57","73","0.00",,,,"57","30.43","FEW:02 45 SCT:04 55 SCT:04 75","30.38","10.00","63","120","24","14",,,,,,,,,,,,,,,,,,,,,,,,,,,,,,,,,,,,,"MET11801/10/20 13:56:02 METAR KCHS 101856Z 12012G21KT 10SM FEW045 SCT055 SCT075 23/14 A3043 RMK AO2 SLP304 T02280139 $ (MBT)","FM-15","7",,,,,,,,,,,,,,,,,,,,,,,,,,,,"2009-06-10"
"72208013880","2020-01-10T14:56:00","FM-15","7",,"SE","0.25","mi","TEMP, PRECIP, SNOW",,,"MMTS, SRG, SNOWBOARD",,,"WFO CHS",,,,,,,,,,,,,,,,,,,,,,,,,,,"30.41","58","72","0.00",,,,"61","30.41","SCT:04 80 BKN:07 150 BKN:07 250","30.36","10.00","64","130","25","17",,,,,,,,,,,,,,,,,,,,,,,,,,,,,,,,,,,,,"MET11801/10/20 14:56:02 METAR KCHS 101956Z 13015G22KT 10SM SCT080 BKN150 BKN250 22/14 A3041 RMK AO2 SLP298 T02220144 $ (MBT)","FM-15","7",,,,,,,,,,,,,,,,,,,,,,,,,,,,"2009-06-10"
"72208013880","2020-01-10T15:56:00","FM-15","7",,"SE","0.25","mi","TEMP, PRECIP, SNOW",,,"MMTS, SRG, SNOWBOARD",,,"WFO CHS",,,,,,,,,,,,,,,,,,,,,,,,,,,"30.42","58","72","0.00",,"+0.03","5","61","30.41","SCT:04 85 BKN:07 150 BKN:07 250","30.37","10.00","64","120",,"10",,,,,,,,,,,,,,,,,,,,,,,,,,,,,,,,,,,,,"MET12101/10/20 15:56:02 METAR KCHS 102056Z 12009KT 10SM SCT085 BKN150 BKN250 22/14 A3042 RMK AO2 SLP299 T02220144 55011 $ (BBE)","FM-15","7",,,,,,,,,,,,,,,,,,,,,,,,,,,,"2009-06-10"
"72208013880","2020-01-10T16:00:00","FM-12","4",,"SE","0.25","mi","TEMP, PRECIP, SNOW",,,"MMTS, SRG, SNOWBOARD",,,"WFO CHS",,,,,,,,,,,,,,,,,,,,,,,,,,,"30.42","58","72",,,"+0.03","5","61","30.41",,"30.37","9.94","64","120",,"10",,,,,,,,,,,,,,,,,,,,,,,,,,,,,,,,,,,,,"SYN06472208 32966 61209 10222 20144 30285 40299 55011 92056 555 91021=","FM-12","4",,,,,,,,,,,,,,,,,,,,,,,,,,,,"2009-06-10"
"72208013880","2020-01-10T16:56:00","FM-15","7",,"SE","0.25","mi","TEMP, PRECIP, SNOW",,,"MMTS, SRG, SNOWBOARD",,,"WFO CHS",,,,,,,,,,,,,,,,,,,,,,,,,,,"30.42","59","70","0.00",,,,"68","30.42","BKN:07 80 BKN:07 150 BKN:07 250","30.37","10.00","63","120",,"9",,,,,,,,,,,,,,,,,,,,,,,,,,,,,,,,,,,,,"MET11501/10/20 16:56:02 METAR KCHS 102156Z 12008KT 10SM BKN080 BKN150 BKN250 21/15 A3042 RMK AO2 SLP300 T02110150 $ (BBE)","FM-15","7",,,,,,,,,,,,,,,,,,,,,,,,,,,,"2009-06-10"
"72208013880","2020-01-10T17:56:00","FM-15","7",,"SE","0.25","mi","TEMP, PRECIP, SNOW",,,"MMTS, SRG, SNOWBOARD",,,"WFO CHS",,,,,,,,,,,,,,,,,,,,,,,,,,,"30.42","59","68","0.00",,,,"73","30.41","SCT:04 60 BKN:07 85 OVC:08 150","30.37","10.00","63","130",,"8",,,,,,,,,,,,,,,,,,,,,,,,,,,,,,,,,,,,,"MET11501/10/20 17:56:02 METAR KCHS 102256Z 13007KT 10SM SCT060 BKN085 OVC150 20/15 A3042 RMK AO2 SLP299 T02000150 $ (BBE)","FM-15","7",,,,,,,,,,,,,,,,,,,,,,,,,,,,"2009-06-10"
"72208013880","2020-01-10T18:56:00","FM-15","7",,"SE","0.25","mi","TEMP, PRECIP, SNOW",,,"MMTS, SRG, SNOWBOARD",,,"WFO CHS",,,,,,,,,,,,,,,,,,,,,,,,,,,"30.41","59","67","0.00",,"+0.01","8","76","30.41","FEW:02 55 BKN:07 80 BKN:07 150","30.36","10.00","62","130",,"8",,,,,,,,,,,,,,,,,,,,,,,,,,,,,,,,,,,,,"MET13301/10/20 18:56:02 METAR KCHS 102356Z 13007KT 10SM FEW055 BKN080 BKN150 19/15 A3041 RMK AO2 SLP297 T01940150 10233 20183 58002 $ (BBE)","FM-15","7",,,,,,,,,,,,,,,,,,,,,,,,,,,,"2009-06-10"
"72208013880","2020-01-10T19:00:00","FM-12","4",,"SE","0.25","mi","TEMP, PRECIP, SNOW",,,"MMTS, SRG, SNOWBOARD",,,"WFO CHS",,,,,,,,,,,,,,,,,,,,,,,,,,,"30.41","59","67",,,"+0.01","8","76","30.41","57","30.36","9.94","62","130",,"8",,,,,,,,,,,,,,,,,,,,,,,,,,,,,,,,,,,,,"SYN08072208 32766 61307 10194 20150 30282 40297 58002 92356 333 10233 20117 555 91100=","FM-12","4",,,,,,,,,,,,,,,,,,,,,,,,,,,,"2009-06-10"
"72208013880","2020-01-10T19:56:00","FM-15","7",,"SE","0.25","mi","TEMP, PRECIP, SNOW",,,"MMTS, SRG, SNOWBOARD",,,"WFO CHS",,,,,,,,,,,,,,,,,,,,,,,,,,,"30.40","60","67","0.00",,,,"79","30.40","OVC:08 75","30.35","10.00","63","140",,"9",,,,,,,,,,,,,,,,,,,,,,,,,,,,,,,,,,,,,"MET09501/10/20 19:56:01 METAR KCHS 110056Z 14008KT 10SM OVC075 19/16 A3040 RMK AO2 SLP295 T01940156 $","FM-15","7",,,,,,,,,,,,,,,,,,,,,,,,,,,,"2009-06-10"
"72208013880","2020-01-10T20:56:00","FM-15","7",,"SE","0.25","mi","TEMP, PRECIP, SNOW",,,"MMTS, SRG, SNOWBOARD",,,"WFO CHS",,,,,,,,,,,,,,,,,,,,,,,,,,,"30.40","61","67","0.00",,,,"81","30.40","BKN:07 60 BKN:07 75","30.35","10.00","63","130",,"7",,,,,,,,,,,,,,,,,,,,,,,,,,,,,,,,,,,,,"MET10201/10/20 20:56:01 METAR KCHS 110156Z 13006KT 10SM BKN060 BKN075 19/16 A3040 RMK AO2 SLP294 T01940161 $","FM-15","7",,,,,,,,,,,,,,,,,,,,,,,,,,,,"2009-06-10"
"72208013880","2020-01-10T21:56:00","FM-15","7",,"SE","0.25","mi","TEMP, PRECIP, SNOW",,,"MMTS, SRG, SNOWBOARD",,,"WFO CHS",,,,,,,,,,,,,,,,,,,,,,,,,,,"30.39","62","67","0.00",,"+0.02","6","84","30.39","OVC:08 60","30.34","10.00","64","140",,"7",,,,,,,,,,,,,,,,,,,,,,,,,,,,,,,,,,,,,"MET10101/10/20 21:56:01 METAR KCHS 110256Z 14006KT 10SM OVC060 19/17 A3039 RMK AO2 SLP292 T01940167 56006 $","FM-15","7",,,,,,,,,,,,,,,,,,,,,,,,,,,,"2009-06-10"
"72208013880","2020-01-10T22:00:00","FM-12","4",,"SE","0.25","mi","TEMP, PRECIP, SNOW",,,"MMTS, SRG, SNOWBOARD",,,"WFO CHS",,,,,,,,,,,,,,,,,,,,,,,,,,,"30.39","62","67",,,"+0.02","6","84","30.39","57","30.34","9.94","64","140",,"7",,,,,,,,,,,,,,,,,,,,,,,,,,,,,,,,,,,,,"SYN06472208 32766 81406 10194 20167 30275 40292 56006 90256 555 91103=","FM-12","4",,,,,,,,,,,,,,,,,,,,,,,,,,,,"2009-06-10"
"72208013880","2020-01-10T22:56:00","FM-15","7",,"SE","0.25","mi","TEMP, PRECIP, SNOW",,,"MMTS, SRG, SNOWBOARD",,,"WFO CHS",,,,,,,,,,,,,,,,,,,,,,,,,,,"30.38","60","66","0.00",,,,"81","30.38","OVC:08 75","30.33","10.00","62","150",,"8",,,,,,,,,,,,,,,,,,,,,,,,,,,,,,,,,,,,,"MET09501/10/20 22:56:01 METAR KCHS 110356Z 15007KT 10SM OVC075 19/16 A3038 RMK AO2 SLP288 T01890156 $","FM-15","7",,,,,,,,,,,,,,,,,,,,,,,,,,,,"2009-06-10"
"72208013880","2020-01-10T23:56:00","FM-15","7",,"SE","0.25","mi","TEMP, PRECIP, SNOW",,,"MMTS, SRG, SNOWBOARD",,,"WFO CHS",,,,,,,,,,,,,,,,,,,,,,,,,,,"30.37","60","66","0.00",,,,"81","30.36","FEW:02 80","30.32","10.00","62","140",,"10",,,,,,,,,,,,,,,,,,,,,,,,,,,,,,,,,,,,,"MET10501/10/20 23:56:02 METAR KCHS 110456Z 14009KT 10SM FEW080 19/16 A3037 RMK AO2 SLP282 T01890156 402330117 $","FM-15","7",,,,,,,,,,,,,,,,,,,,,,,,,,,,"2009-06-10"
"72208013880","2020-01-10T23:59:00","SOD  ","6",,"SE","0.25","mi","TEMP, PRECIP, SNOW",,,"MMTS, SRG, SNOWBOARD",,,"WFO CHS",,,,"56","64","78","30.45","30.42","59","8.4","0","16.1","1","74","53","110","28","T","0","0.0","130","22",,,,,,,,,,,,,,,,,,,,,,,,,,,,,,,,,,,,,,,,,,,,,,,,,,,,,,,,,"SOD73924 HR PRECIPITATION (IN):    T SNOW DEPTH (IN):0     24 HR SNOWFALL (IN):0.0  24 HR MAX TEMP (F): 7424 HR MIN TEMP (F): 53AVERAGE STATION PRESSURE:30.415 MINIMUM SEA LEVEL PRESSURE:30.36 TIME OF OCCURRENCE:2359 PEAK WIND SPEED (MPH): 28 PEAK WIND DIR (DEG):110 PEAK WIND TIME (LST):      FASTEST 2MIN SPEED (MPH): 22FASTEST 2MIN DIR (DEG):130 FASTEST 2MIN TIME (LST):     AVERAGE WIND SPEED (MPH): 8.4 24 HR AVG TEMP (F): 64DEPART FROM NORMAL: 16  HEATING DEGREE DAYS:  1 COOLING DEGREE DAYS:  0 LATEST DAY MAX TEMP (0700-1900 LST):74  LATEST NIGHT MIN TEMP(1900-0800 LST):52 HOURLY INCREMENTAL PRECIPITATION VALUES (IN):.00 0.00 0.00 0.00 0.00 0.00 T    0.00 0.00 0.00 0.00 0.00 0.00 0.00 0.00 0.00 0.00 0.00 0.00 0.00 0.00 0.00 0.00 0.00","SOD  ","6",,,,,,,,,,,,,,,,,,,,,,,,,"0724","1732",,"2009-06-10"
"72208013880","2020-01-11T00:56:00","FM-15","7",,"SE","0.25","mi","TEMP, PRECIP, SNOW",,,"MMTS, SRG, SNOWBOARD",,,"WFO CHS",,,,,,,,,,,,,,,,,,,,,,,,,,,"30.35","61","67","0.00",,"+0.05","8","81","30.35","SCT:04 65","30.29","10.00","63","150",,"14",,,,,,,,,,,,,,,,,,,,,,,,,,,,,,,,,,,,,"MET11901/11/20 00:56:02 METAR KCHS 110556Z 15012KT 10SM SCT065 19/16 A3035 RMK AO2 SLP276 T01940161 10200 20183 58016 $ (ARB)","FM-15","7",,,,,,,,,,,,,,,,,,,,,,,,,,,,"2009-06-10"
"72208013880","2020-01-11T01:00:00","FM-12","4",,"SE","0.25","mi","TEMP, PRECIP, SNOW",,,"MMTS, SRG, SNOWBOARD",,,"WFO CHS",,,,,,,,,,,,,,,,,,,,,,,,,,,"30.35","61","67",,,"+0.05","8","81","30.35","57","30.30","9.94","63","150",,"14",,,,,,,,,,,,,,,,,,,,,,,,,,,,,,,,,,,,,"SYN08072208 32766 41512 10194 20161 30261 40276 58016 90556 333 10200 20117 555 91106=","FM-12","4",,,,,,,,,,,,,,,,,,,,,,,,,,,,"2009-06-10"
"72208013880","2020-01-11T01:54:00","FM-16","6",,"SE","0.25","mi","TEMP, PRECIP, SNOW",,,"MMTS, SRG, SNOWBOARD",,,"WFO CHS",,,,,,,,,,,,,,,,,,,,,,,,,,,"30.33","63","66",,,,,"88",,"BKN:07 27 BKN:07 41","30.28","10.00","64","150",,"13",,,,,,,,,,,,,,,,,,,,,,,,,,,,,,,,,,,,,"MET09601/11/20 01:54:02 SPECI KCHS 110654Z 15011KT 10SM BKN027 BKN041 19/17 A3033 RMK AO2 $ FIBI (ARB)","FM-16","6",,,,,,,,,,,,,,,,,,,,,,,,,,,,"2009-06-10"
"72208013880","2020-01-11T01:56:00","FM-15","7",,"SE","0.25","mi","TEMP, PRECIP, SNOW",,,"MMTS, SRG, SNOWBOARD",,,"WFO CHS",,,,,,,,,,,,,,,,,,,,,,,,,,,"30.33","62","67","0.00",,,,"84","30.33","BKN:07 27 BKN:07 41","30.28","10.00","64","140",,"9",,,,,,,,,,,,,,,,,,,,,,,,,,,,,,,,,,,,,"MET10801/11/20 01:56:02 METAR KCHS 110656Z 14008KT 10SM BKN027 BKN041 19/17 A3033 RMK AO2 SLP271 T01940167 $ (ARB)","FM-15","7",,,,,,,,,,,,,,,,,,,,,,,,,,,,"2009-06-10"
"72208013880","2020-01-11T02:54:00","FM-16","7",,"SE","0.25","mi","TEMP, PRECIP, SNOW",,,"MMTS, SRG, SNOWBOARD",,,"WFO CHS",,,,,,,,,,,,,,,,,,,,,,,,,,,"30.33","63","68","T","-RA:02 |RA |RA",,,"83",,"FEW:02 31 SCT:04 37 BKN:07 50","30.28","10.00","65","160",,"13",,,,,,,,,,,,,,,,,,,,,,,,,,,,,,,,,,,,,"MET11401/11/20 02:54:02 SPECI KCHS 110754Z 16011KT 10SM -RA FEW031 SCT037 BKN050 20/17 A3033 RMK AO2 RAB50 P0000 $ (ARB)","FM-16","7",,,,,,,,,,,,,,,,,,,,,,,,,,,,"2009-06-10"
"72208013880","2020-01-11T02:56:00","FM-15","7",,"SE","0.25","mi","TEMP, PRECIP, SNOW",,,"MMTS, SRG, SNOWBOARD",,,"WFO CHS",,,,,,,,,,,,,,,,,,,,,,,,,,,"30.33","62","68","T","-RA:02 |RA |RA",,,"81","30.33","FEW:02 31 SCT:04 37 BKN:07 70","30.28","10.00","64","160",,"11",,,,,,,,,,,,,,,,,,,,,,,,,,,,,,,,,,,,,"MET13101/11/20 02:56:02 METAR KCHS 110756Z 16010KT 10SM -RA FEW031 SCT037 BKN070 20/17 A3033 RMK AO2 RAB50 SLP270 P0000 T02000167 $ (ARB)","FM-15","7",,,,,,,,,,,,,,,,,,,,,,,,,,,,"2009-06-10"
"72208013880","2020-01-11T03:56:00","FM-15","7",,"SE","0.25","mi","TEMP, PRECIP, SNOW",,,"MMTS, SRG, SNOWBOARD",,,"WFO CHS",,,,,,,,,,,,,,,,,,,,,,,,,,,"30.32","62","68","0.00",,"+0.01","8","81","30.32","BKN:07 60","30.27","10.00","64","160",,"11",,,,,,,,,,,,,,,,,,,,,,,,,,,,,,,,,,,,,"MET12701/11/20 03:56:02 METAR KCHS 110856Z 16010KT 10SM BKN060 20/17 A3032 RMK AO2 RAE0758 SLP266 P0000 60000 T02000167 58005 $ (ARB)","FM-15","7",,,,,,,,,,,,,,,,,,,,,,,,,,,,"2009-06-10"
"72208013880","2020-01-11T04:00:00","FM-12","4",,"SE","0.25","mi","TEMP, PRECIP, SNOW",,,"MMTS, SRG, SNOWBOARD",,,"WFO CHS",,,,,,,,,,,,,,,,,,,,,,,,,,,"30.32","62","68",,,"+0.01","8","81","30.32","57","30.27","9.94","64","160",,"11",,,,,,,,,,,,,,,,,,,,,,,,,,,,,,,,,,,,,"SYN07072208 12766 61610 10200 20167 30251 40266 58005 69907 90856 555 91109=","FM-12","4",,,,,,,,,,,,,,,,,,,,,,,,,,,,"2009-06-10"
"72208013880","2020-01-11T04:56:00","FM-15","7",,"SE","0.25","mi","TEMP, PRECIP, SNOW",,,"MMTS, SRG, SNOWBOARD",,,"WFO CHS",,,,,,,,,,,,,,,,,,,,,,,,,,,"30.30","61","68","0.00",,,,"78","30.30","FEW:02 49","30.25","10.00","64","160",,"14",,,,,,,,,,,,,,,,,,,,,,,,,,,,,,,,,,,,,"MET10101/11/20 04:56:02 METAR KCHS 110956Z 16012KT 10SM FEW049 20/16 A3030 RMK AO2 SLP261 T02000161 $ (ARB)","FM-15","7",,,,,,,,,,,,,,,,,,,,,,,,,,,,"2009-06-10"
"72208013880","2020-01-11T05:56:00","FM-15","7",,"SE","0.25","mi","TEMP, PRECIP, SNOW",,,"MMTS, SRG, SNOWBOARD",,,"WFO CHS",,,,,,,,,,,,,,,,,,,,,,,,,,,"30.29","61","68","0.00",,,,"78","30.29","FEW:02 70","30.24","10.00","64","150",,"11",,,,,,,,,,,,,,,,,,,,,,,,,,,,,,,,,,,,,"MET10101/11/20 05:56:02 METAR KCHS 111056Z 15010KT 10SM FEW070 20/16 A3029 RMK AO2 SLP257 T02000161 $ (ARB)","FM-15","7",,,,,,,,,,,,,,,,,,,,,,,,,,,,"2009-06-10"
"72208013880","2020-01-11T06:56:00","FM-15","7",,"SE","0.25","mi","TEMP, PRECIP, SNOW",,,"MMTS, SRG, SNOWBOARD",,,"WFO CHS",,,,,,,,,,,,,,,,,,,,,,,,,,,"30.28","63","69","0.00",,"+0.04","6","81","30.28","SCT:04 30 SCT:04 39 BKN:07 50","30.23","10.00","65","160",,"13",,,,,,,,,,,,,,,,,,,,,,,,,,,,,,,,,,,,,"MET13901/11/20 06:56:02 METAR KCHS 111156Z 16011KT 10SM SCT030 SCT039 BKN050 21/17 A3028 RMK AO2 SLP254 60000 T02060172 10206 20189 56012 $ (WHT)","FM-15","7",,,,,,,,,,,,,,,,,,,,,,,,,,,,"2009-06-10"
"72208013880","2020-01-11T07:56:00","FM-15","7",,"SE","0.25","mi","TEMP, PRECIP, SNOW",,,"MMTS, SRG, SNOWBOARD",,,"WFO CHS",,,,,,,,,,,,,,,,,,,,,,,,,,,"30.28","64","71","0.00",,,,"79","30.28","BKN:07 50 BKN:07 60","30.23","10.00","67","160",,"15",,,,,,,,,,,,,,,,,,,,,,,,,,,,,,,,,,,,,"MET10801/11/20 07:56:02 METAR KCHS 111256Z 16013KT 10SM BKN050 BKN060 22/18 A3028 RMK AO2 SLP253 T02170178 $ (WHT)","FM-15","7",,,,,,,,,,,,,,,,,,,,,,,,,,,,"2009-06-10"
"72208013880","2020-01-11T08:56:00","FM-15","6",,"SE","0.25","mi","TEMP, PRECIP, SNOW",,,"MMTS, SRG, SNOWBOARD",,,"WFO CHS",,,,,,,,,,,,,,,,,,,,,,,,,,,"30.30","65","71","T","-RA:02 BR:1 |RA |RA",,,"81","30.30","FEW:02 43 OVC:08 49","30.25","5.00","67","160",,"15",,,,,,,,,,,,,,,,,,,,,,,,,,,,,,,,,,,,,"MET12601/11/20 08:56:02 METAR KCHS 111356Z 16013KT 5SM -RA BR FEW043 OVC049 22/18 A3030 RMK AO2 RAB53 SLP261 P0000 T02170183 $ (WHT)","FM-15","6",,,,,,,,,,,,,,,,,,,,,,,,,,,,"2009-06-10"
"72208013880","2020-01-11T09:56:00","FM-15","6",,"SE","0.25","mi","TEMP, PRECIP, SNOW",,,"MMTS, SRG, SNOWBOARD",,,"WFO CHS",,,,,,,,,,,,,,,,,,,,,,,,,,,"30.31","65","73","T",,"-0.03","3","76","30.31","FEW:02 37 BKN:07 60","30.26","10.00","68","180","24","18",,,,,,,,,,,,,,,,,,,,,,,,,,,,,,,,,,,,,"MET13501/11/20 09:56:02 METAR KCHS 111456Z 18016G21KT 10SM FEW037 BKN060 23/18 A3031 RMK AO2 RAE01 SLP265 P0000 60000 T02280183 53010 $ (WHT)","FM-15","6",,,,,,,,,,,,,,,,,,,,,,,,,,,,"2009-06-10"
"72208013880","2020-01-11T10:56:00","FM-15","7",,"SE","0.25","mi","TEMP, PRECIP, SNOW",,,"MMTS, SRG, SNOWBOARD",,,"WFO CHS",,,,,,,,,,,,,,,,,,,,,,,,,,,"30.30","65","74","0.00",,,,"74","30.29","BKN:07 60","30.25","10.00","68","180","25","21",,,,,,,,,,,,,,,,,,,,,,,,,,,,,,,,,,,,,"MET10401/11/20 10:56:02 METAR KCHS 111556Z 18018G22KT 10SM BKN060 23/18 A3030 RMK AO2 SLP259 T02330183 $ (WHT)","FM-15","7",,,,,,,,,,,,,,,,,,,,,,,,,,,,"2009-06-10"
"72208013880","2020-01-11T11:56:00","FM-15","7",,"SE","0.25","mi","TEMP, PRECIP, SNOW",,,"MMTS, SRG, SNOWBOARD",,,"WFO CHS",,,,,,,,,,,,,,,,,,,,,,,,,,,"30.27","66","76","0.00","HZ:7 |FU |HZ",,,"72","30.27","SCT:04 55","30.22","5.00","70","180","29","18",,,,,,,,,,,,,,,,,,,,,,,,,,,,,,,,,,,,,"MET12401/11/20 11:56:02 METAR KCHS 111656Z 18016G25KT 5SM HZ SCT055 24/19 A3027 RMK AO2 PK WND 17027/1644 SLP250 T02440189 $ (WHT)","FM-15","7",,,,,,,,,,,,,,,,,,,,,,,,,,,,"2009-06-10"
"72208013880","2020-01-11T12:56:00","FM-15","7",,"SE","0.25","mi","TEMP, PRECIP, SNOW",,,"MMTS, SRG, SNOWBOARD",,,"WFO CHS",,,,,,,,,,,,,,,,,,,,,,,,,,,"30.23","66","76","0.00","HZ:7 |FU |HZ","+0.08","8","72","30.23","BKN:07 60","30.18","6.00","70","170","28","21",,,,,,,,,,,,,,,,,,,,,,,,,,,,,,,,,,,,,"MET14801/11/20 12:56:02 METAR KCHS 111756Z 17018G24KT 6SM HZ BKN060 24/19 A3023 RMK AO2 PK WND 18027/1737 SLP237 60000 T02440189 10256 20206 58027 $ (WHT)","FM-15","7",,,,,,,,,,,,,,,,,,,,,,,,,,,,"2009-06-10"
"72208013880","2020-01-11T13:00:00","FM-12","4",,"SE","0.25","mi","TEMP, PRECIP, SNOW",,,"MMTS, SRG, SNOWBOARD",,,"WFO CHS",,,,,,,,,,,,,,,,,,,,,,,,,,,"30.23","66","76",,"||HZ","+0.08","8","72","30.23","57","30.18","5.59","70","170",,"21",,,,,,,,,,,,,,,,,,,,,,,,,,,,,,,,,,,,,"SYN09872208 11759 61718 10244 20189 30221 40237 58027 69901 705// 91756 333 10256 20183 91024 555 91118=","FM-12","4",,,,,,,,,,,,,,,,,,,,,,,,,,,,"2009-06-10"
"72208013880","2020-01-11T13:56:00","FM-15","7",,"SE","0.25","mi","TEMP, PRECIP, SNOW",,,"MMTS, SRG, SNOWBOARD",,,"WFO CHS",,,,,,,,,,,,,,,,,,,,,,,,,,,"30.22","67","74","0.00",,,,"79","30.22","OVC:08 50","30.17","10.00","69","190","22","15",,,,,,,,,,,,,,,,,,,,,,,,,,,,,,,,,,,,,"MET12201/11/20 13:56:02 METAR KCHS 111856Z 19013G19KT 10SM OVC050 23/19 A3022 RMK AO2 PK WND 16026/1809 SLP233 T02330194 $ (WHT)","FM-15","7",,,,,,,,,,,,,,,,,,,,,,,,,,,,"2009-06-10"
"72208013880","2020-01-11T14:56:00","FM-15","7",,"SE","0.25","mi","TEMP, PRECIP, SNOW",,,"MMTS, SRG, SNOWBOARD",,,"WFO CHS",,,,,,,,,,,,,,,,,,,,,,,,,,,"30.20","66","74","T","-RA:02 |RA |RA",,,"76","30.20","OVC:08 44","30.15","10.00","69","170",,"16",,,,,,,,,,,,,,,,,,,,,,,,,,,,,,,,,,,,,"MET11701/11/20 14:56:02 METAR KCHS 111956Z 17014KT 10SM -RA OVC044 23/19 A3020 RMK AO2 RAB50 SLP226 P0000 T02330189 $ (WHT)","FM-15","7",,,,,,,,,,,,,,,,,,,,,,,,,,,,"2009-06-10"
"72208013880","2020-01-11T15:56:00","FM-15","7",,"SE","0.25","mi","TEMP, PRECIP, SNOW",,,"MMTS, SRG, SNOWBOARD",,,"WFO CHS",,,,,,,,,,,,,,,,,,,,,,,,,,,"30.20","66","74","T",,"+0.04","6","76","30.19","SCT:04 39 OVC:08 47","30.15","10.00","69","180","28","21",,,,,,,,,,,,,,,,,,,,,,,,,,,,,,,,,,,,,"MET14101/11/20 15:56:02 METAR KCHS 112056Z 18018G24KT 10SM SCT039 OVC047 23/19 A3020 RMK AO2 RAE00B40E49 SLP224 P0000 60000 T02330189 56013 $ (JRS)","FM-15","7",,,,,,,,,,,,,,,,,,,,,,,,,,,,"2009-06-10"
"72208013880","2020-01-11T16:00:00","FM-12","4",,"SE","0.25","mi","TEMP, PRECIP, SNOW",,,"MMTS, SRG, SNOWBOARD",,,"WFO CHS",,,,,,,,,,,,,,,,,,,,,,,,,,,"30.20","66","74",,,"+0.04","6","76","30.19","41","30.15","9.94","69","180",,"21",,,,,,,,,,,,,,,,,,,,,,,,,,,,,,,,,,,,,"SYN08072208 12666 81818 10233 20189 30211 40224 56013 69907 92056 333 91024 555 91121=","FM-12","4",,,,,,,,,,,,,,,,,,,,,,,,,,,,"2009-06-10"
"72208013880","2020-01-11T16:44:00","FM-16","7",,"SE","0.25","mi","TEMP, PRECIP, SNOW",,,"MMTS, SRG, SNOWBOARD",,,"WFO CHS",,,,,,,,,,,,,,,,,,,,,,,,,,,"30.19","68","71","T","RA:02 BR:1 |RA |RA",,,"90",,"FEW:02 5 BKN:07 21 OVC:08 30","30.14","2.00","69","180",,"14",,,,,,,,,,,,,,,,,,,,,,,,,,,,,,,,,,,,,"MET15201/11/20 16:44:02 SPECI KCHS 112144Z 18012KT 2SM R15/5500VP6000FT RA BR FEW005 BKN021 OVC030 22/20 A3019 RMK AO2 SFC VIS 3 RAB01 P0000 T02170200 $ (JRS)","FM-16","7",,,,,,,,,,,,,,,,,,,,,,,,,,,,"2009-06-10"
"72208013880","2020-01-11T16:56:00","FM-15","7",,"SE","0.25","mi","TEMP, PRECIP, SNOW",,,"MMTS, SRG, SNOWBOARD",,,"WFO CHS",,,,,,,,,,,,,,,,,,,,,,,,,,,"30.19","68","70","T","-RA:02 BR:1 |RA |RA",,,"93","30.18","SCT:04 5 OVC:08 20","30.14","2.00","69","160",,"15",,,,,,,,,,,,,,,,,,,,,,,,,,,,,,,,,,,,,"MET13601/11/20 16:56:02 METAR KCHS 112156Z 16013KT 2SM -RA BR SCT005 OVC020 21/20 A3019 RMK AO2 SFC VIS 3 RAB01 SLP221 P0000 T02110200 $ (JRS)","FM-15","7",,,,,,,,,,,,,,,,,,,,,,,,,,,,"2009-06-10"
"72208013880","2020-01-11T17:54:00","FM-16","6",,"SE","0.25","mi","TEMP, PRECIP, SNOW",,,"MMTS, SRG, SNOWBOARD",,,"WFO CHS",,,,,,,,,,,,,,,,,,,,,,,,,,,"30.18","68","70",,"-RA:02 BR:1 |RA |RA",,,"94",,"SCT:04 7 OVC:08 13","30.13","2.00","69","170","28","21",,,,,,,,,,,,,,,,,,,,,,,,,,,,,,,,,,,,,"MET13801/11/20 17:54:02 SPECI KCHS 112254Z 17018G24KT 2SM R15/5500VP6000FT -RA BR SCT007 OVC013 21/20 A3018 RMK AO2 SFC VIS 3 P0004 $ FIBI (JRS)","FM-16","6",,,,,,,,,,,,,,,,,,,,,,,,,,,,"2009-06-10"
"72208013880","2020-01-11T17:56:00","FM-15","7",,"SE","0.25","mi","TEMP, PRECIP, SNOW",,,"MMTS, SRG, SNOWBOARD",,,"WFO CHS",,,,,,,,,,,,,,,,,,,,,,,,,,,"30.18","68","70","0.04","-RA:02 BR:1 |RA |RA",,,"93","30.17","SCT:04 7 OVC:08 13","30.13","2.00","69","170","29","23",,,,,,,,,,,,,,,,,,,,,,,,,,,,,,,,,,,,,"MET13301/11/20 17:56:02 METAR KCHS 112256Z 17020G25KT 2SM -RA BR SCT007 OVC013 21/20 A3018 RMK AO2 SFC VIS 4 SLP218 P0004 T02110200 $ (JRS)","FM-15","7",,,,,,,,,,,,,,,,,,,,,,,,,,,,"2009-06-10"
"72208013880","2020-01-11T18:56:00","FM-15","7",,"SE","0.25","mi","TEMP, PRECIP, SNOW",,,"MMTS, SRG, SNOWBOARD",,,"WFO CHS",,,,,,,,,,,,,,,,,,,,,,,,,,,"30.19","70","70","0.02","BR:1 ||","+0.00","5","100","30.19","BKN:07 10 BKN:07 50","30.14","2.00","70","180",,"14",,,,,,,,,,,,,,,,,,,,,,,,,,,,,,,,,,,,,"MET16201/11/20 18:56:02 METAR KCHS 112356Z 18012KT 2SM BR BKN010 BKN050 21/21 A3019 RMK AO2 SFC VIS 6 RAE04B22E43 SLP223 P0002 60006 T02110211 10244 20206 55001 $ (JRS)","FM-15","7",,,,,,,,,,,,,,,,,,,,,,,,,,,,"2009-06-10"
"72208013880","2020-01-11T19:00:00","FM-12","4",,"SE","0.25","mi","TEMP, PRECIP, SNOW",,,"MMTS, SRG, SNOWBOARD",,,"WFO CHS",,,,,,,,,,,,,,,,,,,,,,,,,,,"30.19","70","70",,,"+0.00","5","100","30.19","15","30.14","1.99","70","180",,"14",,,,,,,,,,,,,,,,,,,,,,,,,,,,,,,,,,,,,"SYN09272208 11432 61812 10211 20211 30207 40223 55001 60021 710// 92356 333 10256 20189 555 91200=","FM-12","4",,,,,,,,,,,,,,,,,,,,,,,,,,,,"2009-06-10"
"72208013880","2020-01-11T19:49:00","FM-16","7",,"SE","0.25","mi","TEMP, PRECIP, SNOW",,,"MMTS, SRG, SNOWBOARD",,,"WFO CHS",,,,,,,,,,,,,,,,,,,,,,,,,,,"30.21","70","71",,"BR:1 ||",,,"96",,"FEW:02 5 OVC:08 10","30.16","6.00","70","190",,"14",,,,,,,,,,,,,,,,,,,,,,,,,,,,,,,,,,,,,"MET09701/11/20 19:49:01 SPECI KCHS 120049Z 19012KT 6SM BR FEW005 OVC010 22/21 A3021 RMK AO2 T02170211 $","FM-16","7",,,,,,,,,,,,,,,,,,,,,,,,,,,,"2009-06-10"
"72208013880","2020-01-11T19:56:00","FM-15","7",,"SE","0.25","mi","TEMP, PRECIP, SNOW",,,"MMTS, SRG, SNOWBOARD",,,"WFO CHS",,,,,,,,,,,,,,,,,,,,,,,,,,,"30.20","70","71","0.00",,,,"96","30.20","FEW:02 5 OVC:08 10","30.15","10.00","70","190","24","16",,,,,,,,,,,,,,,,,,,,,,,,,,,,,,,,,,,,,"MET10501/11/20 19:56:01 METAR KCHS 120056Z 19014G21KT 10SM FEW005 OVC010 22/21 A3020 RMK AO2 SLP227 T02170211 $","FM-15","7",,,,,,,,,,,,,,,,,,,,,,,,,,,,"2009-06-10"
"72208013880","2020-01-11T20:56:00","FM-15","7",,"SE","0.25","mi","TEMP, PRECIP, SNOW",,,"MMTS, SRG, SNOWBOARD",,,"WFO CHS",,,,,,,,,,,,,,,,,,,,,,,,,,,"30.20","70","71","0.00",,,,"96","30.20","FEW:02 5 OVC:08 10","30.15","10.00","70","190","26","17",,,,,,,,,,,,,,,,,,,,,,,,,,,,,,,,,,,,,"MET10501/11/20 20:56:01 METAR KCHS 120156Z 19015G23KT 10SM FEW005 OVC010 22/21 A3020 RMK AO2 SLP227 T02170211 $","FM-15","7",,,,,,,,,,,,,,,,,,,,,,,,,,,,"2009-06-10"
"72208013880","2020-01-11T21:56:00","FM-15","7",,"SE","0.25","mi","TEMP, PRECIP, SNOW",,,"MMTS, SRG, SNOWBOARD",,,"WFO CHS",,,,,,,,,,,,,,,,,,,,,,,,,,,"30.21","70","72","0.00",,"-0.02","1","94","30.21","FEW:02 7 OVC:08 10","30.16","9.00","71","200","31","21",,,,,,,,,,,,,,,,,,,,,,,,,,,,,,,,,,,,,"MET12801/11/20 21:56:01 METAR KCHS 120256Z 20018G27KT 9SM FEW007 OVC010 22/21 A3021 RMK AO2 PK WND 19027/0247 SLP229 T02220211 51006 $","FM-15","7",,,,,,,,,,,,,,,,,,,,,,,,,,,,"2009-06-10"
"72208013880","2020-01-11T22:00:00","FM-12","4",,"SE","0.25","mi","TEMP, PRECIP, SNOW",,,"MMTS, SRG, SNOWBOARD",,,"WFO CHS",,,,,,,,,,,,,,,,,,,,,,,,,,,"30.21","70","72",,,"-0.02","1","94","30.21","8","30.16","8.70","71","200",,"21",,,,,,,,,,,,,,,,,,,,,,,,,,,,,,,,,,,,,"SYN07472208 32364 82018 10222 20211 30214 40229 51006 90256 333 91027 555 91203=","FM-12","4",,,,,,,,,,,,,,,,,,,,,,,,,,,,"2009-06-10"
"72208013880","2020-01-11T22:56:00","FM-15","7",,"SE","0.25","mi","TEMP, PRECIP, SNOW",,,"MMTS, SRG, SNOWBOARD",,,"WFO CHS",,,,,,,,,,,,,,,,,,,,,,,,,,,"30.23","70","72","0.00",,,,"94","30.22","FEW:02 9 BKN:07 12 OVC:08 17","30.18","9.00","71","200","24","17",,,,,,,,,,,,,,,,,,,,,,,,,,,,,,,,,,,,,"MET12901/11/20 22:56:01 METAR KCHS 120356Z 20015G21KT 9SM FEW009 BKN012 OVC017 22/21 A3023 RMK AO2 PK WND 19026/0313 SLP235 T02220211 $","FM-15","7",,,,,,,,,,,,,,,,,,,,,,,,,,,,"2009-06-10"
"72208013880","2020-01-11T23:56:00","FM-15","7",,"SE","0.25","mi","TEMP, PRECIP, SNOW",,,"MMTS, SRG, SNOWBOARD",,,"WFO CHS",,,,,,,,,,,,,,,,,,,,,,,,,,,"30.23","69","72","0.00",,,,"91","30.23","FEW:02 8 BKN:07 14 BKN:07 70","30.18","10.00","70","200","29","17",,,,,,,,,,,,,,,,,,,,,,,,,,,,,,,,,,,,,"MET14001/11/20 23:56:02 METAR KCHS 120456Z 20015G25KT 10SM FEW008 BKN014 BKN070 22/21 A3023 RMK AO2 PK WND 21029/0438 SLP236 T02220206 402560189 $","FM-15","7",,,,,,,,,,,,,,,,,,,,,,,,,,,,"2009-06-10"
"72208013880","2020-01-11T23:59:00","SOD  ","6",,"SE","0.25","mi","TEMP, PRECIP, SNOW",,,"MMTS, SRG, SNOWBOARD",,,"WFO CHS",,,,"66","72","84","30.25","30.21","68","16.0","7","24.1","0","78","66","210","33","0.06","0","0.0","190","25","RA BR HZ",,,,,,,,,,,,,,,,,,,,,,,,,,,,,,,,,,,,,,,,,,,,,,,,,,,,,,,,"SOD75724 HR PRECIPITATION (IN): 0.06 SNOW DEPTH (IN):0     24 HR SNOWFALL (IN):0.0  WEATHER(CODE):18  24 HR MAX TEMP (F): 7824 HR MIN TEMP (F): 66AVERAGE STATION PRESSURE:30.210 MINIMUM SEA LEVEL PRESSURE:30.17 TIME OF OCCURRENCE:1757 PEAK WIND SPEED (MPH): 33 PEAK WIND DIR (DEG):210 PEAK WIND TIME (LST):      FASTEST 2MIN SPEED (MPH): 25FASTEST 2MIN DIR (DEG):190 FASTEST 2MIN TIME (LST):     AVERAGE WIND SPEED (MPH):16.0 24 HR AVG TEMP (F): 72DEPART FROM NORMAL: 24  HEATING DEGREE DAYS:  0 COOLING DEGREE DAYS:  7 LATEST DAY MAX TEMP (0700-1900 LST):78  LATEST NIGHT MIN TEMP(1900-0800 LST):65 HOURLY INCREMENTAL PRECIPITATION VALUES (IN):.00 0.00 T    0.00 0.00 0.00 0.00 0.00 T    T    0.00 0.00 0.00 0.00 T    T    T    0.04 0.02 0.00 0.00 0.00 0.00 0.00","SOD  ","6",,,,,,,,,,,,,,,,,,,,,,,,,"0724","1733",,"2009-06-10"
"72208013880","2020-01-12T00:56:00","FM-15","7",,"SE","0.25","mi","TEMP, PRECIP, SNOW",,,"MMTS, SRG, SNOWBOARD",,,"WFO CHS",,,,,,,,,,,,,,,,,,,,,,,,,,,"30.20","69","72","T",,"+0.01","8","91","30.20","FEW:02 7 BKN:07 14 OVC:08 70","30.15","10.00","70","210","29","20",,,,,,,,,,,,,,,,,,,,,,,,,,,,,,,,,,,,,"MET19801/12/20 00:56:02 METAR KCHS 120556Z 21017G25KT 10SM FEW007 BKN014 OVC070 22/21 A3020 RMK AO2 PK WND 22029/0521 LTG DSNT NW RAB20E42 SLP226 CB DSNT NW P0000 60000 T02220206 10222 20211 58003 $ (DTU)","FM-15","7",,,,,,,,,,,,,,,,,,,,,,,,,,,,"2009-06-10"
"72208013880","2020-01-12T01:00:00","FM-12","4",,"SE","0.25","mi","TEMP, PRECIP, SNOW",,,"MMTS, SRG, SNOWBOARD",,,"WFO CHS",,,,,,,,,,,,,,,,,,,,,,,,,,,"30.20","69","72",,,"+0.01","8","91","30.20","8","30.15","9.94","70","210",,"20",,,,,,,,,,,,,,,,,,,,,,,,,,,,,,,,,,,,,"SYN09272208 12366 82117 10222 20206 30211 40226 58003 69901 90556 333 10222 20189 91025 555 91206=","FM-12","4",,,,,,,,,,,,,,,,,,,,,,,,,,,,"2009-06-10"
"72208013880","2020-01-12T01:56:00","FM-15","7",,"SE","0.25","mi","TEMP, PRECIP, SNOW",,,"MMTS, SRG, SNOWBOARD",,,"WFO CHS",,,,,,,,,,,,,,,,,,,,,,,,,,,"30.19","69","71","0.00",,,,"94","30.19","FEW:02 7 BKN:07 14 BKN:07 70","30.14","10.00","70","210","26","17",,,,,,,,,,,,,,,,,,,,,,,,,,,,,,,,,,,,,"MET11801/12/20 01:56:02 METAR KCHS 120656Z 21015G23KT 10SM FEW007 BKN014 BKN070 22/21 A3019 RMK AO2 SLP222 T02170206 $ (DTU)","FM-15","7",,,,,,,,,,,,,,,,,,,,,,,,,,,,"2009-06-10"
"72208013880","2020-01-12T02:56:00","FM-15","7",,"SE","0.25","mi","TEMP, PRECIP, SNOW",,,"MMTS, SRG, SNOWBOARD",,,"WFO CHS",,,,,,,,,,,,,,,,,,,,,,,,,,,"30.20","69","72","0.00",,,,"91","30.20","FEW:02 9 BKN:07 13 BKN:07 36","30.15","10.00","70","220",,"17",,,,,,,,,,,,,,,,,,,,,,,,,,,,,,,,,,,,,"MET13301/12/20 02:56:02 METAR KCHS 120756Z 22015KT 10SM FEW009 BKN013 BKN036 22/21 A3020 RMK AO2 PK WND 21026/0741 SLP227 T02220206 $ (DTU)","FM-15","7",,,,,,,,,,,,,,,,,,,,,,,,,,,,"2009-06-10"
"72208013880","2020-01-12T03:54:00","FM-16","6",,"SE","0.25","mi","TEMP, PRECIP, SNOW",,,"MMTS, SRG, SNOWBOARD",,,"WFO CHS",,,,,,,,,,,,,,,,,,,,,,,,,,,"30.20","70","72",,,,,"94",,"OVC:08 8","30.15","10.00","71","210","26","21",,,,,,,,,,,,,,,,,,,,,,,,,,,,,,,,,,,,,"MET11001/12/20 03:54:02 SPECI KCHS 120854Z 21018G23KT 10SM OVC008 22/21 A3020 RMK AO2 PK WND 21029/0822 $ FIBI (DTU)","FM-16","6",,,,,,,,,,,,,,,,,,,,,,,,,,,,"2009-06-10"
"72208013880","2020-01-12T03:56:00","FM-15","7",,"SE","0.25","mi","TEMP, PRECIP, SNOW",,,"MMTS, SRG, SNOWBOARD",,,"WFO CHS",,,,,,,,,,,,,,,,,,,,,,,,,,,"30.19","69","71","0.00",,"+0.01","6","94","30.19","OVC:08 8","30.14","9.00","70","210","28","21",,,,,,,,,,,,,,,,,,,,,,,,,,,,,,,,,,,,,"MET12701/12/20 03:56:02 METAR KCHS 120856Z 21018G24KT 9SM OVC008 22/21 A3019 RMK AO2 PK WND 21029/0822 SLP224 T02170206 56002 $ (DTU)","FM-15","7",,,,,,,,,,,,,,,,,,,,,,,,,,,,"2009-06-10"
"72208013880","2020-01-12T04:00:00","FM-12","4",,"SE","0.25","mi","TEMP, PRECIP, SNOW",,,"MMTS, SRG, SNOWBOARD",,,"WFO CHS",,,,,,,,,,,,,,,,,,,,,,,,,,,"30.19","69","71",,,"+0.01","6","94","30.19","8","30.14","8.70","70","210",,"21",,,,,,,,,,,,,,,,,,,,,,,,,,,,,,,,,,,,,"SYN07472208 32364 82118 10217 20206 30207 40224 56002 90856 333 91024 555 91209=","FM-12","4",,,,,,,,,,,,,,,,,,,,,,,,,,,,"2009-06-10"
"72208013880","2020-01-12T04:56:00","FM-15","7",,"SE","0.25","mi","TEMP, PRECIP, SNOW",,,"MMTS, SRG, SNOWBOARD",,,"WFO CHS",,,,,,,,,,,,,,,,,,,,,,,,,,,"30.23","69","71","0.00",,,,"94","30.22","OVC:08 9","30.18","10.00","70","210","25","17",,,,,,,,,,,,,,,,,,,,,,,,,,,,,,,,,,,,,"MET11601/12/20 04:56:02 METAR KCHS 120956Z 21015G22KT 10SM OVC009 22/21 A3023 RMK AO2 CIG 007V013 SLP235 T02170206 $ (DTU)","FM-15","7",,,,,,,,,,,,,,,,,,,,,,,,,,,,"2009-06-10"
"72208013880","2020-01-12T05:41:00","FM-16","7",,"SE","0.25","mi","TEMP, PRECIP, SNOW",,,"MMTS, SRG, SNOWBOARD",,,"WFO CHS",,,,,,,,,,,,,,,,,,,,,,,,,,,"30.24","69","71",,,,,"94",,"OVC:08 11","30.19","10.00","70","210",,"13",,,,,,,,,,,,,,,,,,,,,,,,,,,,,,,,,,,,,"MET09401/12/20 05:41:02 SPECI KCHS 121041Z 21011KT 10SM OVC011 22/21 A3024 RMK AO2 T02170206 $ (DTU)","FM-16","7",,,,,,,,,,,,,,,,,,,,,,,,,,,,"2009-06-10"
"72208013880","2020-01-12T05:56:00","FM-15","7",,"SE","0.25","mi","TEMP, PRECIP, SNOW",,,"MMTS, SRG, SNOWBOARD",,,"WFO CHS",,,,,,,,,,,,,,,,,,,,,,,,,,,"30.25","68","70","0.00",,,,"93","30.24","OVC:08 11","30.20","10.00","69","210","21","11",,,,,,,,,,,,,,,,,,,,,,,,,,,,,,,,,,,,,"MET10401/12/20 05:56:02 METAR KCHS 121056Z 21010G18KT 10SM OVC011 21/20 A3025 RMK AO2 SLP241 T02110200 $ (DTU)","FM-15","7",,,,,,,,,,,,,,,,,,,,,,,,,,,,"2009-06-10"
"72208013880","2020-01-12T06:29:00","FM-16","7",,"SE","0.25","mi","TEMP, PRECIP, SNOW",,,"MMTS, SRG, SNOWBOARD",,,"WFO CHS",,,,,,,,,,,,,,,,,,,,,,,,,,,"30.25","68","70","T","-RA:02 |RA |RA",,,"93",,"FEW:02 10 SCT:04 110","30.20","10.00","69","210",,"16",,,,,,,,,,,,,,,,,,,,,,,,,,,,,,,,,,,,,"MET11701/12/20 06:29:02 SPECI KCHS 121129Z 21014KT 10SM -RA FEW010 SCT110 21/20 A3025 RMK AO2 RAB28 P0000 T02110200 $ (DTU)","FM-16","7",,,,,,,,,,,,,,,,,,,,,,,,,,,,"2009-06-10"
"72208013880","2020-01-12T06:56:00","FM-15","7",,"SE","0.25","mi","TEMP, PRECIP, SNOW",,,"MMTS, SRG, SNOWBOARD",,,"WFO CHS",,,,,,,,,,,,,,,,,,,,,,,,,,,"30.24","69","71","0.01","RA:02 |RA |RA","-0.05","0","94","30.24","SCT:04 12 BKN:07 44 OVC:08 110","30.19","7.00","70","200",,"17",,,,,,,,,,,,,,,,,,,,,,,,,,,,,,,,,,,,,"MET15901/12/20 06:56:02 METAR KCHS 121156Z 20015KT 7SM RA SCT012 BKN044 OVC110 22/21 A3024 RMK AO2 RAB28 SLP239 P0001 60001 70007 T02170206 10222 20211 50016 $ (WHT)","FM-15","7",,,,,,,,,,,,,,,,,,,,,,,,,,,,"2009-06-10"
"72208013880","2020-01-12T07:00:00","FM-12","4",,"SE","0.25","mi","TEMP, PRECIP, SNOW",,,"MMTS, SRG, SNOWBOARD",,,"WFO CHS",,,,,,,,,,,,,,,,,,,,,,,,,,,"30.24","69","71",,"||RA","0.05","9","94","30.24","15","30.19","6.84","70","200",,"17",,,,,,,,,,,,,,,,,,,,,,,,,,,,,,,,,,,,,"SYN09872208 11461 82015 10217 20206 30224 40239 50016 69931 763// 91156 333 10256 20211 70018 555 91212=","FM-12","4",,,,,,,,,,,,,,,,,,,,,,,,,,,,"2009-06-10"
"72208013880","2020-01-12T07:08:00","FM-16","7",,"SE","0.25","mi","TEMP, PRECIP, SNOW",,,"MMTS, SRG, SNOWBOARD",,,"WFO CHS",,,,,,,,,,,,,,,,,,,,,,,,,,,"30.26","69","71","0.01","-RA:02 |RA |RA",,,"94",,"BKN:07 10 OVC:08 44","30.21","8.00","70","210","25","20",,,,,,,,,,,,,,,,,,,,,,,,,,,,,,,,,,,,,"MET11301/12/20 07:08:02 SPECI KCHS 121208Z 21017G22KT 8SM -RA BKN010 OVC044 22/21 A3026 RMK AO2 P0001 T02170206 $ (WHT)","FM-16","7",,,,,,,,,,,,,,,,,,,,,,,,,,,,"2009-06-10"
"72208013880","2020-01-12T07:35:00","FM-16","7",,"SE","0.25","mi","TEMP, PRECIP, SNOW",,,"MMTS, SRG, SNOWBOARD",,,"WFO CHS",,,,,,,,,,,,,,,,,,,,,,,,,,,"30.26","69","70","0.03","RA:02 BR:1 |RA |RA",,,"97",,"SCT:04 9 BKN:07 46 OVC:08 75","30.21","6.00","69","200","30","22",,,,,,,,,,,,,,,,,,,,,,,,,,,,,,,,,,,,,"MET14001/12/20 07:35:02 SPECI KCHS 121235Z 20019G26KT 6SM RA BR SCT009 BKN046 OVC075 21/21 A3026 RMK AO2 PK WND 21027/1214 P0003 T02110206 $ (WHT)","FM-16","7",,,,,,,,,,,,,,,,,,,,,,,,,,,,"2009-06-10"
"72208013880","2020-01-12T07:56:00","FM-15","7",,"SE","0.25","mi","TEMP, PRECIP, SNOW",,,"MMTS, SRG, SNOWBOARD",,,"WFO CHS",,,,,,,,,,,,,,,,,,,,,,,,,,,"30.26","69","70","0.06","-RA:02 BR:1 |RA |RA",,,"97","30.26","SCT:04 7 BKN:07 50 OVC:08 95","30.21","5.00","69","200","33","23",,,,,,,,,,,,,,,,,,,,,,,,,,,,,,,,,,,,,"MET14801/12/20 07:56:02 METAR KCHS 121256Z 20020G29KT 5SM -RA BR SCT007 BKN050 OVC095 21/21 A3026 RMK AO2 PK WND 20031/1246 SLP246 P0006 T02110206 $ (WHT)","FM-15","7",,,,,,,,,,,,,,,,,,,,,,,,,,,,"2009-06-10"
"72208013880","2020-01-12T08:56:00","FM-15","7",,"SE","0.25","mi","TEMP, PRECIP, SNOW",,,"MMTS, SRG, SNOWBOARD",,,"WFO CHS",,,,,,,,,,,,,,,,,,,,,,,,,,,"30.30","69","71","0.08","-RA:02 |RA |RA",,,"94","30.29","SCT:04 9 SCT:04 37 BKN:07 70","30.25","10.00","70","220",,"15",,,,,,,,,,,,,,,,,,,,,,,,,,,,,,,,,,,,,"MET13701/12/20 08:56:02 METAR KCHS 121356Z 22013KT 10SM -RA SCT009 SCT037 BKN070 22/21 A3030 RMK AO2 PK WND 19032/1325 SLP258 P0008 T02170206 $","FM-15","7",,,,,,,,,,,,,,,,,,,,,,,,,,,,"2009-06-10"
"72208013880","2020-01-12T09:01:00","FM-16","7",,"SE","0.25","mi","TEMP, PRECIP, SNOW",,,"MMTS, SRG, SNOWBOARD",,,"WFO CHS",,,,,,,,,,,,,,,,,,,,,,,,,,,"30.30","69","71","T","-RA:02 |RA |RA",,,"94",,"BKN:07 9 BKN:07 32 BKN:07 100","30.25","10.00","70","210",,"17",,,,,,,,,,,,,,,,,,,,,,,,,,,,,,,,,,,,,"MET11201/12/20 09:01:02 SPECI KCHS 121401Z 21015KT 10SM -RA BKN009 BKN032 BKN100 22/21 A3030 RMK AO2 P0000 T02170206 $","FM-16","7",,,,,,,,,,,,,,,,,,,,,,,,,,,,"2009-06-10"
"72208013880","2020-01-12T09:56:00","FM-15","7",,"SE","0.25","mi","TEMP, PRECIP, SNOW",,,"MMTS, SRG, SNOWBOARD",,,"WFO CHS",,,,,,,,,,,,,,,,,,,,,,,,,,,"30.28","69","71","0.01","-RA:02 |RA |RA","-0.04","0","94","30.28","BKN:07 9 OVC:08 45","30.23","8.00","70","200",,"14",,,,,,,,,,,,,,,,,,,,,,,,,,,,,,,,,,,,,"MET13001/12/20 09:56:02 METAR KCHS 121456Z 20012KT 8SM -RA BKN009 OVC045 22/21 A3028 RMK AO2 PRESFR SLP253 P0001 60015 T02170206 50014 $","FM-15","7",,,,,,,,,,,,,,,,,,,,,,,,,,,,"2009-06-10"
"72208013880","2020-01-12T10:00:00","FM-12","4",,"SE","0.25","mi","TEMP, PRECIP, SNOW",,,"MMTS, SRG, SNOWBOARD",,,"WFO CHS",,,,,,,,,,,,,,,,,,,,,,,,,,,"30.28","69","71",,"||RA","0.04","9","94","30.28","8","30.23","7.46","70","200",,"14",,,,,,,,,,,,,,,,,,,,,,,,,,,,,,,,,,,,,"SYN07672208 11362 82012 10217 20206 30238 40253 50014 60047 761// 91456 555 91215=","FM-12","4",,,,,,,,,,,,,,,,,,,,,,,,,,,,"2009-06-10"
"72208013880","2020-01-12T10:56:00","FM-15","7",,"SE","0.25","mi","TEMP, PRECIP, SNOW",,,"MMTS, SRG, SNOWBOARD",,,"WFO CHS",,,,,,,,,,,,,,,,,,,,,,,,,,,"30.30","70","71","0.01",,,,"96","30.30","OVC:08 7","30.25","10.00","70","220","23","14",,,,,,,,,,,,,,,,,,,,,,,,,,,,,,,,,,,,,"MET12201/12/20 10:56:02 METAR KCHS 121556Z 22012G20KT 10SM OVC007 22/21 A3030 RMK AO2 RAE31 CIG 006V011 SLP261 P0001 T02170211 $","FM-15","7",,,,,,,,,,,,,,,,,,,,,,,,,,,,"2009-06-10"
"72208013880","2020-01-12T11:56:00","FM-15","7",,"SE","0.25","mi","TEMP, PRECIP, SNOW",,,"MMTS, SRG, SNOWBOARD",,,"WFO CHS",,,,,,,,,,,,,,,,,,,,,,,,,,,"30.31","70","72","0.00",,,,"94","30.31","BKN:07 11","30.26","10.00","71","240",,"11",,,,,,,,,,,,,,,,,,,,,,,,,,,,,,,,,,,,,"MET09501/12/20 11:56:02 METAR KCHS 121656Z 24010KT 10SM BKN011 22/21 A3031 RMK AO2 SLP264 T02220211 $","FM-15","7",,,,,,,,,,,,,,,,,,,,,,,,,,,,"2009-06-10"
"72208013880","2020-01-12T12:29:00","FM-16","6",,"SE","0.25","mi","TEMP, PRECIP, SNOW",,,"MMTS, SRG, SNOWBOARD",,,"WFO CHS",,,,,,,,,,,,,,,,,,,,,,,,,,,"30.30","69","72",,,,,"91",,"BKN:07 9 OVC:08 14","30.25","10.00","70","220",,"13",,,,,,,,,,,,,,,,,,,,,,,,,,,,,,,,,,,,,"MET10101/12/20 12:29:02 SPECI KCHS 121729Z 22011KT 10SM BKN009 OVC014 22/21 A3030 RMK AO2 T02220206 $ (WHT)","FM-16","6",,,,,,,,,,,,,,,,,,,,,,,,,,,,"2009-06-10"
"72208013880","2020-01-12T12:40:00","FM-16","7",,"SE","0.25","mi","TEMP, PRECIP, SNOW",,,"MMTS, SRG, SNOWBOARD",,,"WFO CHS",,,,,,,,,,,,,,,,,,,,,,,,,,,"30.29","70","72",,,,,"94",,"OVC:08 10","30.24","10.00","71","210",,"13",,,,,,,,,,,,,,,,,,,,,,,,,,,,,,,,,,,,,"MET08801/12/20 12:40:02 SPECI KCHS 121740Z 21011KT 10SM OVC010 22/21 A3029 RMK AO2 T02220211 $","FM-16","7",,,,,,,,,,,,,,,,,,,,,,,,,,,,"2009-06-10"
"72208013880","2020-01-12T12:56:00","FM-15","7",,"SE","0.25","mi","TEMP, PRECIP, SNOW",,,"MMTS, SRG, SNOWBOARD",,,"WFO CHS",,,,,,,,,,,,,,,,,,,,,,,,,,,"30.28","70","73","0.00",,"+0.00","8","90","30.27","BKN:07 10","30.23","10.00","71","210",,"11",,,,,,,,,,,,,,,,,,,,,,,,,,,,,,,,,,,,,"MET13101/12/20 12:56:02 METAR KCHS 121756Z 21010KT 10SM BKN010 23/21 A3028 RMK AO2 CIG 008V013 SLP252 60016 T02280211 10228 20211 58001 $","FM-15","7",,,,,,,,,,,,,,,,,,,,,,,,,,,,"2009-06-10"
"72208013880","2020-01-12T13:00:00","FM-12","4",,"SE","0.25","mi","TEMP, PRECIP, SNOW",,,"MMTS, SRG, SNOWBOARD",,,"WFO CHS",,,,,,,,,,,,,,,,,,,,,,,,,,,"30.28","70","73",,,"+0.00","8","90","30.27","15","30.23","9.94","71","210",,"11",,,,,,,,,,,,,,,,,,,,,,,,,,,,,,,,,,,,,"SYN08672208 12466 62110 10228 20211 30238 40252 58001 60041 91756 333 10228 20206 555 91218=","FM-12","4",,,,,,,,,,,,,,,,,,,,,,,,,,,,"2009-06-10"
"72208013880","2020-01-12T13:14:00","FM-16","7",,"SE","0.25","mi","TEMP, PRECIP, SNOW",,,"MMTS, SRG, SNOWBOARD",,,"WFO CHS",,,,,,,,,,,,,,,,,,,,,,,,,,,"30.26","70","74",,,,,"88",,"SCT:04 10","30.21","10.00","71","200",,"20",,,,,,,,,,,,,,,,,,,,,,,,,,,,,,,,,,,,,"MET08801/12/20 13:14:02 SPECI KCHS 121814Z 20017KT 10SM SCT010 23/21 A3026 RMK AO2 T02330211 $","FM-16","7",,,,,,,,,,,,,,,,,,,,,,,,,,,,"2009-06-10"
"72208013880","2020-01-12T13:56:00","FM-15","7",,"SE","0.25","mi","TEMP, PRECIP, SNOW",,,"MMTS, SRG, SNOWBOARD",,,"WFO CHS",,,,,,,,,,,,,,,,,,,,,,,,,,,"30.25","69","76","0.00",,,,"79","30.24","FEW:02 9 SCT:04 14","30.20","10.00","71","220","25","17",,,,,,,,,,,,,,,,,,,,,,,,,,,,,,,,,,,,,"MET10501/12/20 13:56:02 METAR KCHS 121856Z 22015G22KT 10SM FEW009 SCT014 24/21 A3025 RMK AO2 SLP242 T02440206 $","FM-15","7",,,,,,,,,,,,,,,,,,,,,,,,,,,,"2009-06-10"
"72208013880","2020-01-12T14:56:00","FM-15","7",,"SE","0.25","mi","TEMP, PRECIP, SNOW",,,"MMTS, SRG, SNOWBOARD",,,"WFO CHS",,,,,,,,,,,,,,,,,,,,,,,,,,,"30.25","69","77","0.00",,,,"77","30.24","FEW:02 14 BKN:07 120 BKN:07 200","30.20","10.00","72","230","21","11",,,,,,,,,,,,,,,,,,,,,,,,,,,,,,,,,,,,,"MET11201/12/20 14:56:02 METAR KCHS 121956Z 23010G18KT 10SM FEW014 BKN120 BKN200 25/21 A3025 RMK AO2 SLP241 T02500206 $","FM-15","7",,,,,,,,,,,,,,,,,,,,,,,,,,,,"2009-06-10"
"72208013880","2020-01-12T15:56:00","FM-15","7",,"SE","0.25","mi","TEMP, PRECIP, SNOW",,,"MMTS, SRG, SNOWBOARD",,,"WFO CHS",,,,,,,,,,,,,,,,,,,,,,,,,,,"30.27","68","74","0.00",,"+0.01","5","82","30.27","FEW:02 16 BKN:07 120","30.22","10.00","70","220",,"14",,,,,,,,,,,,,,,,,,,,,,,,,,,,,,,,,,,,,"MET10801/12/20 15:56:02 METAR KCHS 122056Z 22012KT 10SM FEW016 BKN120 23/20 A3027 RMK AO2 SLP249 T02330200 55003 $","FM-15","7",,,,,,,,,,,,,,,,,,,,,,,,,,,,"2009-06-10"
"72208013880","2020-01-12T16:00:00","FM-12","4",,"SE","0.25","mi","TEMP, PRECIP, SNOW",,,"MMTS, SRG, SNOWBOARD",,,"WFO CHS",,,,,,,,,,,,,,,,,,,,,,,,,,,"30.27","68","74",,,"+0.01","5","82","30.27","15","30.22","9.94","70","220",,"14",,,,,,,,,,,,,,,,,,,,,,,,,,,,,,,,,,,,,"SYN06472208 32466 62212 10233 20200 30234 40249 55003 92056 555 91221=","FM-12","4",,,,,,,,,,,,,,,,,,,,,,,,,,,,"2009-06-10"
"72208013880","2020-01-12T16:56:00","FM-15","7",,"SE","0.25","mi","TEMP, PRECIP, SNOW",,,"MMTS, SRG, SNOWBOARD",,,"WFO CHS",,,,,,,,,,,,,,,,,,,,,,,,,,,"30.27","68","73","0.00",,,,"84","30.27","FEW:02 15 SCT:04 120 BKN:07 250","30.22","10.00","70","200",,"9",,,,,,,,,,,,,,,,,,,,,,,,,,,,,,,,,,,,,"MET10901/12/20 16:56:02 METAR KCHS 122156Z 20008KT 10SM FEW015 SCT120 BKN250 23/20 A3027 RMK AO2 SLP250 T02280200 $","FM-15","7",,,,,,,,,,,,,,,,,,,,,,,,,,,,"2009-06-10"
"72208013880","2020-01-12T17:46:00","FM-16","7",,"SE","0.25","mi","TEMP, PRECIP, SNOW",,,"MMTS, SRG, SNOWBOARD",,,"WFO CHS",,,,,,,,,,,,,,,,,,,,,,,,,,,"30.29","68","71",,,,,"90",,"FEW:02 6 FEW:02 120 SCT:04 250","30.24","10.00","69","190",,"9",,,,,,,,,,,,,,,,,,,,,,,,,,,,,,,,,,,,,"MET10201/12/20 17:46:02 SPECI KCHS 122246Z 19008KT 10SM FEW006 FEW120 SCT250 22/20 A3029 RMK AO2 T02170200 $","FM-16","7",,,,,,,,,,,,,,,,,,,,,,,,,,,,"2009-06-10"
"72208013880","2020-01-12T17:56:00","FM-15","7",,"SE","0.25","mi","TEMP, PRECIP, SNOW",,,"MMTS, SRG, SNOWBOARD",,,"WFO CHS",,,,,,,,,,,,,,,,,,,,,,,,,,,"30.29","68","70","0.00",,,,"93","30.29","FEW:02 6 FEW:02 120 SCT:04 250","30.24","10.00","69","190",,"10",,,,,,,,,,,,,,,,,,,,,,,,,,,,,,,,,,,,,"MET10901/12/20 17:56:02 METAR KCHS 122256Z 19009KT 10SM FEW006 FEW120 SCT250 21/20 A3029 RMK AO2 SLP258 T02110200 $","FM-15","7",,,,,,,,,,,,,,,,,,,,,,,,,,,,"2009-06-10"
"72208013880","2020-01-12T18:56:00","FM-15","7",,"SE","0.25","mi","TEMP, PRECIP, SNOW",,,"MMTS, SRG, SNOWBOARD",,,"WFO CHS",,,,,,,,,,,,,,,,,,,,,,,,,,,"30.31","67","68","0.00",,"-0.04","3","96","30.31","SCT:04 6 BKN:07 250","30.26","10.00","67","200",,"7",,,,,,,,,,,,,,,,,,,,,,,,,,,,,,,,,,,,,"MET12001/12/20 18:56:02 METAR KCHS 122356Z 20006KT 10SM SCT006 BKN250 20/19 A3031 RMK AO2 SLP263 T02000194 10250 20200 53014 $","FM-15","7",,,,,,,,,,,,,,,,,,,,,,,,,,,,"2009-06-10"
"72208013880","2020-01-12T19:00:00","FM-12","4",,"SE","0.25","mi","TEMP, PRECIP, SNOW",,,"MMTS, SRG, SNOWBOARD",,,"WFO CHS",,,,,,,,,,,,,,,,,,,,,,,,,,,"30.31","67","68",,,"-0.04","3","96","30.31","5","30.26","9.94","67","200",,"7",,,,,,,,,,,,,,,,,,,,,,,,,,,,,,,,,,,,,"SYN08072208 32266 62006 10200 20194 30248 40263 53014 92356 333 10250 20200 555 91300=","FM-12","4",,,,,,,,,,,,,,,,,,,,,,,,,,,,"2009-06-10"
"72208013880","2020-01-12T19:33:00","FM-16","7",,"SE","0.25","mi","TEMP, PRECIP, SNOW",,,"MMTS, SRG, SNOWBOARD",,,"WFO CHS",,,,,,,,,,,,,,,,,,,,,,,,,,,"30.32","67","68",,,,,"96",,"BKN:07 5","30.27","10.00","67","210",,"6",,,,,,,,,,,,,,,,,,,,,,,,,,,,,,,,,,,,,"MET10001/12/20 19:33:01 SPECI KCHS 130033Z 21005KT 10SM BKN005 20/19 A3032 RMK AO2 CIG 004V008 T02000194 $","FM-16","7",,,,,,,,,,,,,,,,,,,,,,,,,,,,"2009-06-10"
"72208013880","2020-01-12T19:41:00","FM-16","7",,"SE","0.25","mi","TEMP, PRECIP, SNOW",,,"MMTS, SRG, SNOWBOARD",,,"WFO CHS",,,,,,,,,,,,,,,,,,,,,,,,,,,"30.32","67","68",,,,,"96",,"BKN:07 4","30.27","10.00","67","200",,"5",,,,,,,,,,,,,,,,,,,,,,,,,,,,,,,,,,,,,"MET08801/12/20 19:41:01 SPECI KCHS 130041Z 20004KT 10SM BKN004 20/19 A3032 RMK AO2 T02000194 $","FM-16","7",,,,,,,,,,,,,,,,,,,,,,,,,,,,"2009-06-10"
"72208013880","2020-01-12T19:56:00","FM-15","7",,"SE","0.25","mi","TEMP, PRECIP, SNOW",,,"MMTS, SRG, SNOWBOARD",,,"WFO CHS",,,,,,,,,,,,,,,,,,,,,,,,,,,"30.33","67","68","0.00",,,,"96","30.32","OVC:08 4","30.28","7.00","67","220",,"6",,,,,,,,,,,,,,,,,,,,,,,,,,,,,,,,,,,,,"MET09401/12/20 19:56:01 METAR KCHS 130056Z 22005KT 7SM OVC004 20/19 A3033 RMK AO2 SLP268 T02000194 $","FM-15","7",,,,,,,,,,,,,,,,,,,,,,,,,,,,"2009-06-10"
"72208013880","2020-01-12T20:26:00","FM-16","7",,"SE","0.25","mi","TEMP, PRECIP, SNOW",,,"MMTS, SRG, SNOWBOARD",,,"WFO CHS",,,,,,,,,,,,,,,,,,,,,,,,,,,"30.32","67","68",,"BR:1 ||",,,"96",,"OVC:08 3","30.27","4.00","67","230",,"5",,,,,,,,,,,,,,,,,,,,,,,,,,,,,,,,,,,,,"MET09001/12/20 20:26:01 SPECI KCHS 130126Z 23004KT 4SM BR OVC003 20/19 A3032 RMK AO2 T02000194 $","FM-16","7",,,,,,,,,,,,,,,,,,,,,,,,,,,,"2009-06-10"
"72208013880","2020-01-12T20:54:00","FM-16","6",,"SE","0.25","mi","TEMP, PRECIP, SNOW",,,"MMTS, SRG, SNOWBOARD",,,"WFO CHS",,,,,,,,,,,,,,,,,,,,,,,,,,,"30.32","66","68",,"BR:1 ||",,,"94",,"OVC:08 3","30.27","2.50","67","200",,"11",,,,,,,,,,,,,,,,,,,,,,,,,,,,,,,,,,,,,"MET09501/12/20 20:54:03 SPECI KCHS 130154Z 20010KT 2 1/2SM BR OVC003 20/19 A3032 RMK AO2 $ FIBI (JRS)","FM-16","6",,,,,,,,,,,,,,,,,,,,,,,,,,,,"2009-06-10"
"72208013880","2020-01-12T20:56:00","FM-15","7",,"SE","0.25","mi","TEMP, PRECIP, SNOW",,,"MMTS, SRG, SNOWBOARD",,,"WFO CHS",,,,,,,,,,,,,,,,,,,,,,,,,,,"30.32","67","68","0.00","BR:1 ||",,,"96","30.32","OVC:08 3","30.27","2.50","67","200",,"10",,,,,,,,,,,,,,,,,,,,,,,,,,,,,,,,,,,,,"MET10101/12/20 20:56:01 METAR KCHS 130156Z 20009KT 2 1/2SM BR OVC003 20/19 A3032 RMK AO2 SLP267 T02000194 $","FM-15","7",,,,,,,,,,,,,,,,,,,,,,,,,,,,"2009-06-10"
"72208013880","2020-01-12T21:14:00","FM-16","7",,"SE","0.25","mi","TEMP, PRECIP, SNOW",,,"MMTS, SRG, SNOWBOARD",,,"WFO CHS",,,,,,,,,,,,,,,,,,,,,,,,,,,"30.33","67","67",,"BR:1 ||",,,"100",,"OVC:08 3","30.28","1.50","67","210",,"8",,,,,,,,,,,,,,,,,,,,,,,,,,,,,,,,,,,,,"MET09401/12/20 21:14:01 SPECI KCHS 130214Z 21007KT 1 1/2SM BR OVC003 19/19 A3033 RMK AO2 T01940194 $","FM-16","7",,,,,,,,,,,,,,,,,,,,,,,,,,,,"2009-06-10"
"72208013880","2020-01-12T21:38:00","FM-16","7",,"SE","0.25","mi","TEMP, PRECIP, SNOW",,,"MMTS, SRG, SNOWBOARD",,,"WFO CHS",,,,,,,,,,,,,,,,,,,,,,,,,,,"30.34","67","67",,"BR:1 ||",,,"100",,"VV:09 2","30.29","1.00","67","210",,"7",,,,,,,,,,,,,,,,,,,,,,,,,,,,,,,,,,,,,"MET10601/12/20 21:38:01 SPECI KCHS 130238Z 21006KT 1SM R15/6000VP6000FT BR VV002 19/19 A3034 RMK AO2 T01940194 $","FM-16","7",,,,,,,,,,,,,,,,,,,,,,,,,,,,"2009-06-10"
"72208013880","2020-01-12T21:56:00","FM-15","7",,"SE","0.25","mi","TEMP, PRECIP, SNOW",,,"MMTS, SRG, SNOWBOARD",,,"WFO CHS",,,,,,,,,,,,,,,,,,,,,,,,,,,"30.34","67","67","0.00","BR:1 ||","-0.03","3","100","30.34","VV:09 2","30.29","1.00","67","200",,"7",,,,,,,,,,,,,,,,,,,,,,,,,,,,,,,,,,,,,"MET11901/12/20 21:56:01 METAR KCHS 130256Z 20006KT 1SM R15/6000VP6000FT BR VV002 19/19 A3034 RMK AO2 SLP273 T01940194 53010 $","FM-15","7",,,,,,,,,,,,,,,,,,,,,,,,,,,,"2009-06-10"
"72208013880","2020-01-12T22:00:00","FM-12","4",,"SE","0.25","mi","TEMP, PRECIP, SNOW",,,"MMTS, SRG, SNOWBOARD",,,"WFO CHS",,,,,,,,,,,,,,,,,,,,,,,,,,,"30.34","67","67",,,"-0.03","3","100","30.34","2","30.29","0.99","67","200",,"7",,,,,,,,,,,,,,,,,,,,,,,,,,,,,,,,,,,,,"SYN07072208 31116 92006 10194 20194 30258 40273 53010 710// 90256 555 91303=","FM-12","4",,,,,,,,,,,,,,,,,,,,,,,,,,,,"2009-06-10"
"72208013880","2020-01-12T22:54:00","FM-16","6",,"SE","0.25","mi","TEMP, PRECIP, SNOW",,,"MMTS, SRG, SNOWBOARD",,,"WFO CHS",,,,,,,,,,,,,,,,,,,,,,,,,,,"30.34","66","66",,"BR:1 ||",,,"100",,"OVC:08 3","30.29","1.25","66","210",,"7",,,,,,,,,,,,,,,,,,,,,,,,,,,,,,,,,,,,,"MET11101/12/20 22:54:03 SPECI KCHS 130354Z 21006KT 1 1/4SM R15/4000V5000FT BR OVC003 19/19 A3034 RMK AO2 $ FIBI (KLJ)","FM-16","6",,,,,,,,,,,,,,,,,,,,,,,,,,,,"2009-06-10"
"72208013880","2020-01-12T22:56:00","FM-15","7",,"SE","0.25","mi","TEMP, PRECIP, SNOW",,,"MMTS, SRG, SNOWBOARD",,,"WFO CHS",,,,,,,,,,,,,,,,,,,,,,,,,,,"30.34","67","67","0.00","BR:1 ||",,,"100","30.34","OVC:08 3","30.29","1.25","67","210",,"8",,,,,,,,,,,,,,,,,,,,,,,,,,,,,,,,,,,,,"MET11701/12/20 22:56:01 METAR KCHS 130356Z 21007KT 1 1/4SM R15/4500V6000FT BR OVC003 19/19 A3034 RMK AO2 SLP273 T01940194 $","FM-15","7",,,,,,,,,,,,,,,,,,,,,,,,,,,,"2009-06-10"
"72208013880","2020-01-12T23:31:00","FM-16","7",,"SE","0.25","mi","TEMP, PRECIP, SNOW",,,"MMTS, SRG, SNOWBOARD",,,"WFO CHS",,,,,,,,,,,,,,,,,,,,,,,,,,,"30.33","68","68",,"BR:1 ||",,,"100",,"VV:09 2","30.28","1.00","68","210",,"6",,,,,,,,,,,,,,,,,,,,,,,,,,,,,,,,,,,,,"MET10601/12/20 23:31:01 SPECI KCHS 130431Z 21005KT 1SM R15/6000VP6000FT BR VV002 20/20 A3033 RMK AO2 T02000200 $","FM-16","7",,,,,,,,,,,,,,,,,,,,,,,,,,,,"2009-06-10"
"72208013880","2020-01-12T23:56:00","FM-15","7",,"SE","0.25","mi","TEMP, PRECIP, SNOW",,,"MMTS, SRG, SNOWBOARD",,,"WFO CHS",,,,,,,,,,,,,,,,,,,,,,,,,,,"30.33","68","68","0.00","BR:1 ||",,,"100","30.32","VV:09 2","30.28","1.00","68","220",,"7",,,,,,,,,,,,,,,,,,,,,,,,,,,,,,,,,,,,,"MET11801/12/20 23:56:01 METAR KCHS 130456Z 22006KT 1SM R15/P6000FT BR VV002 20/20 A3033 RMK AO2 SLP268 T02000200 402500194 $","FM-15","7",,,,,,,,,,,,,,,,,,,,,,,,,,,,"2009-06-10"
"72208013880","2020-01-12T23:59:00","SOD  ","6",,"SE","0.25","mi","TEMP, PRECIP, SNOW",,,"MMTS, SRG, SNOWBOARD",,,"WFO CHS",,,,"69","72","93","30.27","30.23","69","13.2","7","24.1","0","77","67","190","36","0.17","0","0.0","190","29","RA BR",,,,,,,,,,,,,,,,,,,,,,,,,,,,,,,,,,,,,,,,,,,,,,,,,,,,,,,,"SOD76024 HR PRECIPITATION (IN): 0.17 SNOW DEPTH (IN):0     24 HR SNOWFALL (IN):0.0  WEATHER(CODE):1  24 HR MAX TEMP (F): 7724 HR MIN TEMP (F): 67AVERAGE STATION PRESSURE(D):30.228 MINIMUM SEA LEVEL PRESSURE:30.18 TIME OF OCCURRENCE:0230 PEAK WIND SPEED (MPH): 36 PEAK WIND DIR (DEG):190 PEAK WIND TIME (LST):      FASTEST 2MIN SPEED (MPH): 29FASTEST 2MIN DIR (DEG):190 FASTEST 2MIN TIME (LST):     AVERAGE WIND SPEED (MPH):13.2 24 HR AVG TEMP (F): 72DEPART FROM NORMAL: 24  HEATING DEGREE DAYS:  0 COOLING DEGREE DAYS:  7 LATEST DAY MAX TEMP (0700-1900 LST): 77 LATEST NIGHT MIN TEMP(1900-0800 LST):70 HOURLY INCREMENTAL PRECIPITATION VALUES (IN):     0.00 0.00 0.00 0.00 0.00 0.01 0.06 0.08 0.01 0.01 0.00 0.00 0.00 0.00 0.00 0.00 0.00 0.00 0.00 0.00 0.00 0.00 0.00","SOD  ","6",,,,,,,,,,,,,,,,,,,,,,,,,"0724","1734",,"2009-06-10"
"72208013880","2020-01-13T00:22:00","FM-16","7",,"SE","0.25","mi","TEMP, PRECIP, SNOW",,,"MMTS, SRG, SNOWBOARD",,,"WFO CHS",,,,,,,,,,,,,,,,,,,,,,,,,,,"30.32","68","68",,"BR:1 ||",,,"100",,"OVC:08 2","30.27","1.75","68","210",,"7",,,,,,,,,,,,,,,,,,,,,,,,,,,,,,,,,,,,,"MET10001/13/20 00:22:02 SPECI KCHS 130522Z 21006KT 1 3/4SM BR OVC002 20/20 A3032 RMK AO2 T02000200 $ (KLJ)","FM-16","7",,,,,,,,,,,,,,,,,,,,,,,,,,,,"2009-06-10"
"72208013880","2020-01-13T00:37:00","FM-16","7",,"SE","0.25","mi","TEMP, PRECIP, SNOW",,,"MMTS, SRG, SNOWBOARD",,,"WFO CHS",,,,,,,,,,,,,,,,,,,,,,,,,,,"30.32","68","68",,"BR:1 ||",,,"100",,"OVC:08 3","30.27","3.00","68","230",,"8",,,,,,,,,,,,,,,,,,,,,,,,,,,,,,,,,,,,,"MET09601/13/20 00:37:02 SPECI KCHS 130537Z 23007KT 3SM BR OVC003 20/20 A3032 RMK AO2 T02000200 $ (KLJ)","FM-16","7",,,,,,,,,,,,,,,,,,,,,,,,,,,,"2009-06-10"
"72208013880","2020-01-13T00:56:00","FM-15","7",,"SE","0.25","mi","TEMP, PRECIP, SNOW",,,"MMTS, SRG, SNOWBOARD",,,"WFO CHS",,,,,,,,,,,,,,,,,,,,,,,,,,,"30.32","68","68","0.00","BR:1 ||","+0.02","8","100","30.32","OVC:08 3","30.27","4.00","68","240",,"7",,,,,,,,,,,,,,,,,,,,,,,,,,,,,,,,,,,,,"MET12101/13/20 00:56:02 METAR KCHS 130556Z 24006KT 4SM BR OVC003 20/20 A3032 RMK AO2 SLP267 T02000200 10200 20194 58007 $ (KLJ)","FM-15","7",,,,,,,,,,,,,,,,,,,,,,,,,,,,"2009-06-10"
"72208013880","2020-01-13T01:00:00","FM-12","4",,"SE","0.25","mi","TEMP, PRECIP, SNOW",,,"MMTS, SRG, SNOWBOARD",,,"WFO CHS",,,,,,,,,,,,,,,,,,,,,,,,,,,"30.32","68","68",,,"+0.02","8","100","30.32","2","30.27","3.73","68","240",,"7",,,,,,,,,,,,,,,,,,,,,,,,,,,,,,,,,,,,,"SYN08672208 31156 82406 10200 20200 30251 40267 58007 710// 90556 333 10222 20194 555 91306=","FM-12","4",,,,,,,,,,,,,,,,,,,,,,,,,,,,"2009-06-10"
"72208013880","2020-01-13T01:03:00","FM-16","7",,"SE","0.25","mi","TEMP, PRECIP, SNOW",,,"MMTS, SRG, SNOWBOARD",,,"WFO CHS",,,,,,,,,,,,,,,,,,,,,,,,,,,"30.32","68","68",,"BR:1 ||",,,"100",,"OVC:08 4","30.27","5.00","68","240",,"9",,,,,,,,,,,,,,,,,,,,,,,,,,,,,,,,,,,,,"MET09601/13/20 01:03:02 SPECI KCHS 130603Z 24008KT 5SM BR OVC004 20/20 A3032 RMK AO2 T02000200 $ (KLJ)","FM-16","7",,,,,,,,,,,,,,,,,,,,,,,,,,,,"2009-06-10"
"72208013880","2020-01-13T01:28:00","FM-16","7",,"SE","0.25","mi","TEMP, PRECIP, SNOW",,,"MMTS, SRG, SNOWBOARD",,,"WFO CHS",,,,,,,,,,,,,,,,,,,,,,,,,,,"30.32","68","68",,"BR:1 ||",,,"100",,"OVC:08 3","30.27","3.00","68","210",,"7",,,,,,,,,,,,,,,,,,,,,,,,,,,,,,,,,,,,,"MET09601/13/20 01:28:02 SPECI KCHS 130628Z 21006KT 3SM BR OVC003 20/20 A3032 RMK AO2 T02000200 $ (KLJ)","FM-16","7",,,,,,,,,,,,,,,,,,,,,,,,,,,,"2009-06-10"
"72208013880","2020-01-13T01:56:00","FM-15","7",,"SE","0.25","mi","TEMP, PRECIP, SNOW",,,"MMTS, SRG, SNOWBOARD",,,"WFO CHS",,,,,,,,,,,,,,,,,,,,,,,,,,,"30.32","68","69","0.00","BR:1 ||",,,"96","30.32","OVC:08 3","30.27","4.00","68","220",,"7",,,,,,,,,,,,,,,,,,,,,,,,,,,,,,,,,,,,,"MET10301/13/20 01:56:02 METAR KCHS 130656Z 22006KT 4SM BR OVC003 21/20 A3032 RMK AO2 SLP266 T02060200 $ (KLJ)","FM-15","7",,,,,,,,,,,,,,,,,,,,,,,,,,,,"2009-06-10"
"72208013880","2020-01-13T02:56:00","FM-15","7",,"SE","0.25","mi","TEMP, PRECIP, SNOW",,,"MMTS, SRG, SNOWBOARD",,,"WFO CHS",,,,,,,,,,,,,,,,,,,,,,,,,,,"30.32","68","68","0.00","BR:1 ||",,,"100","30.32","OVC:08 3","30.27","4.00","68","210",,"9",,,,,,,,,,,,,,,,,,,,,,,,,,,,,,,,,,,,,"MET10301/13/20 02:56:02 METAR KCHS 130756Z 21008KT 4SM BR OVC003 20/20 A3032 RMK AO2 SLP268 T02000200 $ (KLJ)","FM-15","7",,,,,,,,,,,,,,,,,,,,,,,,,,,,"2009-06-10"
"72208013880","2020-01-13T03:56:00","FM-15","7",,"SE","0.25","mi","TEMP, PRECIP, SNOW",,,"MMTS, SRG, SNOWBOARD",,,"WFO CHS",,,,,,,,,,,,,,,,,,,,,,,,,,,"30.34","68","68","0.00","BR:1 ||","-0.01","3","100","30.33","OVC:08 3","30.29","5.00","68","220",,"6",,,,,,,,,,,,,,,,,,,,,,,,,,,,,,,,,,,,,"MET10901/13/20 03:56:02 METAR KCHS 130856Z 22005KT 5SM BR OVC003 20/20 A3034 RMK AO2 SLP272 T02000200 53005 $ (KLJ)","FM-15","7",,,,,,,,,,,,,,,,,,,,,,,,,,,,"2009-06-10"
"72208013880","2020-01-13T04:00:00","FM-12","4",,"SE","0.25","mi","TEMP, PRECIP, SNOW",,,"MMTS, SRG, SNOWBOARD",,,"WFO CHS",,,,,,,,,,,,,,,,,,,,,,,,,,,"30.34","68","68",,,"-0.01","3","100","30.33","2","30.29","4.97","68","220",,"6",,,,,,,,,,,,,,,,,,,,,,,,,,,,,,,,,,,,,"SYN07072208 31158 82205 10200 20200 30258 40272 53005 710// 90856 555 91309=","FM-12","4",,,,,,,,,,,,,,,,,,,,,,,,,,,,"2009-06-10"
"72208013880","2020-01-13T04:41:00","FM-16","7",,"SE","0.25","mi","TEMP, PRECIP, SNOW",,,"MMTS, SRG, SNOWBOARD",,,"WFO CHS",,,,,,,,,,,,,,,,,,,,,,,,,,,"30.34","68","68",,"BR:1 ||",,,"100",,"OVC:08 3","30.29","2.50","68","210",,"6",,,,,,,,,,,,,,,,,,,,,,,,,,,,,,,,,,,,,"MET10001/13/20 04:41:02 SPECI KCHS 130941Z 21005KT 2 1/2SM BR OVC003 20/20 A3034 RMK AO2 T02000200 $ (KLJ)","FM-16","7",,,,,,,,,,,,,,,,,,,,,,,,,,,,"2009-06-10"
"72208013880","2020-01-13T04:54:00","FM-16","6",,"SE","0.25","mi","TEMP, PRECIP, SNOW",,,"MMTS, SRG, SNOWBOARD",,,"WFO CHS",,,,,,,,,,,,,,,,,,,,,,,,,,,"30.33","68","68",,"BR:1 ||",,,"100",,"OVC:08 2","30.28","2.00","68","210",,"5",,,,,,,,,,,,,,,,,,,,,,,,,,,,,,,,,,,,,"MET09101/13/20 04:54:02 SPECI KCHS 130954Z 21004KT 2SM BR OVC002 20/20 A3033 RMK AO2 $ FIBI (KLJ)","FM-16","6",,,,,,,,,,,,,,,,,,,,,,,,,,,,"2009-06-10"
"72208013880","2020-01-13T04:56:00","FM-15","7",,"SE","0.25","mi","TEMP, PRECIP, SNOW",,,"MMTS, SRG, SNOWBOARD",,,"WFO CHS",,,,,,,,,,,,,,,,,,,,,,,,,,,"30.33","68","68","0.00","BR:1 ||",,,"100","30.33","OVC:08 2","30.28","2.00","68","200",,"6",,,,,,,,,,,,,,,,,,,,,,,,,,,,,,,,,,,,,"MET10301/13/20 04:56:02 METAR KCHS 130956Z 20005KT 2SM BR OVC002 20/20 A3033 RMK AO2 SLP271 T02000200 $ (KLJ)","FM-15","7",,,,,,,,,,,,,,,,,,,,,,,,,,,,"2009-06-10"
"72208013880","2020-01-13T05:54:00","FM-16","7",,"SE","0.25","mi","TEMP, PRECIP, SNOW",,,"MMTS, SRG, SNOWBOARD",,,"WFO CHS",,,,,,,,,,,,,,,,,,,,,,,,,,,"30.34","68","68",,"BR:1 ||",,,"100",,"OVC:08 3","30.29","3.00","68","220",,"6",,,,,,,,,,,,,,,,,,,,,,,,,,,,,,,,,,,,,"MET08601/13/20 05:54:02 SPECI KCHS 131054Z 22005KT 3SM BR OVC003 20/20 A3034 RMK AO2 $ (KLJ)","FM-16","7",,,,,,,,,,,,,,,,,,,,,,,,,,,,"2009-06-10"
"72208013880","2020-01-13T05:56:00","FM-15","7",,"SE","0.25","mi","TEMP, PRECIP, SNOW",,,"MMTS, SRG, SNOWBOARD",,,"WFO CHS",,,,,,,,,,,,,,,,,,,,,,,,,,,"30.34","68","68","0.00","BR:1 ||",,,"100","30.34","OVC:08 3","30.29","3.00","68","220",,"7",,,,,,,,,,,,,,,,,,,,,,,,,,,,,,,,,,,,,"MET10301/13/20 05:56:02 METAR KCHS 131056Z 22006KT 3SM BR OVC003 20/20 A3034 RMK AO2 SLP273 T02000200 $ (KLJ)","FM-15","7",,,,,,,,,,,,,,,,,,,,,,,,,,,,"2009-06-10"
"72208013880","2020-01-13T06:48:00","FM-16","7",,"SE","0.25","mi","TEMP, PRECIP, SNOW",,,"MMTS, SRG, SNOWBOARD",,,"WFO CHS",,,,,,,,,,,,,,,,,,,,,,,,,,,"30.36","68","68",,"BR:1 ||",,,"100",,"OVC:08 4","30.31","4.00","68","230",,"5",,,,,,,,,,,,,,,,,,,,,,,,,,,,,,,,,,,,,"MET09601/13/20 06:48:02 SPECI KCHS 131148Z 23004KT 4SM BR OVC004 20/20 A3036 RMK AO2 T02000200 $ (KLJ)","FM-16","7",,,,,,,,,,,,,,,,,,,,,,,,,,,,"2009-06-10"
"72208013880","2020-01-13T06:56:00","FM-15","7",,"SE","0.25","mi","TEMP, PRECIP, SNOW",,,"MMTS, SRG, SNOWBOARD",,,"WFO CHS",,,,,,,,,,,,,,,,,,,,,,,,,,,"30.36","68","69","0.00","BR:1 ||","-0.02","3","96","30.36","OVC:08 4","30.31","4.00","68","240",,"3",,,,,,,,,,,,,,,,,,,,,,,,,,,,,,,,,,,,,"MET12701/13/20 06:56:02 METAR KCHS 131156Z 24003KT 4SM BR OVC004 21/20 A3036 RMK AO2 SLP280 70016 T02060200 10206 20200 53008 $ (KLJ)","FM-15","7",,,,,,,,,,,,,,,,,,,,,,,,,,,,"2009-06-10"
"72208013880","2020-01-13T07:00:00","FM-12","4",,"SE","0.25","mi","TEMP, PRECIP, SNOW",,,"MMTS, SRG, SNOWBOARD",,,"WFO CHS",,,,,,,,,,,,,,,,,,,,,,,,,,,"30.36","68","69",,,"-0.02","3","96","30.36","5","30.31","3.73","68","240",,"3",,,,,,,,,,,,,,,,,,,,,,,,,,,,,,,,,,,,,"SYN09272208 31256 82403 10206 20200 30265 40280 53008 710// 91156 333 10250 20194 70041 555 91312=","FM-12","4",,,,,,,,,,,,,,,,,,,,,,,,,,,,"2009-06-10"
"72208013880","2020-01-13T07:29:00","FM-16","7",,"SE","0.25","mi","TEMP, PRECIP, SNOW",,,"MMTS, SRG, SNOWBOARD",,,"WFO CHS",,,,,,,,,,,,,,,,,,,,,,,,,,,"30.37","68","69",,"BR:1 ||",,,"96",,"OVC:08 3","30.32","1.00","68","240",,"5",,,,,,,,,,,,,,,,,,,,,,,,,,,,,,,,,,,,,"MET11801/13/20 07:29:02 SPECI KCHS 131229Z 24004KT 1SM R15/P6000FT BR OVC003 21/20 A3037 RMK AO2 SFC VIS 4 T02060200 $ (JMB)","FM-16","7",,,,,,,,,,,,,,,,,,,,,,,,,,,,"2009-06-10"
"72208013880","2020-01-13T07:56:00","FM-15","7",,"SE","0.25","mi","TEMP, PRECIP, SNOW",,,"MMTS, SRG, SNOWBOARD",,,"WFO CHS",,,,,,,,,,,,,,,,,,,,,,,,,,,"30.38","68","68","T","-RA:02 BR:1 |RA |RA",,,"100","30.37","OVC:08 3","30.33","1.00","68","200",,"6",,,,,,,,,,,,,,,,,,,,,,,,,,,,,,,,,,,,,"MET13101/13/20 07:56:02 METAR KCHS 131256Z 20005KT 1SM R15/P6000FT -RA BR OVC003 20/20 A3038 RMK AO2 RAB53 SLP285 P0000 T02000200 $ (JMB)","FM-15","7",,,,,,,,,,,,,,,,,,,,,,,,,,,,"2009-06-10"
"72208013880","2020-01-13T08:28:00","FM-16","7",,"SE","0.25","mi","TEMP, PRECIP, SNOW",,,"MMTS, SRG, SNOWBOARD",,,"WFO CHS",,,,,,,,,,,,,,,,,,,,,,,,,,,"30.38","68","68","0.04","+RA:02 BR:1 |RA |RA",,,"100",,"BKN:07 3 BKN:07 8 OVC:08 15","30.33","0.75","68","210",,"7",,,,,,,,,,,,,,,,,,,,,,,,,,,,,,,,,,,,,"MET14901/13/20 08:28:02 SPECI KCHS 131328Z 21006KT 3/4SM R15/4500VP6000FT +RA BR BKN003 BKN008 OVC015 20/20 A3038 RMK AO2 TWR VIS 1 P0004 T02000200 $ (JMB)","FM-16","7",,,,,,,,,,,,,,,,,,,,,,,,,,,,"2009-06-10"
"72208013880","2020-01-13T08:43:00","FM-16","7",,"SE","0.25","mi","TEMP, PRECIP, SNOW",,,"MMTS, SRG, SNOWBOARD",,,"WFO CHS",,,,,,,,,,,,,,,,,,,,,,,,,,,"30.39","68","68","0.08","-RA:02 BR:1 |RA |RA",,,"100",,"SCT:04 3 OVC:08 12","30.34","1.00","68","210",,"7",,,,,,,,,,,,,,,,,,,,,,,,,,,,,,,,,,,,,"MET14501/13/20 08:43:02 SPECI KCHS 131343Z 21006KT 1SM R15/P6000FT -RA BR SCT003 OVC012 20/20 A3039 RMK AO2 SFC VIS 3 SCT V BKN P0008 T02000200 $ (JMB)","FM-16","7",,,,,,,,,,,,,,,,,,,,,,,,,,,,"2009-06-10"
"72208013880","2020-01-13T08:56:00","FM-15","7",,"SE","0.25","mi","TEMP, PRECIP, SNOW",,,"MMTS, SRG, SNOWBOARD",,,"WFO CHS",,,,,,,,,,,,,,,,,,,,,,,,,,,"30.39","68","68","0.08","-RA:02 BR:1 |RA |RA",,,"100","30.39","FEW:02 3 BKN:07 10 OVC:08 15","30.34","1.00","68","210",,"7",,,,,,,,,,,,,,,,,,,,,,,,,,,,,,,,,,,,,"MET14901/13/20 08:56:02 METAR KCHS 131356Z 21006KT 1SM R15/P6000FT -RA BR FEW003 BKN010 OVC015 20/20 A3039 RMK AO2 SFC VIS 3 SLP291 P0008 T02000200 $ (JMB)","FM-15","7",,,,,,,,,,,,,,,,,,,,,,,,,,,,"2009-06-10"
"72208013880","2020-01-13T09:45:00","FM-16","7",,"SE","0.25","mi","TEMP, PRECIP, SNOW",,,"MMTS, SRG, SNOWBOARD",,,"WFO CHS",,,,,,,,,,,,,,,,,,,,,,,,,,,"30.40","69","69","0.01","-RA:02 BR:1 |RA |RA",,,"100",,"BKN:07 5 OVC:08 10","30.35","1.00","69","210",,"6",,,,,,,,,,,,,,,,,,,,,,,,,,,,,,,,,,,,,"MET13001/13/20 09:45:02 SPECI KCHS 131445Z 21005KT 1SM R15/5500VP6000FT -RA BR BKN005 OVC010 21/21 A3040 RMK AO2 P0001 T02060206 $ (JMB)","FM-16","7",,,,,,,,,,,,,,,,,,,,,,,,,,,,"2009-06-10"
"72208013880","2020-01-13T09:56:00","FM-15","7",,"SE","0.25","mi","TEMP, PRECIP, SNOW",,,"MMTS, SRG, SNOWBOARD",,,"WFO CHS",,,,,,,,,,,,,,,,,,,,,,,,,,,"30.41","69","69","0.01","BR:1 ||","-0.05","1","100","30.40","BKN:07 5 OVC:08 10","30.36","1.00","69","210",,"7",,,,,,,,,,,,,,,,,,,,,,,,,,,,,,,,,,,,,"MET14601/13/20 09:56:02 METAR KCHS 131456Z 21006KT 1SM R15/P6000FT BR BKN005 OVC010 21/21 A3041 RMK AO2 RAE47 SLP295 P0001 60009 T02060206 51016 $ (JMB)","FM-15","7",,,,,,,,,,,,,,,,,,,,,,,,,,,,"2009-06-10"
"72208013880","2020-01-13T10:00:00","FM-12","4",,"SE","0.25","mi","TEMP, PRECIP, SNOW",,,"MMTS, SRG, SNOWBOARD",,,"WFO CHS",,,,,,,,,,,,,,,,,,,,,,,,,,,"30.41","69","69",,,"-0.05","1","100","30.40","5","30.36","0.99","69","210",,"7",,,,,,,,,,,,,,,,,,,,,,,,,,,,,,,,,,,,,"SYN07672208 11216 82106 10206 20206 30282 40295 51016 60027 710// 91456 555 91315=","FM-12","4",,,,,,,,,,,,,,,,,,,,,,,,,,,,"2009-06-10"
"72208013880","2020-01-13T10:02:00","FM-16","7",,"SE","0.25","mi","TEMP, PRECIP, SNOW",,,"MMTS, SRG, SNOWBOARD",,,"WFO CHS",,,,,,,,,,,,,,,,,,,,,,,,,,,"30.41","69","69",,"BR:1 ||",,,"100",,"OVC:08 3","30.36","1.00","69","210",,"6",,,,,,,,,,,,,,,,,,,,,,,,,,,,,,,,,,,,,"MET11801/13/20 10:02:02 SPECI KCHS 131502Z 21005KT 1SM R15/P6000FT BR OVC003 21/21 A3041 RMK AO2 SFC VIS 2 T02060206 $ (JMB)","FM-16","7",,,,,,,,,,,,,,,,,,,,,,,,,,,,"2009-06-10"
"72208013880","2020-01-13T10:50:00","FM-16","7",,"SE","0.25","mi","TEMP, PRECIP, SNOW",,,"MMTS, SRG, SNOWBOARD",,,"WFO CHS",,,,,,,,,,,,,,,,,,,,,,,,,,,"30.41","71","71","0.01","BR:1 ||",,,"100",,"OVC:08 4","30.36","3.00","71","220",,"8",,,,,,,,,,,,,,,,,,,,,,,,,,,,,,,,,,,,,"MET12301/13/20 10:50:02 SPECI KCHS 131550Z 22007KT 3SM BR OVC004 22/22 A3041 RMK AO2 RAB09E40 CIG 003V007 P0001 T02170217 $ (JMB)","FM-16","7",,,,,,,,,,,,,,,,,,,,,,,,,,,,"2009-06-10"
"72208013880","2020-01-13T10:54:00","FM-16","6",,"SE","0.25","mi","TEMP, PRECIP, SNOW",,,"MMTS, SRG, SNOWBOARD",,,"WFO CHS",,,,,,,,,,,,,,,,,,,,,,,,,,,"30.41","72","72",,"BR:1 ||",,,"100",,"OVC:08 6","30.36","3.00","72","210",,"8",,,,,,,,,,,,,,,,,,,,,,,,,,,,,,,,,,,,,"MET11801/13/20 10:54:02 SPECI KCHS 131554Z 21007KT 3SM BR OVC006 22/22 A3041 RMK AO2 RAB09E40 CIG 003V008 P0001 $ FIBI (JMB)","FM-16","6",,,,,,,,,,,,,,,,,,,,,,,,,,,,"2009-06-10"
"72208013880","2020-01-13T10:56:00","FM-15","7",,"SE","0.25","mi","TEMP, PRECIP, SNOW",,,"MMTS, SRG, SNOWBOARD",,,"WFO CHS",,,,,,,,,,,,,,,,,,,,,,,,,,,"30.41","71","71","0.01","BR:1 ||",,,"100","30.40","BKN:07 6 OVC:08 15","30.36","3.00","71","220",,"8",,,,,,,,,,,,,,,,,,,,,,,,,,,,,,,,,,,,,"MET12501/13/20 10:56:02 METAR KCHS 131556Z 22007KT 3SM BR BKN006 OVC015 22/22 A3041 RMK AO2 RAB09E40 SLP296 P0001 T02170217 $ (JMB)","FM-15","7",,,,,,,,,,,,,,,,,,,,,,,,,,,,"2009-06-10"
"72208013880","2020-01-13T11:15:00","FM-16","7",,"SE","0.25","mi","TEMP, PRECIP, SNOW",,,"MMTS, SRG, SNOWBOARD",,,"WFO CHS",,,,,,,,,,,,,,,,,,,,,,,,,,,"30.40","71","71","T","BR:1 ||",,,"100",,"BKN:07 8 OVC:08 15","30.35","5.00","71","220",,"7",,,,,,,,,,,,,,,,,,,,,,,,,,,,,,,,,,,,,"MET11801/13/20 11:15:02 SPECI KCHS 131615Z 22006KT 5SM BR BKN008 OVC015 22/22 A3040 RMK AO2 RAB00E09 P0000 T02170217 $ (JMB)","FM-16","7",,,,,,,,,,,,,,,,,,,,,,,,,,,,"2009-06-10"
"72208013880","2020-01-13T11:56:00","FM-15","7",,"SE","0.25","mi","TEMP, PRECIP, SNOW",,,"MMTS, SRG, SNOWBOARD",,,"WFO CHS",,,,,,,,,,,,,,,,,,,,,,,,,,,"30.39","71","73","T","BR:1 ||",,,"94","30.38","BKN:07 8 OVC:08 15","30.34","5.00","72","210",,"11",,,,,,,,,,,,,,,,,,,,,,,,,,,,,,,,,,,,,"MET12501/13/20 11:56:02 METAR KCHS 131656Z 21010KT 5SM BR BKN008 OVC015 23/22 A3039 RMK AO2 RAB00E09 SLP289 P0000 T02280217 $ (JMB)","FM-15","7",,,,,,,,,,,,,,,,,,,,,,,,,,,,"2009-06-10"
"72208013880","2020-01-13T12:10:00","FM-16","7",,"SE","0.25","mi","TEMP, PRECIP, SNOW",,,"MMTS, SRG, SNOWBOARD",,,"WFO CHS",,,,,,,,,,,,,,,,,,,,,,,,,,,"30.38","71","73",,"BR:1 ||",,,"94",,"BKN:07 10 OVC:08 15","30.33","6.00","72","210",,"8",,,,,,,,,,,,,,,,,,,,,,,,,,,,,,,,,,,,,"MET10301/13/20 12:10:02 SPECI KCHS 131710Z 21007KT 6SM BR BKN010 OVC015 23/22 A3038 RMK AO2 T02280217 $ (JMB)","FM-16","7",,,,,,,,,,,,,,,,,,,,,,,,,,,,"2009-06-10"
"72208013880","2020-01-13T12:56:00","FM-15","7",,"SE","0.25","mi","TEMP, PRECIP, SNOW",,,"MMTS, SRG, SNOWBOARD",,,"WFO CHS",,,,,,,,,,,,,,,,,,,,,,,,,,,"30.36","70","74","0.00",,"+0.05","8","88","30.35","BKN:07 12","30.31","10.00","71","210",,"10",,,,,,,,,,,,,,,,,,,,,,,,,,,,,,,,,,,,,"MET12501/13/20 12:56:02 METAR KCHS 131756Z 21009KT 10SM BKN012 23/21 A3036 RMK AO2 SLP279 60010 T02330211 10233 20200 58016 $ (JMB)","FM-15","7",,,,,,,,,,,,,,,,,,,,,,,,,,,,"2009-06-10"
"72208013880","2020-01-13T13:00:00","FM-12","4",,"SE","0.25","mi","TEMP, PRECIP, SNOW",,,"MMTS, SRG, SNOWBOARD",,,"WFO CHS",,,,,,,,,,,,,,,,,,,,,,,,,,,"30.36","70","74",,,"+0.05","8","88","30.35","15","30.31","9.94","71","210",,"10",,,,,,,,,,,,,,,,,,,,,,,,,,,,,,,,,,,,,"SYN08672208 12466 62109 10233 20211 30265 40279 58016 60031 91756 333 10233 20200 555 91318=","FM-12","4",,,,,,,,,,,,,,,,,,,,,,,,,,,,"2009-06-10"
"72208013880","2020-01-13T13:26:00","FM-16","7",,"SE","0.25","mi","TEMP, PRECIP, SNOW",,,"MMTS, SRG, SNOWBOARD",,,"WFO CHS",,,,,,,,,,,,,,,,,,,,,,,,,,,"30.35","70","75",,,,,"84",,"BKN:07 15 BKN:07 20","30.29","10.00","72","200",,"9",,,,,,,,,,,,,,,,,,,,,,,,,,,,,,,,,,,,,"MET10101/13/20 13:26:02 SPECI KCHS 131826Z 20008KT 10SM BKN015 BKN020 24/21 A3035 RMK AO2 T02390211 $ (JMB)","FM-16","7",,,,,,,,,,,,,,,,,,,,,,,,,,,,"2009-06-10"
"72208013880","2020-01-13T13:44:00","FM-16","7",,"SE","0.25","mi","TEMP, PRECIP, SNOW",,,"MMTS, SRG, SNOWBOARD",,,"WFO CHS",,,,,,,,,,,,,,,,,,,,,,,,,,,"30.34","70","75",,,,,"84",,"BKN:07 17 BKN:07 25 BKN:07 40","30.29","10.00","72","210",,"13",,,,,,,,,,,,,,,,,,,,,,,,,,,,,,,,,,,,,"MET10801/13/20 13:44:02 SPECI KCHS 131844Z 21011KT 10SM BKN017 BKN025 BKN040 24/21 A3034 RMK AO2 T02390211 $ (JMB)","FM-16","7",,,,,,,,,,,,,,,,,,,,,,,,,,,,"2009-06-10"
"72208013880","2020-01-13T13:56:00","FM-15","6",,"SE","0.25","mi","TEMP, PRECIP, SNOW",,,"MMTS, SRG, SNOWBOARD",,,"WFO CHS",,,,,,,,,,,,,,,,,,,,,,,,,,,"30.34","70","76","0.00",,,,"82","30.33","BKN:07 17 BKN:07 25 BKN:07 40","30.29","10.00","72","220",,"14",,,,,,,,,,,,,,,,,,,,,,,,,,,,,,,,,,,,,"MET11501/13/20 13:56:02 METAR KCHS 131856Z 22012KT 10SM BKN017 BKN025 BKN040 24/21 A3034 RMK AO2 SLP272 T02440211 $ (JMB)","FM-15","6",,,,,,,,,,,,,,,,,,,,,,,,,,,,"2009-06-10"
"72208013880","2020-01-13T14:21:00","FM-16","6",,"SE","0.25","mi","TEMP, PRECIP, SNOW",,,"MMTS, SRG, SNOWBOARD",,,"WFO CHS",,,,,,,,,,,,,,,,,,,,,,,,,,,"30.33","69","76",,,,,"79",,"SCT:04 25 BKN:07 40 BKN:07 150","30.28","10.00","71","210",,"15",,,,,,,,,,,,,,,,,,,,,,,,,,,,,,,,,,,,,"MET10801/13/20 14:21:02 SPECI KCHS 131921Z 21013KT 10SM SCT025 BKN040 BKN150 24/21 A3033 RMK AO2 T02440206 $ (JMB)","FM-16","6",,,,,,,,,,,,,,,,,,,,,,,,,,,,"2009-06-10"
"72208013880","2020-01-13T14:56:00","FM-15","7",,"SE","0.25","mi","TEMP, PRECIP, SNOW",,,"MMTS, SRG, SNOWBOARD",,,"WFO CHS",,,,,,,,,,,,,,,,,,,,,,,,,,,"30.32","69","76","0.00",,,,"79","30.32","SCT:04 20 SCT:04 35 BKN:07 150","30.27","10.00","71","210",,"9",,,,,,,,,,,,,,,,,,,,,,,,,,,,,,,,,,,,,"MET11501/13/20 14:56:02 METAR KCHS 131956Z 21008KT 10SM SCT020 SCT035 BKN150 24/21 A3032 RMK AO2 SLP266 T02440206 $ (JMB)","FM-15","7",,,,,,,,,,,,,,,,,,,,,,,,,,,,"2009-06-10"
"72208013880","2020-01-13T15:56:00","FM-15","6",,"SE","0.25","mi","TEMP, PRECIP, SNOW",,,"MMTS, SRG, SNOWBOARD",,,"WFO CHS",,,,,,,,,,,,,,,,,,,,,,,,,,,"30.33","68","76","0.00",,"+0.02","5","77","30.33","SCT:04 20 SCT:04 30 BKN:07 35","30.28","10.00","71","210",,"14",,,,,,,,,,,,,,,,,,,,,,,,,,,,,,,,,,,,,"MET12101/13/20 15:56:02 METAR KCHS 132056Z 21012KT 10SM SCT020 SCT030 BKN035 24/20 A3033 RMK AO2 SLP271 T02440200 55008 $ (BBE)","FM-15","6",,,,,,,,,,,,,,,,,,,,,,,,,,,,"2009-06-10"
"72208013880","2020-01-13T16:56:00","FM-15","6",,"SE","0.25","mi","TEMP, PRECIP, SNOW",,,"MMTS, SRG, SNOWBOARD",,,"WFO CHS",,,,,,,,,,,,,,,,,,,,,,,,,,,"30.34","68","74","0.00",,,,"82","30.34","FEW:02 20 SCT:04 30 BKN:07 150","30.29","10.00","70","180",,"7",,,,,,,,,,,,,,,,,,,,,,,,,,,,,,,,,,,,,"MET11501/13/20 16:56:02 METAR KCHS 132156Z 18006KT 10SM FEW020 SCT030 BKN150 23/20 A3034 RMK AO2 SLP273 T02330200 $ (BBE)","FM-15","6",,,,,,,,,,,,,,,,,,,,,,,,,,,,"2009-06-10"
"72208013880","2020-01-13T17:56:00","FM-15","6",,"SE","0.25","mi","TEMP, PRECIP, SNOW",,,"MMTS, SRG, SNOWBOARD",,,"WFO CHS",,,,,,,,,,,,,,,,,,,,,,,,,,,"30.35","68","72","0.00",,,,"87","30.34","FEW:02 20 SCT:04 100 BKN:07 150","30.29","10.00","69","200",,"9",,,,,,,,,,,,,,,,,,,,,,,,,,,,,,,,,,,,,"MET11501/13/20 17:56:02 METAR KCHS 132256Z 20008KT 10SM FEW020 SCT100 BKN150 22/20 A3035 RMK AO2 SLP275 T02220200 $ (BBE)","FM-15","6",,,,,,,,,,,,,,,,,,,,,,,,,,,,"2009-06-10"
"72208013880","2020-01-13T18:56:00","FM-15","7",,"SE","0.25","mi","TEMP, PRECIP, SNOW",,,"MMTS, SRG, SNOWBOARD",,,"WFO CHS",,,,,,,,,,,,,,,,,,,,,,,,,,,"30.37","68","70","0.00",,"-0.03","3","93","30.36","FEW:02 100 SCT:04 150 BKN:07 200","30.32","10.00","69","180",,"7",,,,,,,,,,,,,,,,,,,,,,,,,,,,,,,,,,,,,"MET13301/13/20 18:56:02 METAR KCHS 132356Z 18006KT 10SM FEW100 SCT150 BKN200 21/20 A3037 RMK AO2 SLP282 T02110200 10256 20206 53011 $ (BBE)","FM-15","7",,,,,,,,,,,,,,,,,,,,,,,,,,,,"2009-06-10"
"72208013880","2020-01-13T19:00:00","FM-12","4",,"SE","0.25","mi","TEMP, PRECIP, SNOW",,,"MMTS, SRG, SNOWBOARD",,,"WFO CHS",,,,,,,,,,,,,,,,,,,,,,,,,,,"30.37","68","70",,,"-0.03","3","93","30.36",,"30.32","9.94","69","180",,"7",,,,,,,,,,,,,,,,,,,,,,,,,,,,,,,,,,,,,"SYN08072208 32966 61806 10211 20200 30268 40282 53011 92356 333 10256 20200 555 91400=","FM-12","4",,,,,,,,,,,,,,,,,,,,,,,,,,,,"2009-06-10"
"72208013880","2020-01-13T19:56:00","FM-15","7",,"SE","0.25","mi","TEMP, PRECIP, SNOW",,,"MMTS, SRG, SNOWBOARD",,,"WFO CHS",,,,,,,,,,,,,,,,,,,,,,,,,,,"30.36","67","67","0.00",,,,"100","30.36","FEW:02 15 SCT:04 150 BKN:07 200","30.31","10.00","67","170",,"3",,,,,,,,,,,,,,,,,,,,,,,,,,,,,,,,,,,,,"MET10901/13/20 19:56:01 METAR KCHS 140056Z 17003KT 10SM FEW015 SCT150 BKN200 19/19 A3036 RMK AO2 SLP280 T01940194 $","FM-15","7",,,,,,,,,,,,,,,,,,,,,,,,,,,,"2009-06-10"
"72208013880","2020-01-13T20:20:00","FM-16","7",,"SE","0.25","mi","TEMP, PRECIP, SNOW",,,"MMTS, SRG, SNOWBOARD",,,"WFO CHS",,,,,,,,,,,,,,,,,,,,,,,,,,,"30.36","67","67",,,,,"100",,"FEW:02 5 BKN:07 150 BKN:07 200","30.31","8.00","67","190",,"5",,,,,,,,,,,,,,,,,,,,,,,,,,,,,,,,,,,,,"MET10101/13/20 20:20:01 SPECI KCHS 140120Z 19004KT 8SM FEW005 BKN150 BKN200 19/19 A3036 RMK AO2 T01940194 $","FM-16","7",,,,,,,,,,,,,,,,,,,,,,,,,,,,"2009-06-10"
"72208013880","2020-01-13T20:54:00","FM-16","6",,"SE","0.25","mi","TEMP, PRECIP, SNOW",,,"MMTS, SRG, SNOWBOARD",,,"WFO CHS",,,,,,,,,,,,,,,,,,,,,,,,,,,"30.36","66","66",,"BR:1 ||",,,"100",,"BKN:07 4 BKN:07 100","30.31","4.00","66","180",,"5",,,,,,,,,,,,,,,,,,,,,,,,,,,,,,,,,,,,,"MET09801/13/20 20:54:03 SPECI KCHS 140154Z 18004KT 4SM BR BKN004 BKN100 19/19 A3036 RMK AO2 $ FIBI (BBE)","FM-16","6",,,,,,,,,,,,,,,,,,,,,,,,,,,,"2009-06-10"
"72208013880","2020-01-13T20:56:00","FM-15","7",,"SE","0.25","mi","TEMP, PRECIP, SNOW",,,"MMTS, SRG, SNOWBOARD",,,"WFO CHS",,,,,,,,,,,,,,,,,,,,,,,,,,,"30.36","67","67","0.00","BR:1 ||",,,"100","30.36","BKN:07 4 BKN:07 30","30.31","4.00","67","180",,"3",,,,,,,,,,,,,,,,,,,,,,,,,,,,,,,,,,,,,"MET10401/13/20 20:56:01 METAR KCHS 140156Z 18003KT 4SM BR BKN004 BKN030 19/19 A3036 RMK AO2 SLP280 T01940194 $","FM-15","7",,,,,,,,,,,,,,,,,,,,,,,,,,,,"2009-06-10"
"72208013880","2020-01-13T21:23:00","FM-16","7",,"SE","0.25","mi","TEMP, PRECIP, SNOW",,,"MMTS, SRG, SNOWBOARD",,,"WFO CHS",,,,,,,,,,,,,,,,,,,,,,,,,,,"30.36","67","67",,"BR:1 ||",,,"100",,"BKN:07 3","30.31","3.00","67","000",,"0",,,,,,,,,,,,,,,,,,,,,,,,,,,,,,,,,,,,,"MET10701/13/20 21:23:01 SPECI KCHS 140223Z 00000KT 3SM R15/4500VP6000FT BR BKN003 19/19 A3036 RMK AO2 T01940194 $","FM-16","7",,,,,,,,,,,,,,,,,,,,,,,,,,,,"2009-06-10"
"72208013880","2020-01-13T21:47:00","FM-16","7",,"SE","0.25","mi","TEMP, PRECIP, SNOW",,,"MMTS, SRG, SNOWBOARD",,,"WFO CHS",,,,,,,,,,,,,,,,,,,,,,,,,,,"30.36","66","66",,"BR:1 ||",,,"100",,"OVC:08 3","30.31","2.00","66","190",,"5",,,,,,,,,,,,,,,,,,,,,,,,,,,,,,,,,,,,,"MET09001/13/20 21:47:01 SPECI KCHS 140247Z 19004KT 2SM BR OVC003 19/19 A3036 RMK AO2 T01890189 $","FM-16","7",,,,,,,,,,,,,,,,,,,,,,,,,,,,"2009-06-10"
"72208013880","2020-01-13T21:56:00","FM-15","7",,"SE","0.25","mi","TEMP, PRECIP, SNOW",,,"MMTS, SRG, SNOWBOARD",,,"WFO CHS",,,,,,,,,,,,,,,,,,,,,,,,,,,"30.36","66","66","0.00","BR:1 ||","+0.01","8","100","30.35","OVC:08 3","30.31","2.00","66","160",,"3",,,,,,,,,,,,,,,,,,,,,,,,,,,,,,,,,,,,,"MET12001/13/20 21:56:01 METAR KCHS 140256Z 16003KT 2SM R15/3500VP6000FT BR OVC003 19/19 A3036 RMK AO2 SLP278 T01890189 58003 $","FM-15","7",,,,,,,,,,,,,,,,,,,,,,,,,,,,"2009-06-10"
"72208013880","2020-01-13T22:00:00","FM-12","4",,"SE","0.25","mi","TEMP, PRECIP, SNOW",,,"MMTS, SRG, SNOWBOARD",,,"WFO CHS",,,,,,,,,,,,,,,,,,,,,,,,,,,"30.36","66","66",,,"+0.01","8","100","30.35","2","30.31","1.99","66","160",,"3",,,,,,,,,,,,,,,,,,,,,,,,,,,,,,,,,,,,,"SYN07072208 31132 81603 10189 20189 30265 40278 58003 710// 90256 555 91403=","FM-12","4",,,,,,,,,,,,,,,,,,,,,,,,,,,,"2009-06-10"
"72208013880","2020-01-13T22:06:00","FM-16","7",,"SE","0.25","mi","TEMP, PRECIP, SNOW",,,"MMTS, SRG, SNOWBOARD",,,"WFO CHS",,,,,,,,,,,,,,,,,,,,,,,,,,,"30.36","66","66",,"FG:2 |FG |",,,"100",,"OVC:08 2","30.31","0.50","66","160",,"3",,,,,,,,,,,,,,,,,,,,,,,,,,,,,,,,,,,,,"MET10901/13/20 22:06:01 SPECI KCHS 140306Z 16003KT 1/2SM R15/5000VP6000FT FG OVC002 19/19 A3036 RMK AO2 T01890189 $","FM-16","7",,,,,,,,,,,,,,,,,,,,,,,,,,,,"2009-06-10"
"72208013880","2020-01-13T22:29:00","FM-16","7",,"SE","0.25","mi","TEMP, PRECIP, SNOW",,,"MMTS, SRG, SNOWBOARD",,,"WFO CHS",,,,,,,,,,,,,,,,,,,,,,,,,,,"30.36","67","67",,"FG:2 |FG |",,,"100",,"VV:09 2","30.31","0.25","67","000",,"0",,,,,,,,,,,,,,,,,,,,,,,,,,,,,,,,,,,,,"MET11901/13/20 22:29:01 SPECI KCHS 140329Z 00000KT 1/4SM R15/1600V2200FT FG VV002 19/19 A3036 RMK AO2 TWR VIS 1/2 T01940194 $","FM-16","7",,,,,,,,,,,,,,,,,,,,,,,,,,,,"2009-06-10"
"72208013880","2020-01-13T22:56:00","FM-15","7",,"SE","0.25","mi","TEMP, PRECIP, SNOW",,,"MMTS, SRG, SNOWBOARD",,,"WFO CHS",,,,,,,,,,,,,,,,,,,,,,,,,,,"30.36","67","67","0.00","FG:2 |FG |",,,"100","30.36","VV:09 2","30.31","0.25","67","130",,"3",,,,,,,,,,,,,,,,,,,,,,,,,,,,,,,,,,,,,"MET12601/13/20 22:56:01 METAR KCHS 140356Z 13003KT 1/4SM R15/1400V1600FT FG VV002 19/19 A3036 RMK AO2 TWR VIS 1/2 SLP280 T01940194 $","FM-15","7",,,,,,,,,,,,,,,,,,,,,,,,,,,,"2009-06-10"
"72208013880","2020-01-13T23:42:00","FM-16","7",,"SE","0.25","mi","TEMP, PRECIP, SNOW",,,"MMTS, SRG, SNOWBOARD",,,"WFO CHS",,,,,,,,,,,,,,,,,,,,,,,,,,,"30.35","66","66","T","-RA:02 FG:2 |FG RA |RA",,,"100",,"VV:09 2","30.29","0.50","66","140",,"5",,,,,,,,,,,,,,,,,,,,,,,,,,,,,,,,,,,,,"MET12301/13/20 23:42:01 SPECI KCHS 140442Z 14004KT 1/2SM R15/2200V2600FT -RA FG VV002 19/19 A3035 RMK AO2 RAB42 P0000 T01890189 $","FM-16","7",,,,,,,,,,,,,,,,,,,,,,,,,,,,"2009-06-10"
"72208013880","2020-01-13T23:56:00","FM-15","7",,"SE","0.25","mi","TEMP, PRECIP, SNOW",,,"MMTS, SRG, SNOWBOARD",,,"WFO CHS",,,,,,,,,,,,,,,,,,,,,,,,,,,"30.34","66","66","T","-RA:02 BR:1 |s RA s |RA s",,,"100","30.33","VV:09 2","30.29","0.50","66","140",,"5",,,,,,,,,,,,,,,,,,,,,,,,,,,,,,,,,,,,,"MET15201/13/20 23:56:01 METAR KCHS 140456Z 14004KT 1/2SM R15/2800V3500FT -RA BR VV002 19/19 A3034 RMK AO2 SFC VIS 3/4 RAB42 SLP272 P0000 T01890189 402560189 $","FM-15","7",,,,,,,,,,,,,,,,,,,,,,,,,,,,"2009-06-10"
"72208013880","2020-01-13T23:59:00","SOD  ","6",,"SE","0.25","mi","TEMP, PRECIP, SNOW",,,"MMTS, SRG, SNOWBOARD",,,"WFO CHS",,,,"68","72","95","30.35","30.29","69","7.2","7","24.1","0","78","66","190","20","0.10","0","0.0","210","16","RA FG BR",,,,,,,,,,,,,,,,,,,,,,,,,,,,,,,,,,,,,,,,,,,,,,,,,,,,,,,,"SOD75424 HR PRECIPITATION (IN): 0.10 SNOW DEPTH (IN):0     24 HR SNOWFALL (IN):0.0  WEATHER(CODE):12  24 HR MAX TEMP (F): 7824 HR MIN TEMP (F): 66AVERAGE STATION PRESSURE:30.295 MINIMUM SEA LEVEL PRESSURE:30.31 TIME OF OCCURRENCE:0245 PEAK WIND SPEED (MPH): 20 PEAK WIND DIR (DEG):190 PEAK WIND TIME (LST):      FASTEST 2MIN SPEED (MPH): 16FASTEST 2MIN DIR (DEG):210 FASTEST 2MIN TIME (LST):     AVERAGE WIND SPEED (MPH): 7.2 24 HR AVG TEMP (F): 72DEPART FROM NORMAL: 24  HEATING DEGREE DAYS:  0 COOLING DEGREE DAYS:  7 LATEST DAY MAX TEMP (0700-1900 LST):78  LATEST NIGHT MIN TEMP(1900-0800 LST):67 HOURLY INCREMENTAL PRECIPITATION VALUES (IN):.00 0.00 0.00 0.00 0.00 0.00 0.00 T    0.08 0.01 0.01 T    0.00 0.00 0.00 0.00 0.00 0.00 0.00 0.00 0.00 0.00 0.00 T","SOD  ","6",,,,,,,,,,,,,,,,,,,,,,,,,"0724","1735",,"2009-06-10"
"72208013880","2020-01-14T00:06:00","FM-16","7",,"SE","0.25","mi","TEMP, PRECIP, SNOW",,,"MMTS, SRG, SNOWBOARD",,,"WFO CHS",,,,,,,,,,,,,,,,,,,,,,,,,,,"30.33","66","66","T","-RA:02 BR:1 |s RA s |RA s",,,"100",,"VV:09 4","30.28","0.50","66","150",,"6",,,,,,,,,,,,,,,,,,,,,,,,,,,,,,,,,,,,,"MET13301/14/20 00:06:02 SPECI KCHS 140506Z 15005KT 1/2SM R15/3500V5000FT -RA BR VV004 19/19 A3033 RMK AO2 SFC VIS 1 P0000 T01890189 $ (KLJ)","FM-16","7",,,,,,,,,,,,,,,,,,,,,,,,,,,,"2009-06-10"
"72208013880","2020-01-14T00:29:00","FM-16","7",,"SE","0.25","mi","TEMP, PRECIP, SNOW",,,"MMTS, SRG, SNOWBOARD",,,"WFO CHS",,,,,,,,,,,,,,,,,,,,,,,,,,,"30.32","66","66","T","BR:1 |s |",,,"100",,"BKN:07 5 BKN:07 20","30.27","0.50","66","000",,"0",,,,,,,,,,,,,,,,,,,,,,,,,,,,,,,,,,,,,"MET13901/14/20 00:29:02 SPECI KCHS 140529Z 00000KT 1/2SM R15/P6000FT BR BKN005 BKN020 19/19 A3032 RMK AO2 SFC VIS 3 RAE21 P0000 T01890189 $ (KLJ)","FM-16","7",,,,,,,,,,,,,,,,,,,,,,,,,,,,"2009-06-10"
"72208013880","2020-01-14T00:50:00","FM-16","7",,"SE","0.25","mi","TEMP, PRECIP, SNOW",,,"MMTS, SRG, SNOWBOARD",,,"WFO CHS",,,,,,,,,,,,,,,,,,,,,,,,,,,"30.32","65","66","T","BR:1 ||",,,"96",,"SCT:04 3 SCT:04 110","30.27","4.00","65","200",,"3",,,,,,,,,,,,,,,,,,,,,,,,,,,,,,,,,,,,,"MET11501/14/20 00:50:02 SPECI KCHS 140550Z 20003KT 4SM BR SCT003 SCT110 19/18 A3032 RMK AO2 RAE21 P0000 T01890183 $ (KLJ)","FM-16","7",,,,,,,,,,,,,,,,,,,,,,,,,,,,"2009-06-10"
"72208013880","2020-01-14T00:56:00","FM-15","7",,"SE","0.25","mi","TEMP, PRECIP, SNOW",,,"MMTS, SRG, SNOWBOARD",,,"WFO CHS",,,,,,,,,,,,,,,,,,,,,,,,,,,"30.32","65","65","T","BR:1 ||","+0.04","8","100","30.32","SCT:04 3 SCT:04 110","30.27","4.00","65","000",,"0",,,,,,,,,,,,,,,,,,,,,,,,,,,,,,,,,,,,,"MET14601/14/20 00:56:02 METAR KCHS 140556Z 00000KT 4SM BR SCT003 SCT110 18/18 A3032 RMK AO2 RAE21 SLP266 P0000 60000 T01830183 10211 20183 58013 $ (KLJ)","FM-15","7",,,,,,,,,,,,,,,,,,,,,,,,,,,,"2009-06-10"
"72208013880","2020-01-14T01:00:00","FM-12","4",,"SE","0.25","mi","TEMP, PRECIP, SNOW",,,"MMTS, SRG, SNOWBOARD",,,"WFO CHS",,,,,,,,,,,,,,,,,,,,,,,,,,,"30.32","65","65",,,"+0.04","8","100","30.32","2","30.27","3.73","65","000",,"0",,,,,,,,,,,,,,,,,,,,,,,,,,,,,,,,,,,,,"SYN09272208 11156 40000 10183 20183 30251 40266 58013 69901 710// 90556 333 10211 20183 555 91406=","FM-12","4",,,,,,,,,,,,,,,,,,,,,,,,,,,,"2009-06-10"
"72208013880","2020-01-14T01:17:00","FM-16","7",,"SE","0.25","mi","TEMP, PRECIP, SNOW",,,"MMTS, SRG, SNOWBOARD",,,"WFO CHS",,,,,,,,,,,,,,,,,,,,,,,,,,,"30.31","66","66",,"BR:1 ||",,,"100",,"SCT:04 3 SCT:04 110","30.26","0.75","66","000",,"0",,,,,,,,,,,,,,,,,,,,,,,,,,,,,,,,,,,,,"MET12101/14/20 01:17:02 SPECI KCHS 140617Z 00000KT 3/4SM R15/1800V4500FT BR SCT003 SCT110 19/19 A3031 RMK AO2 T01890189 $ (KLJ)","FM-16","7",,,,,,,,,,,,,,,,,,,,,,,,,,,,"2009-06-10"
"72208013880","2020-01-14T01:47:00","FM-16","7",,"SE","0.25","mi","TEMP, PRECIP, SNOW",,,"MMTS, SRG, SNOWBOARD",,,"WFO CHS",,,,,,,,,,,,,,,,,,,,,,,,,,,"30.31","64","64",,"FG:2 |FG |",,,"100",,"SCT:04 3 SCT:04 100","30.26","0.50","64","220",,"3",,,,,,,,,,,,,,,,,,,,,,,,,,,,,,,,,,,,,"MET12101/14/20 01:47:02 SPECI KCHS 140647Z 22003KT 1/2SM R15/2400V6000FT FG SCT003 SCT100 18/18 A3031 RMK AO2 T01780178 $ (KLJ)","FM-16","7",,,,,,,,,,,,,,,,,,,,,,,,,,,,"2009-06-10"
"72208013880","2020-01-14T01:56:00","FM-15","7",,"SE","0.25","mi","TEMP, PRECIP, SNOW",,,"MMTS, SRG, SNOWBOARD",,,"WFO CHS",,,,,,,,,,,,,,,,,,,,,,,,,,,"30.31","64","64","0.00","BR:1 ||",,,"100","30.31","FEW:02 3 SCT:04 100","30.26","0.75","64","220",,"5",,,,,,,,,,,,,,,,,,,,,,,,,,,,,,,,,,,,,"MET12901/14/20 01:56:02 METAR KCHS 140656Z 22004KT 3/4SM R15/4000VP6000FT BR FEW003 SCT100 18/18 A3031 RMK AO2 SLP264 T01780178 $ (KLJ)","FM-15","7",,,,,,,,,,,,,,,,,,,,,,,,,,,,"2009-06-10"
"72208013880","2020-01-14T02:09:00","FM-16","7",,"SE","0.25","mi","TEMP, PRECIP, SNOW",,,"MMTS, SRG, SNOWBOARD",,,"WFO CHS",,,,,,,,,,,,,,,,,,,,,,,,,,,"30.31","64","64",,"BR:1 ||",,,"100",,"BKN:07 4","30.26","0.75","64","180",,"3",,,,,,,,,,,,,,,,,,,,,,,,,,,,,,,,,,,,,"MET11001/14/20 02:09:02 SPECI KCHS 140709Z 18003KT 3/4SM R15/P6000FT BR BKN004 18/18 A3031 RMK AO2 T01780178 $ (KLJ)","FM-16","7",,,,,,,,,,,,,,,,,,,,,,,,,,,,"2009-06-10"
"72208013880","2020-01-14T02:33:00","FM-16","7",,"SE","0.25","mi","TEMP, PRECIP, SNOW",,,"MMTS, SRG, SNOWBOARD",,,"WFO CHS",,,,,,,,,,,,,,,,,,,,,,,,,,,"30.31","64","64",,"FG:2 |FG |",,,"100",,"VV:09 3","30.26","0.50","64","000",,"0",,,,,,,,,,,,,,,,,,,,,,,,,,,,,,,,,,,,,"MET11401/14/20 02:33:02 SPECI KCHS 140733Z 00000KT 1/2SM R15/2000VP6000FT FG VV003 18/18 A3031 RMK AO2 T01780178 $ (KLJ)","FM-16","7",,,,,,,,,,,,,,,,,,,,,,,,,,,,"2009-06-10"
"72208013880","2020-01-14T02:56:00","FM-15","7",,"SE","0.25","mi","TEMP, PRECIP, SNOW",,,"MMTS, SRG, SNOWBOARD",,,"WFO CHS",,,,,,,,,,,,,,,,,,,,,,,,,,,"30.31","65","65","0.00","FG:2 |FG |",,,"100","30.30","BKN:07 3","30.26","0.50","65","190",,"5",,,,,,,,,,,,,,,,,,,,,,,,,,,,,,,,,,,,,"MET12201/14/20 02:56:02 METAR KCHS 140756Z 19004KT 1/2SM R15/4500VP6000FT FG BKN003 18/18 A3031 RMK AO2 SLP262 T01830183 $ (KLJ)","FM-15","7",,,,,,,,,,,,,,,,,,,,,,,,,,,,"2009-06-10"
"72208013880","2020-01-14T03:47:00","FM-16","7",,"SE","0.25","mi","TEMP, PRECIP, SNOW",,,"MMTS, SRG, SNOWBOARD",,,"WFO CHS",,,,,,,,,,,,,,,,,,,,,,,,,,,"30.29","63","64",,"BR:1 ||",,,"96",,"BKN:07 3 BKN:07 100","30.24","0.75","63","190",,"3",,,,,,,,,,,,,,,,,,,,,,,,,,,,,,,,,,,,,"MET12201/14/20 03:47:02 SPECI KCHS 140847Z 19003KT 3/4SM R15/4500VP6000FT BR BKN003 BKN100 18/17 A3029 RMK AO2 T01780172 $ (KLJ)","FM-16","7",,,,,,,,,,,,,,,,,,,,,,,,,,,,"2009-06-10"
"72208013880","2020-01-14T03:56:00","FM-15","7",,"SE","0.25","mi","TEMP, PRECIP, SNOW",,,"MMTS, SRG, SNOWBOARD",,,"WFO CHS",,,,,,,,,,,,,,,,,,,,,,,,,,,"30.30","62","62","0.00","BR:1 ||","+0.02","8","100","30.29","BKN:07 3 BKN:07 100","30.25","0.75","62","210",,"3",,,,,,,,,,,,,,,,,,,,,,,,,,,,,,,,,,,,,"MET13501/14/20 03:56:02 METAR KCHS 140856Z 21003KT 3/4SM R15/4000VP6000FT BR BKN003 BKN100 17/17 A3030 RMK AO2 SLP258 T01670167 58007 $ (KLJ)","FM-15","7",,,,,,,,,,,,,,,,,,,,,,,,,,,,"2009-06-10"
"72208013880","2020-01-14T04:00:00","FM-12","4",,"SE","0.25","mi","TEMP, PRECIP, SNOW",,,"MMTS, SRG, SNOWBOARD",,,"WFO CHS",,,,,,,,,,,,,,,,,,,,,,,,,,,"30.30","62","62",,,"+0.02","8","100","30.29","2","30.25","0.75","62","210",,"3",,,,,,,,,,,,,,,,,,,,,,,,,,,,,,,,,,,,,"SYN07072208 31112 62103 10167 20167 30244 40258 58007 710// 90856 555 91409=","FM-12","4",,,,,,,,,,,,,,,,,,,,,,,,,,,,"2009-06-10"
"72208013880","2020-01-14T04:56:00","FM-15","7",,"SE","0.25","mi","TEMP, PRECIP, SNOW",,,"MMTS, SRG, SNOWBOARD",,,"WFO CHS",,,,,,,,,,,,,,,,,,,,,,,,,,,"30.27","62","62","0.00","BR:1 ||",,,"100","30.26","BKN:07 3 BKN:07 100","30.22","1.00","62","180",,"7",,,,,,,,,,,,,,,,,,,,,,,,,,,,,,,,,,,,,"MET12601/14/20 04:56:02 METAR KCHS 140956Z 18006KT 1SM R15/2000V2600FT BR BKN003 BKN100 17/17 A3027 RMK AO2 SLP248 T01670167 $ (KLJ)","FM-15","7",,,,,,,,,,,,,,,,,,,,,,,,,,,,"2009-06-10"
"72208013880","2020-01-14T05:12:00","FM-16","7",,"SE","0.25","mi","TEMP, PRECIP, SNOW",,,"MMTS, SRG, SNOWBOARD",,,"WFO CHS",,,,,,,,,,,,,,,,,,,,,,,,,,,"30.27","62","62",,"BR:1 ||",,,"100",,"SCT:04 3 SCT:04 30 BKN:07 100","30.22","5.00","62","200",,"7",,,,,,,,,,,,,,,,,,,,,,,,,,,,,,,,,,,,,"MET12701/14/20 05:12:02 SPECI KCHS 141012Z 20006KT 5SM R15/4500VP6000FT BR SCT003 SCT030 BKN100 17/17 A3027 RMK AO2 T01670167 $ (KLJ)","FM-16","7",,,,,,,,,,,,,,,,,,,,,,,,,,,,"2009-06-10"
"72208013880","2020-01-14T05:56:00","FM-15","7",,"SE","0.25","mi","TEMP, PRECIP, SNOW",,,"MMTS, SRG, SNOWBOARD",,,"WFO CHS",,,,,,,,,,,,,,,,,,,,,,,,,,,"30.26","63","63","0.00","BR:1 ||",,,"100","30.26","FEW:02 3 FEW:02 30 SCT:04 200","30.21","5.00","63","200",,"3",,,,,,,,,,,,,,,,,,,,,,,,,,,,,,,,,,,,,"MET11701/14/20 05:56:02 METAR KCHS 141056Z 20003KT 5SM BR FEW003 FEW030 SCT200 17/17 A3026 RMK AO2 SLP247 T01720172 $ (KLJ)","FM-15","7",,,,,,,,,,,,,,,,,,,,,,,,,,,,"2009-06-10"
"72208013880","2020-01-14T06:56:00","FM-15","7",,"SE","0.25","mi","TEMP, PRECIP, SNOW",,,"MMTS, SRG, SNOWBOARD",,,"WFO CHS",,,,,,,,,,,,,,,,,,,,,,,,,,,"30.27","63","63","0.00","BR:1 ||","+0.02","5","100","30.27","FEW:02 3 SCT:04 20 SCT:04 200","30.22","6.00","63","000",,"0",,,,,,,,,,,,,,,,,,,,,,,,,,,,,,,,,,,,,"MET14101/14/20 06:56:02 METAR KCHS 141156Z 00000KT 6SM BR FEW003 SCT020 SCT200 17/17 A3027 RMK AO2 SLP250 70010 T01720172 10189 20161 55008 $ (KLJ)","FM-15","7",,,,,,,,,,,,,,,,,,,,,,,,,,,,"2009-06-10"
"72208013880","2020-01-14T07:00:00","FM-12","4",,"SE","0.25","mi","TEMP, PRECIP, SNOW",,,"MMTS, SRG, SNOWBOARD",,,"WFO CHS",,,,,,,,,,,,,,,,,,,,,,,,,,,"30.27","63","63",,,"+0.02","5","100","30.27","2","30.22","5.59","63","000",,"0",,,,,,,,,,,,,,,,,,,,,,,,,,,,,,,,,,,,,"SYN09272208 31159 40000 10172 20172 30234 40250 55008 710// 91156 333 10256 20161 70025 555 91412=","FM-12","4",,,,,,,,,,,,,,,,,,,,,,,,,,,,"2009-06-10"
"72208013880","2020-01-14T07:56:00","FM-15","7",,"SE","0.25","mi","TEMP, PRECIP, SNOW",,,"MMTS, SRG, SNOWBOARD",,,"WFO CHS",,,,,,,,,,,,,,,,,,,,,,,,,,,"30.24","63","63","0.00",,,,"100","30.24","FEW:02 5 BKN:07 200","30.19","10.00","63","180",,"9",,,,,,,,,,,,,,,,,,,,,,,,,,,,,,,,,,,,,"MET10801/14/20 07:56:02 METAR KCHS 141256Z 18008KT 10SM FEW005 BKN200 17/17 A3024 RMK AO2 SLP241 T01720172 $ (JMB)","FM-15","7",,,,,,,,,,,,,,,,,,,,,,,,,,,,"2009-06-10"
"72208013880","2020-01-14T08:56:00","FM-15","7",,"SE","0.25","mi","TEMP, PRECIP, SNOW",,,"MMTS, SRG, SNOWBOARD",,,"WFO CHS",,,,,,,,,,,,,,,,,,,,,,,,,,,"30.28","65","65","0.00",,,,"100","30.28","BKN:07 200","30.23","10.00","65","280",,"5",,,,,,,,,,,,,,,,,,,,,,,,,,,,,,,,,,,,,"MET10801/14/20 08:56:02 METAR KCHS 141356Z 28004KT 10SM BKN200 18/18 A3028 RMK AO2 PRESRR SLP253 T01830183 $ (JMB)","FM-15","7",,,,,,,,,,,,,,,,,,,,,,,,,,,,"2009-06-10"
"72208013880","2020-01-14T09:56:00","FM-15","7",,"SE","0.25","mi","TEMP, PRECIP, SNOW",,,"MMTS, SRG, SNOWBOARD",,,"WFO CHS",,,,,,,,,,,,,,,,,,,,,,,,,,,"30.30","66","69","0.00",,"-0.03","3","90","30.30","FEW:02 120 BKN:07 200","30.25","10.00","67","250",,"6",,,,,,,,,,,,,,,,,,,,,,,,,,,,,,,,,,,,,"MET11401/14/20 09:56:02 METAR KCHS 141456Z 25005KT 10SM FEW120 BKN200 21/19 A3030 RMK AO2 SLP260 T02060189 53010 $ (JMB)","FM-15","7",,,,,,,,,,,,,,,,,,,,,,,,,,,,"2009-06-10"
"72208013880","2020-01-14T10:00:00","FM-12","4",,"SE","0.25","mi","TEMP, PRECIP, SNOW",,,"MMTS, SRG, SNOWBOARD",,,"WFO CHS",,,,,,,,,,,,,,,,,,,,,,,,,,,"30.30","66","69",,,"-0.03","3","90","30.30",,"30.25","9.94","67","250",,"6",,,,,,,,,,,,,,,,,,,,,,,,,,,,,,,,,,,,,"SYN06472208 32966 62505 10206 20189 30244 40260 53010 91456 555 91415=","FM-12","4",,,,,,,,,,,,,,,,,,,,,,,,,,,,"2009-06-10"
"72208013880","2020-01-14T10:56:00","FM-15","7",,"SE","0.25","mi","TEMP, PRECIP, SNOW",,,"MMTS, SRG, SNOWBOARD",,,"WFO CHS",,,,,,,,,,,,,,,,,,,,,,,,,,,"30.30","66","74","0.00",,,,"76","30.30","FEW:02 120 BKN:07 200","30.25","10.00","69","260",,"8",,,,,,,,,,,,,,,,,,,,,,,,,,,,,,,,,,,,,"MET10801/14/20 10:56:02 METAR KCHS 141556Z 26007KT 10SM FEW120 BKN200 23/19 A3030 RMK AO2 SLP260 T02330189 $ (JMB)","FM-15","7",,,,,,,,,,,,,,,,,,,,,,,,,,,,"2009-06-10"
"72208013880","2020-01-14T11:56:00","FM-15","7",,"SE","0.25","mi","TEMP, PRECIP, SNOW",,,"MMTS, SRG, SNOWBOARD",,,"WFO CHS",,,,,,,,,,,,,,,,,,,,,,,,,,,"30.26","64","75","0.00",,,,"69","30.26","FEW:02 120 BKN:07 200","30.21","10.00","68","210",,"8",,,,,,,,,,,,,,,,,,,,,,,,,,,,,,,,,,,,,"MET10801/14/20 11:56:02 METAR KCHS 141656Z 21007KT 10SM FEW120 BKN200 24/18 A3026 RMK AO2 SLP247 T02390178 $ (JMB)","FM-15","7",,,,,,,,,,,,,,,,,,,,,,,,,,,,"2009-06-10"
"72208013880","2020-01-14T12:56:00","FM-15","7",,"SE","0.25","mi","TEMP, PRECIP, SNOW",,,"MMTS, SRG, SNOWBOARD",,,"WFO CHS",,,,,,,,,,,,,,,,,,,,,,,,,,,"30.23","64","77","0.00",,"+0.07","8","64","30.22","FEW:02 40 BKN:07 200","30.18","10.00","69","230",,"7",,,,,,,,,,,,,,,,,,,,,,,,,,,,,,,,,,,,,"MET12601/14/20 12:56:02 METAR KCHS 141756Z 23006KT 10SM FEW040 BKN200 25/18 A3023 RMK AO2 SLP234 T02500178 10250 20156 58025 $ (JMB)","FM-15","7",,,,,,,,,,,,,,,,,,,,,,,,,,,,"2009-06-10"
"72208013880","2020-01-14T13:00:00","FM-12","4",,"SE","0.25","mi","TEMP, PRECIP, SNOW",,,"MMTS, SRG, SNOWBOARD",,,"WFO CHS",,,,,,,,,,,,,,,,,,,,,,,,,,,"30.23","64","77",,,"+0.07","8","64","30.22","41","30.18","9.94","69","230",,"7",,,,,,,,,,,,,,,,,,,,,,,,,,,,,,,,,,,,,"SYN08072208 32666 62306 10250 20178 30221 40234 58025 91756 333 10250 20156 555 91418=","FM-12","4",,,,,,,,,,,,,,,,,,,,,,,,,,,,"2009-06-10"
"72208013880","2020-01-14T13:56:00","FM-15","7",,"SE","0.25","mi","TEMP, PRECIP, SNOW",,,"MMTS, SRG, SNOWBOARD",,,"WFO CHS",,,,,,,,,,,,,,,,,,,,,,,,,,,"30.20","65","79","0.00",,,,"62","30.19","SCT:04 30 BKN:07 250","30.15","10.00","70","220",,"9",,,,,,,,,,,,,,,,,,,,,,,,,,,,,,,,,,,,,"MET10801/14/20 13:56:02 METAR KCHS 141856Z 22008KT 10SM SCT030 BKN250 26/18 A3020 RMK AO2 SLP225 T02610183 $ (JMB)","FM-15","7",,,,,,,,,,,,,,,,,,,,,,,,,,,,"2009-06-10"
"72208013880","2020-01-14T14:56:00","FM-15","7",,"SE","0.25","mi","TEMP, PRECIP, SNOW",,,"MMTS, SRG, SNOWBOARD",,,"WFO CHS",,,,,,,,,,,,,,,,,,,,,,,,,,,"30.18","64","77","0.00",,,,"64","30.18","FEW:02 45 SCT:04 55 BKN:07 250","30.13","10.00","69","270",,"8",,,,,,,,,,,,,,,,,,,,,,,,,,,,,,,,,,,,,"MET11501/14/20 14:56:02 METAR KCHS 141956Z 27007KT 10SM FEW045 SCT055 BKN250 25/18 A3018 RMK AO2 SLP219 T02500178 $ (JMB)","FM-15","7",,,,,,,,,,,,,,,,,,,,,,,,,,,,"2009-06-10"
"72208013880","2020-01-14T15:56:00","FM-15","7",,"SE","0.25","mi","TEMP, PRECIP, SNOW",,,"MMTS, SRG, SNOWBOARD",,,"WFO CHS",,,,,,,,,,,,,,,,,,,,,,,,,,,"30.18","63","77","0.00",,"+0.05","6","62","30.17","FEW:02 35 SCT:04 65 BKN:07 150","30.13","10.00","68","280",,"7",,,,,,,,,,,,,,,,,,,,,,,,,,,,,,,,,,,,,"MET12101/14/20 15:56:02 METAR KCHS 142056Z 28006KT 10SM FEW035 SCT065 BKN150 25/17 A3018 RMK AO2 SLP218 T02500172 56016 $ (BBE)","FM-15","7",,,,,,,,,,,,,,,,,,,,,,,,,,,,"2009-06-10"
"72208013880","2020-01-14T16:00:00","FM-12","4",,"SE","0.25","mi","TEMP, PRECIP, SNOW",,,"MMTS, SRG, SNOWBOARD",,,"WFO CHS",,,,,,,,,,,,,,,,,,,,,,,,,,,"30.18","63","77",,,"+0.05","6","62","30.17","41","30.13","9.94","68","280",,"7",,,,,,,,,,,,,,,,,,,,,,,,,,,,,,,,,,,,,"SYN06472208 32666 62806 10250 20172 30204 40218 56016 92056 555 91421=","FM-12","4",,,,,,,,,,,,,,,,,,,,,,,,,,,,"2009-06-10"
"72208013880","2020-01-14T16:56:00","FM-15","7",,"SE","0.25","mi","TEMP, PRECIP, SNOW",,,"MMTS, SRG, SNOWBOARD",,,"WFO CHS",,,,,,,,,,,,,,,,,,,,,,,,,,,"30.19","66","74","0.00",,,,"76","30.19","SCT:04 30 SCT:04 60 BKN:07 150","30.14","10.00","69","230",,"7",,,,,,,,,,,,,,,,,,,,,,,,,,,,,,,,,,,,,"MET11501/14/20 16:56:02 METAR KCHS 142156Z 23006KT 10SM SCT030 SCT060 BKN150 23/19 A3019 RMK AO2 SLP224 T02330189 $ (BBE)","FM-15","7",,,,,,,,,,,,,,,,,,,,,,,,,,,,"2009-06-10"
"72208013880","2020-01-14T17:56:00","FM-15","7",,"SE","0.25","mi","TEMP, PRECIP, SNOW",,,"MMTS, SRG, SNOWBOARD",,,"WFO CHS",,,,,,,,,,,,,,,,,,,,,,,,,,,"30.20","66","71","0.00",,,,"84","30.19","FEW:02 40 SCT:04 150 BKN:07 250","30.15","10.00","68","230",,"6",,,,,,,,,,,,,,,,,,,,,,,,,,,,,,,,,,,,,"MET11501/14/20 17:56:02 METAR KCHS 142256Z 23005KT 10SM FEW040 SCT150 BKN250 22/19 A3020 RMK AO2 SLP225 T02170189 $ (BBE)","FM-15","7",,,,,,,,,,,,,,,,,,,,,,,,,,,,"2009-06-10"
"72208013880","2020-01-14T18:56:00","FM-15","7",,"SE","0.25","mi","TEMP, PRECIP, SNOW",,,"MMTS, SRG, SNOWBOARD",,,"WFO CHS",,,,,,,,,,,,,,,,,,,,,,,,,,,"30.20","65","67","0.00",,"-0.02","1","93","30.20","SCT:04 150 BKN:07 250","30.15","10.00","66","200",,"7",,,,,,,,,,,,,,,,,,,,,,,,,,,,,,,,,,,,,"MET12601/14/20 18:56:02 METAR KCHS 142356Z 20006KT 10SM SCT150 BKN250 19/18 A3020 RMK AO2 SLP226 T01940183 10267 20194 51008 $ (BBE)","FM-15","7",,,,,,,,,,,,,,,,,,,,,,,,,,,,"2009-06-10"
"72208013880","2020-01-14T19:00:00","FM-12","4",,"SE","0.25","mi","TEMP, PRECIP, SNOW",,,"MMTS, SRG, SNOWBOARD",,,"WFO CHS",,,,,,,,,,,,,,,,,,,,,,,,,,,"30.20","65","67",,,"-0.02","1","93","30.20",,"30.15","9.94","66","200",,"7",,,,,,,,,,,,,,,,,,,,,,,,,,,,,,,,,,,,,"SYN08072208 32966 62006 10194 20183 30211 40226 51008 92356 333 10267 20161 555 91500=","FM-12","4",,,,,,,,,,,,,,,,,,,,,,,,,,,,"2009-06-10"
"72208013880","2020-01-14T19:56:00","FM-15","7",,"SE","0.25","mi","TEMP, PRECIP, SNOW",,,"MMTS, SRG, SNOWBOARD",,,"WFO CHS",,,,,,,,,,,,,,,,,,,,,,,,,,,"30.20","65","66","0.00",,,,"96","30.20","SCT:04 150 BKN:07 250","30.15","10.00","65","210",,"7",,,,,,,,,,,,,,,,,,,,,,,,,,,,,,,,,,,,,"MET10201/14/20 19:56:01 METAR KCHS 150056Z 21006KT 10SM SCT150 BKN250 19/18 A3020 RMK AO2 SLP226 T01890183 $","FM-15","7",,,,,,,,,,,,,,,,,,,,,,,,,,,,"2009-06-10"
"72208013880","2020-01-14T20:56:00","FM-15","7",,"SE","0.25","mi","TEMP, PRECIP, SNOW",,,"MMTS, SRG, SNOWBOARD",,,"WFO CHS",,,,,,,,,,,,,,,,,,,,,,,,,,,"30.20","64","66","0.00",,,,"93","30.19","FEW:02 150 BKN:07 250","30.15","10.00","65","220",,"7",,,,,,,,,,,,,,,,,,,,,,,,,,,,,,,,,,,,,"MET10201/14/20 20:56:01 METAR KCHS 150156Z 22006KT 10SM FEW150 BKN250 19/18 A3020 RMK AO2 SLP225 T01890178 $","FM-15","7",,,,,,,,,,,,,,,,,,,,,,,,,,,,"2009-06-10"
"72208013880","2020-01-14T21:56:00","FM-15","7",,"SE","0.25","mi","TEMP, PRECIP, SNOW",,,"MMTS, SRG, SNOWBOARD",,,"WFO CHS",,,,,,,,,,,,,,,,,,,,,,,,,,,"30.19","64","66","0.00",,"+0.01","8","93","30.18","BKN:07 150 BKN:07 250","30.14","10.00","65","230",,"7",,,,,,,,,,,,,,,,,,,,,,,,,,,,,,,,,,,,,"MET10801/14/20 21:56:01 METAR KCHS 150256Z 23006KT 10SM BKN150 BKN250 19/18 A3019 RMK AO2 SLP221 T01890178 58004 $","FM-15","7",,,,,,,,,,,,,,,,,,,,,,,,,,,,"2009-06-10"
"72208013880","2020-01-14T22:00:00","FM-12","4",,"SE","0.25","mi","TEMP, PRECIP, SNOW",,,"MMTS, SRG, SNOWBOARD",,,"WFO CHS",,,,,,,,,,,,,,,,,,,,,,,,,,,"30.19","64","66",,,"+0.01","8","93","30.18",,"30.14","9.94","65","230",,"7",,,,,,,,,,,,,,,,,,,,,,,,,,,,,,,,,,,,,"SYN06472208 32966 62306 10189 20178 30207 40221 58004 90256 555 91503=","FM-12","4",,,,,,,,,,,,,,,,,,,,,,,,,,,,"2009-06-10"
"72208013880","2020-01-14T22:56:00","FM-15","7",,"SE","0.25","mi","TEMP, PRECIP, SNOW",,,"MMTS, SRG, SNOWBOARD",,,"WFO CHS",,,,,,,,,,,,,,,,,,,,,,,,,,,"30.17","64","66","0.00",,,,"93","30.17","FEW:02 150 BKN:07 180","30.12","10.00","65","200",,"7",,,,,,,,,,,,,,,,,,,,,,,,,,,,,,,,,,,,,"MET10201/14/20 22:56:01 METAR KCHS 150356Z 20006KT 10SM FEW150 BKN180 19/18 A3017 RMK AO2 SLP217 T01890178 $","FM-15","7",,,,,,,,,,,,,,,,,,,,,,,,,,,,"2009-06-10"
"72208013880","2020-01-14T23:56:00","FM-15","7",,"SE","0.25","mi","TEMP, PRECIP, SNOW",,,"MMTS, SRG, SNOWBOARD",,,"WFO CHS",,,,,,,,,,,,,,,,,,,,,,,,,,,"30.17","63","66","0.00",,,,"90","30.17","FEW:02 150 BKN:07 180","30.12","10.00","64","230",,"6",,,,,,,,,,,,,,,,,,,,,,,,,,,,,,,,,,,,,"MET11201/14/20 23:56:01 METAR KCHS 150456Z 23005KT 10SM FEW150 BKN180 19/17 A3017 RMK AO2 SLP216 T01890172 402670156 $","FM-15","7",,,,,,,,,,,,,,,,,,,,,,,,,,,,"2009-06-10"
"72208013880","2020-01-14T23:59:00","SOD  ","6",,"SE","0.25","mi","TEMP, PRECIP, SNOW",,,"MMTS, SRG, SNOWBOARD",,,"WFO CHS",,,,"64","70","87","30.24","30.19","66","5.9","5","22.1","0","80","60","240","14","T","0","0.0","240","10","RA FG BR",,,,,,,,,,,,,,,,,,,,,,,,,,,,,,,,,,,,,,,,,,,,,,,,,,,,,,,,"SOD75624 HR PRECIPITATION (IN):    T SNOW DEPTH (IN):0     24 HR SNOWFALL (IN):0.0  WEATHER(CODE):1  24 HR MAX TEMP (F): 8024 HR MIN TEMP (F): 60AVERAGE STATION PRESSURE:30.195 MINIMUM SEA LEVEL PRESSURE:30.16 TIME OF OCCURRENCE:2322 PEAK WIND SPEED (MPH): 14 PEAK WIND DIR (DEG):240 PEAK WIND TIME (LST):      FASTEST 2MIN SPEED (MPH): 10FASTEST 2MIN DIR (DEG):240 FASTEST 2MIN TIME (LST):     AVERAGE WIND SPEED (MPH): 5.9 24 HR AVG TEMP (F): 70DEPART FROM NORMAL: 22  HEATING DEGREE DAYS:  0 COOLING DEGREE DAYS:  5 LATEST DAY MAX TEMP (0700-1900 LST):80  LATEST NIGHT MIN TEMP(1900-0800 LST):60 HOURLY INCREMENTAL PRECIPITATION VALUES (IN):    0.00 0.00 0.00 0.00 0.00 0.00 0.00 0.00 0.00 0.00 0.00 0.00 0.00 0.00 0.00 0.00 0.00 0.00 0.00 0.00 0.00 0.00 0.00","SOD  ","6",,,,,,,,,,,,,,,,,,,,,,,,,"0723","1736",,"2009-06-10"
"72208013880","2020-01-15T00:56:00","FM-15","7",,"SE","0.25","mi","TEMP, PRECIP, SNOW",,,"MMTS, SRG, SNOWBOARD",,,"WFO CHS",,,,,,,,,,,,,,,,,,,,,,,,,,,"30.18","63","64","0.00",,"+0.01","5","96","30.17","OVC:08 130","30.13","10.00","63","000",,"0",,,,,,,,,,,,,,,,,,,,,,,,,,,,,,,,,,,,,"MET11901/15/20 00:56:02 METAR KCHS 150556Z 00000KT 10SM OVC130 18/17 A3018 RMK AO2 SLP218 T01780172 10200 20172 55003 $ (KLJ)","FM-15","7",,,,,,,,,,,,,,,,,,,,,,,,,,,,"2009-06-10"
"72208013880","2020-01-15T01:00:00","FM-12","4",,"SE","0.25","mi","TEMP, PRECIP, SNOW",,,"MMTS, SRG, SNOWBOARD",,,"WFO CHS",,,,,,,,,,,,,,,,,,,,,,,,,,,"30.18","63","64",,,"+0.01","5","96","30.17",,"30.13","9.94","63","000",,"0",,,,,,,,,,,,,,,,,,,,,,,,,,,,,,,,,,,,,"SYN08072208 32966 80000 10178 20172 30204 40218 55003 90556 333 10200 20161 555 91506=","FM-12","4",,,,,,,,,,,,,,,,,,,,,,,,,,,,"2009-06-10"
"72208013880","2020-01-15T01:56:00","FM-15","7",,"SE","0.25","mi","TEMP, PRECIP, SNOW",,,"MMTS, SRG, SNOWBOARD",,,"WFO CHS",,,,,,,,,,,,,,,,,,,,,,,,,,,"30.19","63","65","0.00",,,,"93","30.19","FEW:02 120 BKN:07 140","30.14","10.00","64","000",,"0",,,,,,,,,,,,,,,,,,,,,,,,,,,,,,,,,,,,,"MET10801/15/20 01:56:02 METAR KCHS 150656Z 00000KT 10SM FEW120 BKN140 18/17 A3019 RMK AO2 SLP222 T01830172 $ (KLJ)","FM-15","7",,,,,,,,,,,,,,,,,,,,,,,,,,,,"2009-06-10"
"72208013880","2020-01-15T02:54:00","FM-16","6",,"SE","0.25","mi","TEMP, PRECIP, SNOW",,,"MMTS, SRG, SNOWBOARD",,,"WFO CHS",,,,,,,,,,,,,,,,,,,,,,,,,,,"30.20","63","64",,"-RA:02 |RA |RA",,,"94",,"BKN:07 27 BKN:07 120","30.15","10.00","63","000",,"0",,,,,,,,,,,,,,,,,,,,,,,,,,,,,,,,,,,,,"MET11201/15/20 02:54:02 SPECI KCHS 150754Z 00000KT 10SM -RA BKN027 BKN120 18/17 A3020 RMK AO2 RAB45 P0000 $ FIBI (KLJ)","FM-16","6",,,,,,,,,,,,,,,,,,,,,,,,,,,,"2009-06-10"
"72208013880","2020-01-15T02:56:00","FM-15","7",,"SE","0.25","mi","TEMP, PRECIP, SNOW",,,"MMTS, SRG, SNOWBOARD",,,"WFO CHS",,,,,,,,,,,,,,,,,,,,,,,,,,,"30.20","63","65","T","-RA:02 |RA |RA",,,"93","30.20","BKN:07 27 BKN:07 120 BKN:07 140","30.15","10.00","64","310",,"3",,,,,,,,,,,,,,,,,,,,,,,,,,,,,,,,,,,,,"MET13101/15/20 02:56:02 METAR KCHS 150756Z 31003KT 10SM -RA BKN027 BKN120 BKN140 18/17 A3020 RMK AO2 RAB45 SLP227 P0000 T01830172 $ (KLJ)","FM-15","7",,,,,,,,,,,,,,,,,,,,,,,,,,,,"2009-06-10"
"72208013880","2020-01-15T03:12:00","FM-16","7",,"SE","0.25","mi","TEMP, PRECIP, SNOW",,,"MMTS, SRG, SNOWBOARD",,,"WFO CHS",,,,,,,,,,,,,,,,,,,,,,,,,,,"30.20","63","65","T",,,,"93",,"FEW:02 27 OVC:08 110","30.15","10.00","64","360",,"5",,,,,,,,,,,,,,,,,,,,,,,,,,,,,,,,,,,,,"MET11301/15/20 03:12:02 SPECI KCHS 150812Z 36004KT 10SM FEW027 OVC110 18/17 A3020 RMK AO2 RAE01 P0000 T01830172 $ (KLJ)","FM-16","7",,,,,,,,,,,,,,,,,,,,,,,,,,,,"2009-06-10"
"72208013880","2020-01-15T03:56:00","FM-15","7",,"SE","0.25","mi","TEMP, PRECIP, SNOW",,,"MMTS, SRG, SNOWBOARD",,,"WFO CHS",,,,,,,,,,,,,,,,,,,,,,,,,,,"30.20","64","65","T","-RA:02 |RA |RA","-0.02","0","97","30.19","FEW:02 30 OVC:08 110","30.15","10.00","64","000",,"0",,,,,,,,,,,,,,,,,,,,,,,,,,,,,,,,,,,,,"MET13901/15/20 03:56:02 METAR KCHS 150856Z 00000KT 10SM -RA FEW030 OVC110 18/18 A3020 RMK AO2 RAE01B37 SLP225 P0000 60000 T01830178 50007 $ (KLJ)","FM-15","7",,,,,,,,,,,,,,,,,,,,,,,,,,,,"2009-06-10"
"72208013880","2020-01-15T04:00:00","FM-12","4",,"SE","0.25","mi","TEMP, PRECIP, SNOW",,,"MMTS, SRG, SNOWBOARD",,,"WFO CHS",,,,,,,,,,,,,,,,,,,,,,,,,,,"30.20","64","65",,"||RA","0.02","9","97","30.19","26","30.15","9.94","64","000",,"0",,,,,,,,,,,,,,,,,,,,,,,,,,,,,,,,,,,,,"SYN07672208 11566 80000 10183 20178 30211 40225 50007 69907 761// 90856 555 91509=","FM-12","4",,,,,,,,,,,,,,,,,,,,,,,,,,,,"2009-06-10"
"72208013880","2020-01-15T04:56:00","FM-15","7",,"SE","0.25","mi","TEMP, PRECIP, SNOW",,,"MMTS, SRG, SNOWBOARD",,,"WFO CHS",,,,,,,,,,,,,,,,,,,,,,,,,,,"30.18","63","64","T","-RA:02 |RA |RA",,,"96","30.17","FEW:02 50 SCT:04 90 OVC:08 110","30.13","8.00","63","190",,"3",,,,,,,,,,,,,,,,,,,,,,,,,,,,,,,,,,,,,"MET12401/15/20 04:56:02 METAR KCHS 150956Z 19003KT 8SM -RA FEW050 SCT090 OVC110 18/17 A3018 RMK AO2 SLP218 P0000 T01780172 $ (KLJ)","FM-15","7",,,,,,,,,,,,,,,,,,,,,,,,,,,,"2009-06-10"
"72208013880","2020-01-15T05:56:00","FM-15","7",,"SE","0.25","mi","TEMP, PRECIP, SNOW",,,"MMTS, SRG, SNOWBOARD",,,"WFO CHS",,,,,,,,,,,,,,,,,,,,,,,,,,,"30.17","63","63","T",,,,"100","30.17","FEW:02 50 FEW:02 110 BKN:07 180","30.12","8.00","63","000",,"0",,,,,,,,,,,,,,,,,,,,,,,,,,,,,,,,,,,,,"MET12601/15/20 05:56:02 METAR KCHS 151056Z 00000KT 8SM FEW050 FEW110 BKN180 17/17 A3017 RMK AO2 RAE16 SLP217 P0000 T01720172 $ (KLJ)","FM-15","7",,,,,,,,,,,,,,,,,,,,,,,,,,,,"2009-06-10"
"72208013880","2020-01-15T06:56:00","FM-15","7",,"SE","0.25","mi","TEMP, PRECIP, SNOW",,,"MMTS, SRG, SNOWBOARD",,,"WFO CHS",,,,,,,,,,,,,,,,,,,,,,,,,,,"30.19","62","63","0.00",,"+0.01","5","97","30.19","FEW:02 50 FEW:02 110 BKN:07 160","30.14","8.00","62","000",,"0",,,,,,,,,,,,,,,,,,,,,,,,,,,,,,,,,,,,,"MET13801/15/20 06:56:02 METAR KCHS 151156Z 00000KT 8SM FEW050 FEW110 BKN160 17/17 A3019 RMK AO2 SLP223 60000 T01720167 10189 20167 55002 $ (KLJ)","FM-15","7",,,,,,,,,,,,,,,,,,,,,,,,,,,,"2009-06-10"
"72208013880","2020-01-15T07:00:00","FM-12","4",,"SE","0.25","mi","TEMP, PRECIP, SNOW",,,"MMTS, SRG, SNOWBOARD",,,"WFO CHS",,,,,,,,,,,,,,,,,,,,,,,,,,,"30.19","62","63",,,"+0.01","5","97","30.19","57","30.14","7.46","62","000",,"0",,,,,,,,,,,,,,,,,,,,,,,,,,,,,,,,,,,,,"SYN08672208 12762 60000 10172 20167 30207 40223 55002 69901 91156 333 10267 20167 555 91512=","FM-12","4",,,,,,,,,,,,,,,,,,,,,,,,,,,,"2009-06-10"
"72208013880","2020-01-15T07:56:00","FM-15","7",,"SE","0.25","mi","TEMP, PRECIP, SNOW",,,"MMTS, SRG, SNOWBOARD",,,"WFO CHS",,,,,,,,,,,,,,,,,,,,,,,,,,,"30.21","63","64","0.00",,,,"96","30.21","SCT:04 90 BKN:07 110","30.16","9.00","63","240",,"5",,,,,,,,,,,,,,,,,,,,,,,,,,,,,,,,,,,,,"MET10701/15/20 07:56:02 METAR KCHS 151256Z 24004KT 9SM SCT090 BKN110 18/17 A3021 RMK AO2 SLP229 T01780172 $ (JMB)","FM-15","7",,,,,,,,,,,,,,,,,,,,,,,,,,,,"2009-06-10"
"72208013880","2020-01-15T08:56:00","FM-15","7",,"SE","0.25","mi","TEMP, PRECIP, SNOW",,,"MMTS, SRG, SNOWBOARD",,,"WFO CHS",,,,,,,,,,,,,,,,,,,,,,,,,,,"30.21","65","67","0.00",,,,"93","30.21","SCT:04 60 BKN:07 70","30.16","10.00","66","200",,"3",,,,,,,,,,,,,,,,,,,,,,,,,,,,,,,,,,,,,"MET10801/15/20 08:56:02 METAR KCHS 151356Z 20003KT 10SM SCT060 BKN070 19/18 A3021 RMK AO2 SLP229 T01940183 $ (JMB)","FM-15","7",,,,,,,,,,,,,,,,,,,,,,,,,,,,"2009-06-10"
"72208013880","2020-01-15T09:56:00","FM-15","7",,"SE","0.25","mi","TEMP, PRECIP, SNOW",,,"MMTS, SRG, SNOWBOARD",,,"WFO CHS",,,,,,,,,,,,,,,,,,,,,,,,,,,"30.22","65","69","0.00",,"-0.03","1","87","30.22","FEW:02 35 SCT:04 65","30.17","10.00","66","180",,"6",,,,,,,,,,,,,,,,,,,,,,,,,,,,,,,,,,,,,"MET11401/15/20 09:56:02 METAR KCHS 151456Z 18005KT 10SM FEW035 SCT065 21/18 A3022 RMK AO2 SLP232 T02060183 51009 $ (JMB)","FM-15","7",,,,,,,,,,,,,,,,,,,,,,,,,,,,"2009-06-10"
"72208013880","2020-01-15T10:00:00","FM-12","4",,"SE","0.25","mi","TEMP, PRECIP, SNOW",,,"MMTS, SRG, SNOWBOARD",,,"WFO CHS",,,,,,,,,,,,,,,,,,,,,,,,,,,"30.22","65","69",,,"-0.03","1","87","30.22","41","30.17","9.94","66","180",,"6",,,,,,,,,,,,,,,,,,,,,,,,,,,,,,,,,,,,,"SYN06472208 32666 41805 10206 20183 30217 40232 51009 91456 555 91515=","FM-12","4",,,,,,,,,,,,,,,,,,,,,,,,,,,,"2009-06-10"
"72208013880","2020-01-15T10:56:00","FM-15","7",,"SE","0.25","mi","TEMP, PRECIP, SNOW",,,"MMTS, SRG, SNOWBOARD",,,"WFO CHS",,,,,,,,,,,,,,,,,,,,,,,,,,,"30.22","63","75","0.00",,,,"66","30.22","FEW:02 30 FEW:02 60","30.17","10.00","67","000",,"0",,,,,,,,,,,,,,,,,,,,,,,,,,,,,,,,,,,,,"MET10801/15/20 10:56:02 METAR KCHS 151556Z 00000KT 10SM FEW030 FEW060 24/17 A3022 RMK AO2 SLP233 T02390172 $ (JMB)","FM-15","7",,,,,,,,,,,,,,,,,,,,,,,,,,,,"2009-06-10"
"72208013880","2020-01-15T11:44:00","FM-16","7",,"SE","0.25","mi","TEMP, PRECIP, SNOW",,,"MMTS, SRG, SNOWBOARD",,,"WFO CHS",,,,,,,,,,,,,,,,,,,,,,,,,,,"30.21","64","75",,,,,"69",,"BKN:07 29 BKN:07 60","30.16","10.00","68","000",,"0",,,,,,,,,,,,,,,,,,,,,,,,,,,,,,,,,,,,,"MET10101/15/20 11:44:02 SPECI KCHS 151644Z 00000KT 10SM BKN029 BKN060 24/18 A3021 RMK AO2 T02390178 $ (JMB)","FM-16","7",,,,,,,,,,,,,,,,,,,,,,,,,,,,"2009-06-10"
"72208013880","2020-01-15T11:56:00","FM-15","7",,"SE","0.25","mi","TEMP, PRECIP, SNOW",,,"MMTS, SRG, SNOWBOARD",,,"WFO CHS",,,,,,,,,,,,,,,,,,,,,,,,,,,"30.20","64","74","0.00",,,,"71","30.20","BKN:07 29 BKN:07 60","30.15","10.00","68","260",,"6",,,,,,,,,,,,,,,,,,,,,,,,,,,,,,,,,,,,,"MET10801/15/20 11:56:02 METAR KCHS 151656Z 26005KT 10SM BKN029 BKN060 23/18 A3020 RMK AO2 SLP226 T02330178 $ (JMB)","FM-15","7",,,,,,,,,,,,,,,,,,,,,,,,,,,,"2009-06-10"
"72208013880","2020-01-15T12:56:00","FM-15","7",,"SE","0.25","mi","TEMP, PRECIP, SNOW",,,"MMTS, SRG, SNOWBOARD",,,"WFO CHS",,,,,,,,,,,,,,,,,,,,,,,,,,,"30.17","63","75","0.00",,"+0.04","8","66","30.17","BKN:07 26","30.12","10.00","67","260",,"6",,,,,,,,,,,,,,,,,,,,,,,,,,,,,,,,,,,,,"MET11901/15/20 12:56:02 METAR KCHS 151756Z 26005KT 10SM BKN026 24/17 A3017 RMK AO2 SLP217 T02390172 10244 20172 58015 $ (JMB)","FM-15","7",,,,,,,,,,,,,,,,,,,,,,,,,,,,"2009-06-10"
"72208013880","2020-01-15T13:00:00","FM-12","4",,"SE","0.25","mi","TEMP, PRECIP, SNOW",,,"MMTS, SRG, SNOWBOARD",,,"WFO CHS",,,,,,,,,,,,,,,,,,,,,,,,,,,"30.17","63","75",,,"+0.04","8","66","30.17","26","30.12","9.94","67","260",,"6",,,,,,,,,,,,,,,,,,,,,,,,,,,,,,,,,,,,,"SYN08072208 32566 62605 10239 20172 30201 40217 58015 91756 333 10244 20172 555 91518=","FM-12","4",,,,,,,,,,,,,,,,,,,,,,,,,,,,"2009-06-10"
"72208013880","2020-01-15T13:23:00","FM-16","7",,"SE","0.25","mi","TEMP, PRECIP, SNOW",,,"MMTS, SRG, SNOWBOARD",,,"WFO CHS",,,,,,,,,,,,,,,,,,,,,,,,,,,"30.16","63","75",,,,,"66",,"SCT:04 25 BKN:07 35","30.11","10.00","67","270",,"7",,,,,,,,,,,,,,,,,,,,,,,,,,,,,,,,,,,,,"MET11101/15/20 13:23:02 SPECI KCHS 151823Z 27006KT 10SM SCT025 BKN035 24/17 A3016 RMK AO2 SCT V BKN T02390172 $ (JMB)","FM-16","7",,,,,,,,,,,,,,,,,,,,,,,,,,,,"2009-06-10"
"72208013880","2020-01-15T13:56:00","FM-15","7",,"SE","0.25","mi","TEMP, PRECIP, SNOW",,,"MMTS, SRG, SNOWBOARD",,,"WFO CHS",,,,,,,,,,,,,,,,,,,,,,,,,,,"30.16","63","75","0.00",,,,"66","30.16","BKN:07 30 BKN:07 35","30.11","10.00","67","320",,"6",,,,,,,,,,,,,,,,,,,,,,,,,,,,,,,,,,,,,"MET10801/15/20 13:56:02 METAR KCHS 151856Z 32005KT 10SM BKN030 BKN035 24/17 A3016 RMK AO2 SLP212 T02390172 $ (JMB)","FM-15","7",,,,,,,,,,,,,,,,,,,,,,,,,,,,"2009-06-10"
"72208013880","2020-01-15T14:56:00","FM-15","7",,"SE","0.25","mi","TEMP, PRECIP, SNOW",,,"MMTS, SRG, SNOWBOARD",,,"WFO CHS",,,,,,,,,,,,,,,,,,,,,,,,,,,"30.15","63","77","0.00",,,,"62","30.15","FEW:02 30 SCT:04 35 SCT:04 250","30.10","10.00","68","260",,"5",,,,,,,,,,,,,,,,,,,,,,,,,,,,,,,,,,,,,"MET11501/15/20 14:56:02 METAR KCHS 151956Z 26004KT 10SM FEW030 SCT035 SCT250 25/17 A3015 RMK AO2 SLP209 T02500172 $ (JMB)","FM-15","7",,,,,,,,,,,,,,,,,,,,,,,,,,,,"2009-06-10"
"72208013880","2020-01-15T15:56:00","FM-15","7",,"SE","0.25","mi","TEMP, PRECIP, SNOW",,,"MMTS, SRG, SNOWBOARD",,,"WFO CHS",,,,,,,,,,,,,,,,,,,,,,,,,,,"30.14","63","76","0.00",,"+0.04","6","64","30.14","FEW:02 30 SCT:04 250","30.09","10.00","68","000",,"0",,,,,,,,,,,,,,,,,,,,,,,,,,,,,,,,,,,,,"MET11401/15/20 15:56:02 METAR KCHS 152056Z 00000KT 10SM FEW030 SCT250 24/17 A3014 RMK AO2 SLP205 T02440172 56012 $ (BBE)","FM-15","7",,,,,,,,,,,,,,,,,,,,,,,,,,,,"2009-06-10"
"72208013880","2020-01-15T16:00:00","FM-12","4",,"SE","0.25","mi","TEMP, PRECIP, SNOW",,,"MMTS, SRG, SNOWBOARD",,,"WFO CHS",,,,,,,,,,,,,,,,,,,,,,,,,,,"30.14","63","76",,,"+0.04","6","64","30.14","26","30.09","9.94","68","000",,"0",,,,,,,,,,,,,,,,,,,,,,,,,,,,,,,,,,,,,"SYN06472208 32566 40000 10244 20172 30190 40205 56012 92056 555 91521=","FM-12","4",,,,,,,,,,,,,,,,,,,,,,,,,,,,"2009-06-10"
"72208013880","2020-01-15T16:56:00","FM-15","7",,"SE","0.25","mi","TEMP, PRECIP, SNOW",,,"MMTS, SRG, SNOWBOARD",,,"WFO CHS",,,,,,,,,,,,,,,,,,,,,,,,,,,"30.15","63","74","0.00",,,,"69","30.14","FEW:02 25 SCT:04 150 SCT:04 250","30.10","10.00","67","250",,"6",,,,,,,,,,,,,,,,,,,,,,,,,,,,,,,,,,,,,"MET11501/15/20 16:56:02 METAR KCHS 152156Z 25005KT 10SM FEW025 SCT150 SCT250 23/17 A3015 RMK AO2 SLP208 T02330172 $ (BBE)","FM-15","7",,,,,,,,,,,,,,,,,,,,,,,,,,,,"2009-06-10"
"72208013880","2020-01-15T17:56:00","FM-15","7",,"SE","0.25","mi","TEMP, PRECIP, SNOW",,,"MMTS, SRG, SNOWBOARD",,,"WFO CHS",,,,,,,,,,,,,,,,,,,,,,,,,,,"30.17","63","71","0.00",,,,"76","30.17","FEW:02 25 SCT:04 150 BKN:07 250","30.12","10.00","66","270",,"5",,,,,,,,,,,,,,,,,,,,,,,,,,,,,,,,,,,,,"MET11501/15/20 17:56:02 METAR KCHS 152256Z 27004KT 10SM FEW025 SCT150 BKN250 22/17 A3017 RMK AO2 SLP216 T02170172 $ (BBE)","FM-15","7",,,,,,,,,,,,,,,,,,,,,,,,,,,,"2009-06-10"
"72208013880","2020-01-15T18:56:00","FM-15","7",,"SE","0.25","mi","TEMP, PRECIP, SNOW",,,"MMTS, SRG, SNOWBOARD",,,"WFO CHS",,,,,,,,,,,,,,,,,,,,,,,,,,,"30.19","63","70","0.00",,"-0.05","3","79","30.18","BKN:07 150 BKN:07 250","30.14","10.00","66","250",,"3",,,,,,,,,,,,,,,,,,,,,,,,,,,,,,,,,,,,,"MET12601/15/20 18:56:02 METAR KCHS 152356Z 25003KT 10SM BKN150 BKN250 21/17 A3019 RMK AO2 SLP221 T02110172 10256 20206 53016 $ (BBE)","FM-15","7",,,,,,,,,,,,,,,,,,,,,,,,,,,,"2009-06-10"
"72208013880","2020-01-15T19:00:00","FM-12","4",,"SE","0.25","mi","TEMP, PRECIP, SNOW",,,"MMTS, SRG, SNOWBOARD",,,"WFO CHS",,,,,,,,,,,,,,,,,,,,,,,,,,,"30.19","63","70",,,"-0.05","3","79","30.18",,"30.14","9.94","66","250",,"3",,,,,,,,,,,,,,,,,,,,,,,,,,,,,,,,,,,,,"SYN08072208 32966 62503 10211 20172 30207 40221 53016 92356 333 10256 20167 555 91600=","FM-12","4",,,,,,,,,,,,,,,,,,,,,,,,,,,,"2009-06-10"
"72208013880","2020-01-15T19:56:00","FM-15","7",,"SE","0.25","mi","TEMP, PRECIP, SNOW",,,"MMTS, SRG, SNOWBOARD",,,"WFO CHS",,,,,,,,,,,,,,,,,,,,,,,,,,,"30.20","62","66","0.00",,,,"87","30.20","SCT:04 150 BKN:07 250","30.15","10.00","64","210",,"5",,,,,,,,,,,,,,,,,,,,,,,,,,,,,,,,,,,,,"MET10201/15/20 19:56:01 METAR KCHS 160056Z 21004KT 10SM SCT150 BKN250 19/17 A3020 RMK AO2 SLP226 T01890167 $","FM-15","7",,,,,,,,,,,,,,,,,,,,,,,,,,,,"2009-06-10"
"72208013880","2020-01-15T20:56:00","FM-15","7",,"SE","0.25","mi","TEMP, PRECIP, SNOW",,,"MMTS, SRG, SNOWBOARD",,,"WFO CHS",,,,,,,,,,,,,,,,,,,,,,,,,,,"30.20","62","65","0.00",,,,"90","30.19","FEW:02 100 SCT:04 250","30.15","10.00","63","210",,"3",,,,,,,,,,,,,,,,,,,,,,,,,,,,,,,,,,,,,"MET10201/15/20 20:56:01 METAR KCHS 160156Z 21003KT 10SM FEW100 SCT250 18/17 A3020 RMK AO2 SLP225 T01830167 $","FM-15","7",,,,,,,,,,,,,,,,,,,,,,,,,,,,"2009-06-10"
"72208013880","2020-01-15T21:56:00","FM-15","7",,"SE","0.25","mi","TEMP, PRECIP, SNOW",,,"MMTS, SRG, SNOWBOARD",,,"WFO CHS",,,,,,,,,,,,,,,,,,,,,,,,,,,"30.20","63","66","0.00",,"-0.01","1","90","30.20","FEW:02 100 SCT:04 250","30.15","10.00","64","240",,"6",,,,,,,,,,,,,,,,,,,,,,,,,,,,,,,,,,,,,"MET10801/15/20 21:56:01 METAR KCHS 160256Z 24005KT 10SM FEW100 SCT250 19/17 A3020 RMK AO2 SLP226 T01890172 51005 $","FM-15","7",,,,,,,,,,,,,,,,,,,,,,,,,,,,"2009-06-10"
"72208013880","2020-01-15T22:00:00","FM-12","4",,"SE","0.25","mi","TEMP, PRECIP, SNOW",,,"MMTS, SRG, SNOWBOARD",,,"WFO CHS",,,,,,,,,,,,,,,,,,,,,,,,,,,"30.20","63","66",,,"-0.01","1","90","30.20",,"30.15","9.94","64","240",,"6",,,,,,,,,,,,,,,,,,,,,,,,,,,,,,,,,,,,,"SYN06472208 32966 42405 10189 20172 30211 40226 51005 90256 555 91603=","FM-12","4",,,,,,,,,,,,,,,,,,,,,,,,,,,,"2009-06-10"
"72208013880","2020-01-15T22:56:00","FM-15","7",,"SE","0.25","mi","TEMP, PRECIP, SNOW",,,"MMTS, SRG, SNOWBOARD",,,"WFO CHS",,,,,,,,,,,,,,,,,,,,,,,,,,,"30.19","62","63","0.00","MI:1 FG:2 |FG |",,,"97","30.18","FEW:02 100 SCT:04 250","30.14","8.00","62","210",,"6",,,,,,,,,,,,,,,,,,,,,,,,,,,,,,,,,,,,,"MET10601/15/20 22:56:01 METAR KCHS 160356Z 21005KT 8SM MIFG FEW100 SCT250 17/17 A3019 RMK AO2 SLP221 T01720167 $","FM-15","7",,,,,,,,,,,,,,,,,,,,,,,,,,,,"2009-06-10"
"72208013880","2020-01-15T23:56:00","FM-15","7",,"SE","0.25","mi","TEMP, PRECIP, SNOW",,,"MMTS, SRG, SNOWBOARD",,,"WFO CHS",,,,,,,,,,,,,,,,,,,,,,,,,,,"30.18","63","64","0.00",,,,"96","30.17","SCT:04 200","30.13","10.00","63","230",,"5",,,,,,,,,,,,,,,,,,,,,,,,,,,,,,,,,,,,,"MET10501/15/20 23:56:01 METAR KCHS 160456Z 23004KT 10SM SCT200 18/17 A3018 RMK AO2 SLP218 T01780172 402560167 $","FM-15","7",,,,,,,,,,,,,,,,,,,,,,,,,,,,"2009-06-10"
"72208013880","2020-01-15T23:59:00","SOD  ","6",,"SE","0.25","mi","TEMP, PRECIP, SNOW",,,"MMTS, SRG, SNOWBOARD",,,"WFO CHS",,,,"63","70","84","30.18","30.12","65","3.4","5","22.0","0","78","62","270","12","T","0","0.0","270","9","RA MIFG FG",,,,,,,,,,,,,,,,,,,,,,,,,,,,,,,,,,,,,,,,,,,,,,,,,,,,,,,,"SOD75624 HR PRECIPITATION (IN):    T SNOW DEPTH (IN):0     24 HR SNOWFALL (IN):0.0  WEATHER(CODE):1  24 HR MAX TEMP (F): 7824 HR MIN TEMP (F): 62AVERAGE STATION PRESSURE:30.125 MINIMUM SEA LEVEL PRESSURE:30.14 TIME OF OCCURRENCE:1712 PEAK WIND SPEED (MPH): 12 PEAK WIND DIR (DEG):270 PEAK WIND TIME (LST):      FASTEST 2MIN SPEED (MPH):  9FASTEST 2MIN DIR (DEG):270 FASTEST 2MIN TIME (LST):     AVERAGE WIND SPEED (MPH): 3.4 24 HR AVG TEMP (F): 70DEPART FROM NORMAL: 22  HEATING DEGREE DAYS:  0 COOLING DEGREE DAYS:  5 LATEST DAY MAX TEMP (0700-1900 LST):78  LATEST NIGHT MIN TEMP(1900-0800 LST):62 HOURLY INCREMENTAL PRECIPITATION VALUES (IN):.00 0.00 T    T    T    T    0.00 0.00 0.00 0.00 0.00 0.00 0.00 0.00 0.00 0.00 0.00 0.00 0.00 0.00 0.00 0.00 0.00 0.00","SOD  ","6",,,,,,,,,,,,,,,,,,,,,,,,,"0723","1737",,"2009-06-10"
"72208013880","2020-01-16T00:56:00","FM-15","7",,"SE","0.25","mi","TEMP, PRECIP, SNOW",,,"MMTS, SRG, SNOWBOARD",,,"WFO CHS",,,,,,,,,,,,,,,,,,,,,,,,,,,"30.16","62","64","0.00",,"+0.05","8","93","30.15","FEW:02 80 SCT:04 95","30.11","10.00","63","200",,"8",,,,,,,,,,,,,,,,,,,,,,,,,,,,,,,,,,,,,"MET12601/16/20 00:56:02 METAR KCHS 160556Z 20007KT 10SM FEW080 SCT095 18/17 A3016 RMK AO2 SLP211 T01780167 10211 20167 58016 $ (KLJ)","FM-15","7",,,,,,,,,,,,,,,,,,,,,,,,,,,,"2009-06-10"
"72208013880","2020-01-16T01:00:00","FM-12","4",,"SE","0.25","mi","TEMP, PRECIP, SNOW",,,"MMTS, SRG, SNOWBOARD",,,"WFO CHS",,,,,,,,,,,,,,,,,,,,,,,,,,,"30.16","62","64",,,"+0.05","8","93","30.15","74","30.11","9.94","63","200",,"8",,,,,,,,,,,,,,,,,,,,,,,,,,,,,,,,,,,,,"SYN08072208 32866 42007 10178 20167 30197 40211 58016 90556 333 10211 20167 555 91606=","FM-12","4",,,,,,,,,,,,,,,,,,,,,,,,,,,,"2009-06-10"
"72208013880","2020-01-16T01:56:00","FM-15","7",,"SE","0.25","mi","TEMP, PRECIP, SNOW",,,"MMTS, SRG, SNOWBOARD",,,"WFO CHS",,,,,,,,,,,,,,,,,,,,,,,,,,,"30.16","63","65","0.00",,,,"93","30.16","FEW:02 90 FEW:02 200","30.11","10.00","64","260",,"8",,,,,,,,,,,,,,,,,,,,,,,,,,,,,,,,,,,,,"MET10801/16/20 01:56:02 METAR KCHS 160656Z 26007KT 10SM FEW090 FEW200 18/17 A3016 RMK AO2 SLP214 T01830172 $ (KLJ)","FM-15","7",,,,,,,,,,,,,,,,,,,,,,,,,,,,"2009-06-10"
"72208013880","2020-01-16T02:56:00","FM-15","7",,"SE","0.25","mi","TEMP, PRECIP, SNOW",,,"MMTS, SRG, SNOWBOARD",,,"WFO CHS",,,,,,,,,,,,,,,,,,,,,,,,,,,"30.15","62","64","0.00",,,,"93","30.15","FEW:02 100","30.10","10.00","63","250",,"5",,,,,,,,,,,,,,,,,,,,,,,,,,,,,,,,,,,,,"MET10101/16/20 02:56:02 METAR KCHS 160756Z 25004KT 10SM FEW100 18/17 A3015 RMK AO2 SLP209 T01780167 $ (KLJ)","FM-15","7",,,,,,,,,,,,,,,,,,,,,,,,,,,,"2009-06-10"
"72208013880","2020-01-16T03:56:00","FM-15","7",,"SE","0.25","mi","TEMP, PRECIP, SNOW",,,"MMTS, SRG, SNOWBOARD",,,"WFO CHS",,,,,,,,,,,,,,,,,,,,,,,,,,,"30.14","62","63","0.00",,"+0.02","8","97","30.13","FEW:02 100","30.09","10.00","62","260",,"7",,,,,,,,,,,,,,,,,,,,,,,,,,,,,,,,,,,,,"MET10701/16/20 03:56:02 METAR KCHS 160856Z 26006KT 10SM FEW100 17/17 A3014 RMK AO2 SLP204 T01720167 58007 $ (KLJ)","FM-15","7",,,,,,,,,,,,,,,,,,,,,,,,,,,,"2009-06-10"
"72208013880","2020-01-16T04:00:00","FM-12","4",,"SE","0.25","mi","TEMP, PRECIP, SNOW",,,"MMTS, SRG, SNOWBOARD",,,"WFO CHS",,,,,,,,,,,,,,,,,,,,,,,,,,,"30.14","62","63",,,"+0.02","8","97","30.13",,"30.09","9.94","62","260",,"7",,,,,,,,,,,,,,,,,,,,,,,,,,,,,,,,,,,,,"SYN06472208 32966 22606 10172 20167 30190 40204 58007 90856 555 91609=","FM-12","4",,,,,,,,,,,,,,,,,,,,,,,,,,,,"2009-06-10"
"72208013880","2020-01-16T04:56:00","FM-15","7",,"SE","0.25","mi","TEMP, PRECIP, SNOW",,,"MMTS, SRG, SNOWBOARD",,,"WFO CHS",,,,,,,,,,,,,,,,,,,,,,,,,,,"30.14","63","64","0.00",,,,"96","30.14","BKN:07 100","30.09","10.00","63","250",,"6",,,,,,,,,,,,,,,,,,,,,,,,,,,,,,,,,,,,,"MET10101/16/20 04:56:02 METAR KCHS 160956Z 25005KT 10SM BKN100 18/17 A3014 RMK AO2 SLP206 T01780172 $ (KLJ)","FM-15","7",,,,,,,,,,,,,,,,,,,,,,,,,,,,"2009-06-10"
"72208013880","2020-01-16T05:56:00","FM-15","7",,"SE","0.25","mi","TEMP, PRECIP, SNOW",,,"MMTS, SRG, SNOWBOARD",,,"WFO CHS",,,,,,,,,,,,,,,,,,,,,,,,,,,"30.16","63","64","0.00",,,,"96","30.16","FEW:02 40 FEW:02 110 BKN:07 140","30.11","10.00","63","240",,"7",,,,,,,,,,,,,,,,,,,,,,,,,,,,,,,,,,,,,"MET11501/16/20 05:56:02 METAR KCHS 161056Z 24006KT 10SM FEW040 FEW110 BKN140 18/17 A3016 RMK AO2 SLP213 T01780172 $ (KLJ)","FM-15","7",,,,,,,,,,,,,,,,,,,,,,,,,,,,"2009-06-10"
"72208013880","2020-01-16T06:56:00","FM-15","7",,"SE","0.25","mi","TEMP, PRECIP, SNOW",,,"MMTS, SRG, SNOWBOARD",,,"WFO CHS",,,,,,,,,,,,,,,,,,,,,,,,,,,"30.19","63","65","T",,"-0.05","3","93","30.18","SCT:04 43 SCT:04 70 BKN:07 110","30.14","10.00","64","280",,"9",,,,,,,,,,,,,,,,,,,,,,,,,,,,,,,,,,,,,"MET15401/16/20 06:56:02 METAR KCHS 161156Z 28008KT 10SM SCT043 SCT070 BKN110 18/17 A3019 RMK AO2 RAB08E42 SLP221 P0000 60000 T01830172 10183 20167 53017 $ (KLJ)","FM-15","7",,,,,,,,,,,,,,,,,,,,,,,,,,,,"2009-06-10"
"72208013880","2020-01-16T07:00:00","FM-12","4",,"SE","0.25","mi","TEMP, PRECIP, SNOW",,,"MMTS, SRG, SNOWBOARD",,,"WFO CHS",,,,,,,,,,,,,,,,,,,,,,,,,,,"30.19","63","65",,,"-0.05","3","93","30.18","41","30.14","9.94","64","280",,"9",,,,,,,,,,,,,,,,,,,,,,,,,,,,,,,,,,,,,"SYN08672208 12666 62808 10183 20172 30207 40221 53017 69901 91156 333 10256 20167 555 91612=","FM-12","4",,,,,,,,,,,,,,,,,,,,,,,,,,,,"2009-06-10"
"72208013880","2020-01-16T07:56:00","FM-15","7",,"SE","0.25","mi","TEMP, PRECIP, SNOW",,,"MMTS, SRG, SNOWBOARD",,,"WFO CHS",,,,,,,,,,,,,,,,,,,,,,,,,,,"30.19","64","65","0.01","-RA:02 |RA |RA",,,"97","30.19","FEW:02 15 BKN:07 60 OVC:08 110","30.14","8.00","64","260",,"8",,,,,,,,,,,,,,,,,,,,,,,,,,,,,,,,,,,,,"MET13001/16/20 07:56:02 METAR KCHS 161256Z 26007KT 8SM -RA FEW015 BKN060 OVC110 18/18 A3019 RMK AO2 RAB06 SLP223 P0001 T01830178 $ (JMB)","FM-15","7",,,,,,,,,,,,,,,,,,,,,,,,,,,,"2009-06-10"
"72208013880","2020-01-16T08:41:00","FM-16","7",,"SE","0.25","mi","TEMP, PRECIP, SNOW",,,"MMTS, SRG, SNOWBOARD",,,"WFO CHS",,,,,,,,,,,,,,,,,,,,,,,,,,,"30.17","64","65","T",,,,"97",,"SCT:04 7 BKN:07 40 BKN:07 100","30.12","10.00","64","220",,"9",,,,,,,,,,,,,,,,,,,,,,,,,,,,,,,,,,,,,"MET12701/16/20 08:41:02 SPECI KCHS 161341Z 22008KT 10SM SCT007 BKN040 BKN100 18/18 A3017 RMK AO2 RAE31 PRESFR P0000 T01830178 $ (JMB)","FM-16","7",,,,,,,,,,,,,,,,,,,,,,,,,,,,"2009-06-10"
"72208013880","2020-01-16T08:56:00","FM-15","7",,"SE","0.25","mi","TEMP, PRECIP, SNOW",,,"MMTS, SRG, SNOWBOARD",,,"WFO CHS",,,,,,,,,,,,,,,,,,,,,,,,,,,"30.16","65","66","T",,,,"96","30.16","FEW:02 7 SCT:04 30 BKN:07 100","30.11","10.00","65","230",,"10",,,,,,,,,,,,,,,,,,,,,,,,,,,,,,,,,,,,,"MET12701/16/20 08:56:02 METAR KCHS 161356Z 23009KT 10SM FEW007 SCT030 BKN100 19/18 A3016 RMK AO2 RAE31 SLP212 P0000 T01890183 $ (JMB)","FM-15","7",,,,,,,,,,,,,,,,,,,,,,,,,,,,"2009-06-10"
"72208013880","2020-01-16T09:09:00","FM-16","7",,"SE","0.25","mi","TEMP, PRECIP, SNOW",,,"MMTS, SRG, SNOWBOARD",,,"WFO CHS",,,,,,,,,,,,,,,,,,,,,,,,,,,"30.16","65","66",,,,,"96",,"FEW:02 6 SCT:04 30 BKN:07 100","30.11","10.00","65","230",,"10",,,,,,,,,,,,,,,,,,,,,,,,,,,,,,,,,,,,,"MET10801/16/20 09:09:02 SPECI KCHS 161409Z 23009KT 10SM FEW006 SCT030 BKN100 19/18 A3016 RMK AO2 T01890183 $ (JMB)","FM-16","7",,,,,,,,,,,,,,,,,,,,,,,,,,,,"2009-06-10"
"72208013880","2020-01-16T09:56:00","FM-15","7",,"SE","0.25","mi","TEMP, PRECIP, SNOW",,,"MMTS, SRG, SNOWBOARD",,,"WFO CHS",,,,,,,,,,,,,,,,,,,,,,,,,,,"30.19","66","69","0.00",,"-0.01","3","90","30.19","FEW:02 8 SCT:04 30 BKN:07 100","30.14","10.00","67","270",,"9",,,,,,,,,,,,,,,,,,,,,,,,,,,,,,,,,,,,,"MET12701/16/20 09:56:02 METAR KCHS 161456Z 27008KT 10SM FEW008 SCT030 BKN100 21/19 A3019 RMK AO2 SLP224 60001 T02060189 53003 $ (JMB)","FM-15","7",,,,,,,,,,,,,,,,,,,,,,,,,,,,"2009-06-10"
"72208013880","2020-01-16T10:00:00","FM-12","4",,"SE","0.25","mi","TEMP, PRECIP, SNOW",,,"MMTS, SRG, SNOWBOARD",,,"WFO CHS",,,,,,,,,,,,,,,,,,,,,,,,,,,"30.19","66","69",,,"-0.01","3","90","30.19","8","30.14","9.94","67","270",,"9",,,,,,,,,,,,,,,,,,,,,,,,,,,,,,,,,,,,,"SYN07072208 12366 62708 10206 20189 30207 40224 53003 69937 91456 555 91615=","FM-12","4",,,,,,,,,,,,,,,,,,,,,,,,,,,,"2009-06-10"
"72208013880","2020-01-16T10:56:00","FM-15","7",,"SE","0.25","mi","TEMP, PRECIP, SNOW",,,"MMTS, SRG, SNOWBOARD",,,"WFO CHS",,,,,,,,,,,,,,,,,,,,,,,,,,,"30.20","65","72","0.00",,,,"79","30.19","FEW:02 12 FEW:02 100 BKN:07 250","30.15","10.00","68","290",,"11",,,,,,,,,,,,,,,,,,,,,,,,,,,,,,,,,,,,,"MET11501/16/20 10:56:02 METAR KCHS 161556Z 29010KT 10SM FEW012 FEW100 BKN250 22/18 A3020 RMK AO2 SLP224 T02220183 $ (JMB)","FM-15","7",,,,,,,,,,,,,,,,,,,,,,,,,,,,"2009-06-10"
"72208013880","2020-01-16T11:56:00","FM-15","7",,"SE","0.25","mi","TEMP, PRECIP, SNOW",,,"MMTS, SRG, SNOWBOARD",,,"WFO CHS",,,,,,,,,,,,,,,,,,,,,,,,,,,"30.18","61","75","0.00",,,,"62","30.18","FEW:02 25 SCT:04 250","30.13","10.00","66","310","24","20",,,,,,,,,,,,,,,,,,,,,,,,,,,,,,,,,,,,,"MET10901/16/20 11:56:02 METAR KCHS 161656Z 31017G21KT 10SM FEW025 SCT250 24/16 A3018 RMK AO2 SLP219 T02390161 (JMB)","FM-15","7",,,,,,,,,,,,,,,,,,,,,,,,,,,,"2009-06-10"
"72208013880","2020-01-16T12:56:00","FM-15","7",,"SE","0.25","mi","TEMP, PRECIP, SNOW",,,"MMTS, SRG, SNOWBOARD",,,"WFO CHS",,,,,,,,,,,,,,,,,,,,,,,,,,,"30.17","60","76","0.00",,"+0.02","8","58","30.16","FEW:02 25 FEW:02 250","30.12","10.00","66","300","24","17",,,,,,,,,,,,,,,,,,,,,,,,,,,,,,,,,,,,,"MET13501/16/20 12:56:02 METAR KCHS 161756Z 30015G21KT 10SM FEW025 FEW250 24/16 A3017 RMK AO2 SLP215 60001 T02440156 10244 20183 58008 $ (JMB)","FM-15","7",,,,,,,,,,,,,,,,,,,,,,,,,,,,"2009-06-10"
"72208013880","2020-01-16T13:00:00","FM-12","4",,"SE","0.25","mi","TEMP, PRECIP, SNOW",,,"MMTS, SRG, SNOWBOARD",,,"WFO CHS",,,,,,,,,,,,,,,,,,,,,,,,,,,"30.17","60","76",,,"+0.02","8","58","30.16","26","30.12","9.94","66","300",,"17",,,,,,,,,,,,,,,,,,,,,,,,,,,,,,,,,,,,,"SYN09272208 12566 23015 10244 20156 30201 40215 58008 69931 91756 333 10244 20183 91021 555 91618=","FM-12","4",,,,,,,,,,,,,,,,,,,,,,,,,,,,"2009-06-10"
"72208013880","2020-01-16T13:56:00","FM-15","7",,"SE","0.25","mi","TEMP, PRECIP, SNOW",,,"MMTS, SRG, SNOWBOARD",,,"WFO CHS",,,,,,,,,,,,,,,,,,,,,,,,,,,"30.16","61","78","0.00",,,,"56","30.16","BKN:07 30","30.11","10.00","67","340",,"17",,,,,,,,,,,,,,,,,,,,,,,,,,,,,,,,,,,,,"MET10101/16/20 13:56:02 METAR KCHS 161856Z 34015KT 10SM BKN030 26/16 A3016 RMK AO2 SLP213 T02560161 $ (JMB)","FM-15","7",,,,,,,,,,,,,,,,,,,,,,,,,,,,"2009-06-10"
"72208013880","2020-01-16T14:56:00","FM-15","7",,"SE","0.25","mi","TEMP, PRECIP, SNOW",,,"MMTS, SRG, SNOWBOARD",,,"WFO CHS",,,,,,,,,,,,,,,,,,,,,,,,,,,"30.16","58","75","0.00",,,,"55","30.16","FEW:02 35 SCT:04 40","30.11","10.00","65","350",,"14",,,,,,,,,,,,,,,,,,,,,,,,,,,,,,,,,,,,,"MET10801/16/20 14:56:02 METAR KCHS 161956Z 35012KT 10SM FEW035 SCT040 24/14 A3016 RMK AO2 SLP213 T02390144 $ (JMB)","FM-15","7",,,,,,,,,,,,,,,,,,,,,,,,,,,,"2009-06-10"
"72208013880","2020-01-16T15:56:00","FM-15","7",,"SE","0.25","mi","TEMP, PRECIP, SNOW",,,"MMTS, SRG, SNOWBOARD",,,"WFO CHS",,,,,,,,,,,,,,,,,,,,,,,,,,,"30.18","57","76","0.00",,"-0.01","3","52","30.18","FEW:02 40 SCT:04 200","30.13","10.00","65","340",,"16",,,,,,,,,,,,,,,,,,,,,,,,,,,,,,,,,,,,,"MET11401/16/20 15:56:02 METAR KCHS 162056Z 34014KT 10SM FEW040 SCT200 24/14 A3018 RMK AO2 SLP219 T02440139 53003 $ (BBE)","FM-15","7",,,,,,,,,,,,,,,,,,,,,,,,,,,,"2009-06-10"
"72208013880","2020-01-16T16:00:00","FM-12","4",,"SE","0.25","mi","TEMP, PRECIP, SNOW",,,"MMTS, SRG, SNOWBOARD",,,"WFO CHS",,,,,,,,,,,,,,,,,,,,,,,,,,,"30.18","57","76",,,"-0.01","3","52","30.18","41","30.13","9.94","65","340",,"16",,,,,,,,,,,,,,,,,,,,,,,,,,,,,,,,,,,,,"SYN06472208 32666 43414 10244 20139 30204 40219 53003 92056 555 91621=","FM-12","4",,,,,,,,,,,,,,,,,,,,,,,,,,,,"2009-06-10"
"72208013880","2020-01-16T16:56:00","FM-15","7",,"SE","0.25","mi","TEMP, PRECIP, SNOW",,,"MMTS, SRG, SNOWBOARD",,,"WFO CHS",,,,,,,,,,,,,,,,,,,,,,,,,,,"30.21","45","74","0.00",,,,"36","30.21","FEW:02 40 SCT:04 150 BKN:07 200","30.16","10.00","58","360","25","15",,,,,,,,,,,,,,,,,,,,,,,,,,,,,,,,,,,,,"MET11601/16/20 16:56:02 METAR KCHS 162156Z 36013G22KT 10SM FEW040 SCT150 BKN200 23/07 A3021 RMK AO2 SLP230 T02330072 (BBE)","FM-15","7",,,,,,,,,,,,,,,,,,,,,,,,,,,,"2009-06-10"
"72208013880","2020-01-16T17:56:00","FM-15","7",,"SE","0.25","mi","TEMP, PRECIP, SNOW",,,"MMTS, SRG, SNOWBOARD",,,"WFO CHS",,,,,,,,,,,,,,,,,,,,,,,,,,,"30.25","46","69","0.00",,,,"44","30.25","FEW:02 180 FEW:02 250","30.20","10.00","57","010",,"10",,,,,,,,,,,,,,,,,,,,,,,,,,,,,,,,,,,,,"MET10601/16/20 17:56:02 METAR KCHS 162256Z 01009KT 10SM FEW180 FEW250 21/08 A3025 RMK AO2 SLP243 T02060078 (BBE)","FM-15","7",,,,,,,,,,,,,,,,,,,,,,,,,,,,"2009-06-10"
"72208013880","2020-01-16T18:56:00","FM-15","7",,"SE","0.25","mi","TEMP, PRECIP, SNOW",,,"MMTS, SRG, SNOWBOARD",,,"WFO CHS",,,,,,,,,,,,,,,,,,,,,,,,,,,"30.29","38","67","0.00",,"-0.11","3","35","30.29","SCT:04 250","30.24","10.00","53","010",,"15",,,,,,,,,,,,,,,,,,,,,,,,,,,,,,,,,,,,,"MET11901/16/20 18:56:02 METAR KCHS 162356Z 01013KT 10SM SCT250 19/03 A3029 RMK AO2 SLP256 T01940033 10256 20194 53038 $ (BBE)","FM-15","7",,,,,,,,,,,,,,,,,,,,,,,,,,,,"2009-06-10"
"72208013880","2020-01-16T19:00:00","FM-12","4",,"SE","0.25","mi","TEMP, PRECIP, SNOW",,,"MMTS, SRG, SNOWBOARD",,,"WFO CHS",,,,,,,,,,,,,,,,,,,,,,,,,,,"30.29","38","67",,,"-0.11","3","35","30.29",,"30.24","9.94","53","010",,"15",,,,,,,,,,,,,,,,,,,,,,,,,,,,,,,,,,,,,"SYN08072208 32966 40113 10194 20033 30241 40256 53038 92356 333 10256 20167 555 91700=","FM-12","4",,,,,,,,,,,,,,,,,,,,,,,,,,,,"2009-06-10"
"72208013880","2020-01-16T19:56:00","FM-15","7",,"SE","0.25","mi","TEMP, PRECIP, SNOW",,,"MMTS, SRG, SNOWBOARD",,,"WFO CHS",,,,,,,,,,,,,,,,,,,,,,,,,,,"30.32","32","63","0.00",,,,"31","30.32","SCT:04 150 SCT:04 250","30.27","10.00","49","360",,"11",,,,,,,,,,,,,,,,,,,,,,,,,,,,,,,,,,,,,"MET10201/16/20 19:56:01 METAR KCHS 170056Z 36010KT 10SM SCT150 SCT250 17/00 A3032 RMK AO2 SLP267 T01720000 $","FM-15","7",,,,,,,,,,,,,,,,,,,,,,,,,,,,"2009-06-10"
"72208013880","2020-01-16T20:56:00","FM-15","7",,"SE","0.25","mi","TEMP, PRECIP, SNOW",,,"MMTS, SRG, SNOWBOARD",,,"WFO CHS",,,,,,,,,,,,,,,,,,,,,,,,,,,"30.35","33","61","0.00",,,,"35","30.35","BKN:07 150","30.29","10.00","48","340",,"13",,,,,,,,,,,,,,,,,,,,,,,,,,,,,,,,,,,,,"MET09501/16/20 20:56:01 METAR KCHS 170156Z 34011KT 10SM BKN150 16/01 A3035 RMK AO2 SLP276 T01610006 $","FM-15","7",,,,,,,,,,,,,,,,,,,,,,,,,,,,"2009-06-10"
"72208013880","2020-01-16T21:56:00","FM-15","7",,"SE","0.25","mi","TEMP, PRECIP, SNOW",,,"MMTS, SRG, SNOWBOARD",,,"WFO CHS",,,,,,,,,,,,,,,,,,,,,,,,,,,"30.36","32","58","0.00",,"-0.06","1","38","30.35","SCT:04 150 SCT:04 250","30.31","10.00","46","350",,"10",,,,,,,,,,,,,,,,,,,,,,,,,,,,,,,,,,,,,"MET10801/16/20 21:56:01 METAR KCHS 170256Z 35009KT 10SM SCT150 SCT250 14/00 A3036 RMK AO2 SLP279 T01440000 51022 $","FM-15","7",,,,,,,,,,,,,,,,,,,,,,,,,,,,"2009-06-10"
"72208013880","2020-01-16T22:00:00","FM-12","4",,"SE","0.25","mi","TEMP, PRECIP, SNOW",,,"MMTS, SRG, SNOWBOARD",,,"WFO CHS",,,,,,,,,,,,,,,,,,,,,,,,,,,"30.36","32","58",,,"-0.06","1","38","30.35",,"30.31","9.94","46","350",,"10",,,,,,,,,,,,,,,,,,,,,,,,,,,,,,,,,,,,,"SYN06472208 32966 43509 10144 20000 30265 40279 51022 90256 555 91703=","FM-12","4",,,,,,,,,,,,,,,,,,,,,,,,,,,,"2009-06-10"
"72208013880","2020-01-16T22:56:00","FM-15","7",,"SE","0.25","mi","TEMP, PRECIP, SNOW",,,"MMTS, SRG, SNOWBOARD",,,"WFO CHS",,,,,,,,,,,,,,,,,,,,,,,,,,,"30.37","32","54","0.00",,,,"43","30.37","FEW:02 150 FEW:02 250","30.32","10.00","44","340",,"10",,,,,,,,,,,,,,,,,,,,,,,,,,,,,,,,,,,,,"MET10201/16/20 22:56:01 METAR KCHS 170356Z 34009KT 10SM FEW150 FEW250 12/00 A3037 RMK AO2 SLP283 T01220000 $","FM-15","7",,,,,,,,,,,,,,,,,,,,,,,,,,,,"2009-06-10"
"72208013880","2020-01-16T23:56:00","FM-15","7",,"SE","0.25","mi","TEMP, PRECIP, SNOW",,,"MMTS, SRG, SNOWBOARD",,,"WFO CHS",,,,,,,,,,,,,,,,,,,,,,,,,,,"30.37","31","54","0.00",,,,"42","30.37","FEW:02 200","30.32","10.00","44","350",,"10",,,,,,,,,,,,,,,,,,,,,,,,,,,,,,,,,,,,,"MET10601/16/20 23:56:02 METAR KCHS 170456Z 35009KT 10SM FEW200 12/M01 A3037 RMK AO2 SLP283 T01221006 402560117 $","FM-15","7",,,,,,,,,,,,,,,,,,,,,,,,,,,,"2009-06-10"
"72208013880","2020-01-16T23:59:00","SOD  ","6",,"SE","0.25","mi","TEMP, PRECIP, SNOW",,,"MMTS, SRG, SNOWBOARD",,,"WFO CHS",,,,"54","66","66","30.21","30.14","60","11.2","1","18.0","0","78","53","300","25","0.01","0","0.0","340","21","RA",,,,,,,,,,,,,,,,,,,,,,,,,,,,,,,,,,,,,,,,,,,,,,,,,,,,,,,,"SOD73924 HR PRECIPITATION (IN): 0.01 SNOW DEPTH (IN):0     24 HR SNOWFALL (IN):0.0  24 HR MAX TEMP (F): 7824 HR MIN TEMP (F): 53AVERAGE STATION PRESSURE:30.145 MINIMUM SEA LEVEL PRESSURE:30.13 TIME OF OCCURRENCE:0449 PEAK WIND SPEED (MPH): 25 PEAK WIND DIR (DEG):300 PEAK WIND TIME (LST):      FASTEST 2MIN SPEED (MPH): 21FASTEST 2MIN DIR (DEG):340 FASTEST 2MIN TIME (LST):     AVERAGE WIND SPEED (MPH):11.2 24 HR AVG TEMP (F): 66DEPART FROM NORMAL: 18  HEATING DEGREE DAYS:  0 COOLING DEGREE DAYS:  1 LATEST DAY MAX TEMP (0700-1900 LST):78  LATEST NIGHT MIN TEMP(1900-0800 LST):62 HOURLY INCREMENTAL PRECIPITATION VALUES (IN):.00 0.00 0.00 0.00 0.00 0.00 T    0.01 T    0.00 0.00 0.00 0.00 0.00 0.00 0.00 0.00 0.00 0.00 0.00 0.00 0.00 0.00 0.00","SOD  ","6",,,,,,,,,,,,,,,,,,,,,,,,,"0723","1737",,"2009-06-10"
"72208013880","2020-01-17T00:56:00","FM-15","7",,"SE","0.25","mi","TEMP, PRECIP, SNOW",,,"MMTS, SRG, SNOWBOARD",,,"WFO CHS",,,,,,,,,,,,,,,,,,,,,,,,,,,"30.38","32","53","0.00",,"-0.03","3","45","30.38","SCT:04 200","30.33","10.00","44","340",,"9",,,,,,,,,,,,,,,,,,,,,,,,,,,,,,,,,,,,,"MET11901/17/20 00:56:02 METAR KCHS 170556Z 34008KT 10SM SCT200 12/00 A3038 RMK AO2 SLP288 T01170000 10194 20106 53009 $ (KLJ)","FM-15","7",,,,,,,,,,,,,,,,,,,,,,,,,,,,"2009-06-10"
"72208013880","2020-01-17T01:00:00","FM-12","4",,"SE","0.25","mi","TEMP, PRECIP, SNOW",,,"MMTS, SRG, SNOWBOARD",,,"WFO CHS",,,,,,,,,,,,,,,,,,,,,,,,,,,"30.38","32","53",,,"-0.03","3","45","30.38",,"30.33","9.94","44","340",,"9",,,,,,,,,,,,,,,,,,,,,,,,,,,,,,,,,,,,,"SYN08072208 32966 43408 10117 20000 30272 40288 53009 90556 333 10194 20106 555 91706=","FM-12","4",,,,,,,,,,,,,,,,,,,,,,,,,,,,"2009-06-10"
"72208013880","2020-01-17T01:56:00","FM-15","7",,"SE","0.25","mi","TEMP, PRECIP, SNOW",,,"MMTS, SRG, SNOWBOARD",,,"WFO CHS",,,,,,,,,,,,,,,,,,,,,,,,,,,"30.40","30","53","0.00",,,,"41","30.39","BKN:07 200","30.35","10.00","43","350",,"11",,,,,,,,,,,,,,,,,,,,,,,,,,,,,,,,,,,,,"MET10201/17/20 01:56:02 METAR KCHS 170656Z 35010KT 10SM BKN200 12/M01 A3040 RMK AO2 SLP292 T01171011 $ (KLJ)","FM-15","7",,,,,,,,,,,,,,,,,,,,,,,,,,,,"2009-06-10"
"72208013880","2020-01-17T02:56:00","FM-15","7",,"SE","0.25","mi","TEMP, PRECIP, SNOW",,,"MMTS, SRG, SNOWBOARD",,,"WFO CHS",,,,,,,,,,,,,,,,,,,,,,,,,,,"30.40","24","55","0.00",,,,"30","30.40","BKN:07 200","30.35","10.00","42","010",,"13",,,,,,,,,,,,,,,,,,,,,,,,,,,,,,,,,,,,,"MET10201/17/20 02:56:02 METAR KCHS 170756Z 01011KT 10SM BKN200 13/M04 A3040 RMK AO2 SLP295 T01281044 $ (KLJ)","FM-15","7",,,,,,,,,,,,,,,,,,,,,,,,,,,,"2009-06-10"
"72208013880","2020-01-17T03:56:00","FM-15","7",,"SE","0.25","mi","TEMP, PRECIP, SNOW",,,"MMTS, SRG, SNOWBOARD",,,"WFO CHS",,,,,,,,,,,,,,,,,,,,,,,,,,,"30.42","25","54","0.00",,"-0.04","3","33","30.42","BKN:07 200","30.37","10.00","42","020",,"11",,,,,,,,,,,,,,,,,,,,,,,,,,,,,,,,,,,,,"MET10801/17/20 03:56:02 METAR KCHS 170856Z 02010KT 10SM BKN200 12/M04 A3042 RMK AO2 SLP300 T01221039 53013 $ (KLJ)","FM-15","7",,,,,,,,,,,,,,,,,,,,,,,,,,,,"2009-06-10"
"72208013880","2020-01-17T04:00:00","FM-12","4",,"SE","0.25","mi","TEMP, PRECIP, SNOW",,,"MMTS, SRG, SNOWBOARD",,,"WFO CHS",,,,,,,,,,,,,,,,,,,,,,,,,,,"30.42","25","54",,,"-0.04","3","33","30.42",,"30.37","9.94","42","020",,"11",,,,,,,,,,,,,,,,,,,,,,,,,,,,,,,,,,,,,"SYN06472208 32966 60210 10122 21039 30285 40300 53013 90856 555 91709=","FM-12","4",,,,,,,,,,,,,,,,,,,,,,,,,,,,"2009-06-10"
"72208013880","2020-01-17T04:56:00","FM-15","7",,"SE","0.25","mi","TEMP, PRECIP, SNOW",,,"MMTS, SRG, SNOWBOARD",,,"WFO CHS",,,,,,,,,,,,,,,,,,,,,,,,,,,"30.44","22","53","0.00",,,,"30","30.44","BKN:07 210","30.39","10.00","41","020","24","14",,,,,,,,,,,,,,,,,,,,,,,,,,,,,,,,,,,,,"MET10501/17/20 04:56:02 METAR KCHS 170956Z 02012G21KT 10SM BKN210 12/M06 A3044 RMK AO2 SLP308 T01171056 $ (KLJ)","FM-15","7",,,,,,,,,,,,,,,,,,,,,,,,,,,,"2009-06-10"
"72208013880","2020-01-17T05:56:00","FM-15","7",,"SE","0.25","mi","TEMP, PRECIP, SNOW",,,"MMTS, SRG, SNOWBOARD",,,"WFO CHS",,,,,,,,,,,,,,,,,,,,,,,,,,,"30.48","23","49","0.00",,,,"36","30.48","FEW:02 210","30.42","10.00","39","030",,"10",,,,,,,,,,,,,,,,,,,,,,,,,,,,,,,,,,,,,"MET10201/17/20 05:56:02 METAR KCHS 171056Z 03009KT 10SM FEW210 09/M05 A3048 RMK AO2 SLP322 T00941050 $ (KLJ)","FM-15","7",,,,,,,,,,,,,,,,,,,,,,,,,,,,"2009-06-10"
"72208013880","2020-01-17T06:56:00","FM-15","7",,"SE","0.25","mi","TEMP, PRECIP, SNOW",,,"MMTS, SRG, SNOWBOARD",,,"WFO CHS",,,,,,,,,,,,,,,,,,,,,,,,,,,"30.52","22","48","0.00",,"-0.10","3","36","30.52","FEW:02 200","30.47","10.00","38","030",,"13",,,,,,,,,,,,,,,,,,,,,,,,,,,,,,,,,,,,,"MET12601/17/20 06:56:02 METAR KCHS 171156Z 03011KT 10SM FEW200 09/M06 A3052 RMK AO2 SLP335 70001 T00891056 10128 20089 53034 $ (MBT)","FM-15","7",,,,,,,,,,,,,,,,,,,,,,,,,,,,"2009-06-10"
"72208013880","2020-01-17T07:00:00","FM-12","4",,"SE","0.25","mi","TEMP, PRECIP, SNOW",,,"MMTS, SRG, SNOWBOARD",,,"WFO CHS",,,,,,,,,,,,,,,,,,,,,,,,,,,"30.52","22","48",,,"-0.10","3","36","30.52",,"30.47","9.94","38","030",,"13",,,,,,,,,,,,,,,,,,,,,,,,,,,,,,,,,,,,,"SYN08672208 32966 20311 10089 21056 30319 40335 53034 91156 333 10256 20089 70003 555 91712=","FM-12","4",,,,,,,,,,,,,,,,,,,,,,,,,,,,"2009-06-10"
"72208013880","2020-01-17T07:56:00","FM-15","7",,"SE","0.25","mi","TEMP, PRECIP, SNOW",,,"MMTS, SRG, SNOWBOARD",,,"WFO CHS",,,,,,,,,,,,,,,,,,,,,,,,,,,"30.56","21","47","0.00",,,,"36","30.56","FEW:02 200","30.50","10.00","37","040",,"14",,,,,,,,,,,,,,,,,,,,,,,,,,,,,,,,,,,,,"MET10201/17/20 07:56:02 METAR KCHS 171256Z 04012KT 10SM FEW200 08/M06 A3056 RMK AO2 SLP349 T00831061 $ (MBT)","FM-15","7",,,,,,,,,,,,,,,,,,,,,,,,,,,,"2009-06-10"
"72208013880","2020-01-17T08:56:00","FM-15","7",,"SE","0.25","mi","TEMP, PRECIP, SNOW",,,"MMTS, SRG, SNOWBOARD",,,"WFO CHS",,,,,,,,,,,,,,,,,,,,,,,,,,,"30.59","21","49","0.00",,,,"33","30.58","FEW:02 200","30.54","10.00","38","040",,"16",,,,,,,,,,,,,,,,,,,,,,,,,,,,,,,,,,,,,"MET10201/17/20 08:56:02 METAR KCHS 171356Z 04014KT 10SM FEW200 09/M06 A3059 RMK AO2 SLP357 T00941061 $ (MBT)","FM-15","7",,,,,,,,,,,,,,,,,,,,,,,,,,,,"2009-06-10"
"72208013880","2020-01-17T09:56:00","FM-15","7",,"SE","0.25","mi","TEMP, PRECIP, SNOW",,,"MMTS, SRG, SNOWBOARD",,,"WFO CHS",,,,,,,,,,,,,,,,,,,,,,,,,,,"30.61","20","50","0.00",,"-0.09","1","30","30.60","FEW:02 200","30.55","10.00","39","050","23","18",,,,,,,,,,,,,,,,,,,,,,,,,,,,,,,,,,,,,"MET11101/17/20 09:56:02 METAR KCHS 171456Z 05016G20KT 10SM FEW200 10/M07 A3061 RMK AO2 SLP363 T01001067 51029 $ (MBT)","FM-15","7",,,,,,,,,,,,,,,,,,,,,,,,,,,,"2009-06-10"
"72208013880","2020-01-17T10:00:00","FM-12","4",,"SE","0.25","mi","TEMP, PRECIP, SNOW",,,"MMTS, SRG, SNOWBOARD",,,"WFO CHS",,,,,,,,,,,,,,,,,,,,,,,,,,,"30.61","20","50",,,"-0.09","1","30","30.60",,"30.56","9.94","39","050",,"18",,,,,,,,,,,,,,,,,,,,,,,,,,,,,,,,,,,,,"SYN07472208 32966 20516 10100 21067 30349 40363 51029 91456 333 91020 555 91715=","FM-12","4",,,,,,,,,,,,,,,,,,,,,,,,,,,,"2009-06-10"
"72208013880","2020-01-17T10:56:00","FM-15","7",,"SE","0.25","mi","TEMP, PRECIP, SNOW",,,"MMTS, SRG, SNOWBOARD",,,"WFO CHS",,,,,,,,,,,,,,,,,,,,,,,,,,,"30.62","20","51","0.00",,,,"29","30.62","CLR:00","30.57","10.00","39","040",,"16",,,,,,,,,,,,,,,,,,,,,,,,,,,,,,,,,,,,,"MET09901/17/20 10:56:02 METAR KCHS 171556Z 04014KT 10SM CLR 11/M07 A3062 RMK AO2 SLP368 T01061067 $ (MBT)","FM-15","7",,,,,,,,,,,,,,,,,,,,,,,,,,,,"2009-06-10"
"72208013880","2020-01-17T11:56:00","FM-15","7",,"SE","0.25","mi","TEMP, PRECIP, SNOW",,,"MMTS, SRG, SNOWBOARD",,,"WFO CHS",,,,,,,,,,,,,,,,,,,,,,,,,,,"30.61","21","52","0.00",,,,"30","30.61","FEW:02 250","30.55","10.00","40","050",,"14",,,,,,,,,,,,,,,,,,,,,,,,,,,,,,,,,,,,,"MET10001/17/20 11:56:02 METAR KCHS 171656Z 05012KT 10SM FEW250 11/M06 A3061 RMK AO2 SLP365 T01111061 (MBT)","FM-15","7",,,,,,,,,,,,,,,,,,,,,,,,,,,,"2009-06-10"
"72208013880","2020-01-17T12:56:00","FM-15","7",,"SE","0.25","mi","TEMP, PRECIP, SNOW",,,"MMTS, SRG, SNOWBOARD",,,"WFO CHS",,,,,,,,,,,,,,,,,,,,,,,,,,,"30.58","21","54","0.00",,"+0.03","8","28","30.58","FEW:02 250","30.53","10.00","41","040",,"16",,,,,,,,,,,,,,,,,,,,,,,,,,,,,,,,,,,,,"MET11801/17/20 12:56:02 METAR KCHS 171756Z 04014KT 10SM FEW250 12/M06 A3058 RMK AO2 SLP354 T01221061 10122 20083 58010 (MBT)","FM-15","7",,,,,,,,,,,,,,,,,,,,,,,,,,,,"2009-06-10"
"72208013880","2020-01-17T13:00:00","FM-12","4",,"SE","0.25","mi","TEMP, PRECIP, SNOW",,,"MMTS, SRG, SNOWBOARD",,,"WFO CHS",,,,,,,,,,,,,,,,,,,,,,,,,,,"30.58","21","54",,,"+0.03","8","28","30.58",,"30.53","9.94","41","040",,"16",,,,,,,,,,,,,,,,,,,,,,,,,,,,,,,,,,,,,"SYN08072208 32966 20414 10122 21061 30339 40354 58010 91756 333 10128 20083 555 91718=","FM-12","4",,,,,,,,,,,,,,,,,,,,,,,,,,,,"2009-06-10"
"72208013880","2020-01-17T13:56:00","FM-15","7",,"SE","0.25","mi","TEMP, PRECIP, SNOW",,,"MMTS, SRG, SNOWBOARD",,,"WFO CHS",,,,,,,,,,,,,,,,,,,,,,,,,,,"30.57","20","55","0.00",,,,"25","30.57","FEW:02 250","30.52","10.00","41","VRB",,"8",,,,,,,,,,,,,,,,,,,,,,,,,,,,,,,,,,,,,"MET10201/17/20 13:56:02 METAR KCHS 171856Z 07007KT 10SM FEW250 13/M07 A3057 RMK AO2 SLP351 T01281067 $ (MBT)","FM-15","7",,,,,,,,,,,,,,,,,,,,,,,,,,,,"2009-06-10"
"72208013880","2020-01-17T14:56:00","FM-15","7",,"SE","0.25","mi","TEMP, PRECIP, SNOW",,,"MMTS, SRG, SNOWBOARD",,,"WFO CHS",,,,,,,,,,,,,,,,,,,,,,,,,,,"30.56","19","55","0.00",,,,"24","30.56","FEW:02 250","30.50","10.00","41","VRB",,"5",,,,,,,,,,,,,,,,,,,,,,,,,,,,,,,,,,,,,"MET10001/17/20 14:56:02 METAR KCHS 171956Z VRB04KT 10SM FEW250 13/M07 A3056 RMK AO2 SLP349 T01281072 (MBT)","FM-15","7",,,,,,,,,,,,,,,,,,,,,,,,,,,,"2009-06-10"
"72208013880","2020-01-17T15:56:00","FM-15","7",,"SE","0.25","mi","TEMP, PRECIP, SNOW",,,"MMTS, SRG, SNOWBOARD",,,"WFO CHS",,,,,,,,,,,,,,,,,,,,,,,,,,,"30.57","21","54","0.00",,"+0.00","5","28","30.57","FEW:02 250","30.52","10.00","41","050",,"9",,,,,,,,,,,,,,,,,,,,,,,,,,,,,,,,,,,,,"MET10801/17/20 15:56:02 METAR KCHS 172056Z 05008KT 10SM FEW250 12/M06 A3057 RMK AO2 SLP352 T01221061 55001 $ (BBE)","FM-15","7",,,,,,,,,,,,,,,,,,,,,,,,,,,,"2009-06-10"
"72208013880","2020-01-17T16:00:00","FM-12","4",,"SE","0.25","mi","TEMP, PRECIP, SNOW",,,"MMTS, SRG, SNOWBOARD",,,"WFO CHS",,,,,,,,,,,,,,,,,,,,,,,,,,,"30.57","21","54",,,"+0.00","5","28","30.57",,"30.52","9.94","41","050",,"9",,,,,,,,,,,,,,,,,,,,,,,,,,,,,,,,,,,,,"SYN06472208 32966 20508 10122 21061 30336 40352 55001 92056 555 91721=","FM-12","4",,,,,,,,,,,,,,,,,,,,,,,,,,,,"2009-06-10"
"72208013880","2020-01-17T16:56:00","FM-15","7",,"SE","0.25","mi","TEMP, PRECIP, SNOW",,,"MMTS, SRG, SNOWBOARD",,,"WFO CHS",,,,,,,,,,,,,,,,,,,,,,,,,,,"30.59","30","51","0.00",,,,"44","30.59","FEW:02 150 SCT:04 250","30.54","10.00","42","110",,"8",,,,,,,,,,,,,,,,,,,,,,,,,,,,,,,,,,,,,"MET10901/17/20 16:56:02 METAR KCHS 172156Z 11007KT 10SM FEW150 SCT250 11/M01 A3059 RMK AO2 SLP359 T01061011 $ (BBE)","FM-15","7",,,,,,,,,,,,,,,,,,,,,,,,,,,,"2009-06-10"
"72208013880","2020-01-17T17:56:00","FM-15","7",,"SE","0.25","mi","TEMP, PRECIP, SNOW",,,"MMTS, SRG, SNOWBOARD",,,"WFO CHS",,,,,,,,,,,,,,,,,,,,,,,,,,,"30.60","29","48","0.00",,,,"48","30.60","FEW:02 120 FEW:02 250","30.55","10.00","40","080",,"10",,,,,,,,,,,,,,,,,,,,,,,,,,,,,,,,,,,,,"MET10901/17/20 17:56:02 METAR KCHS 172256Z 08009KT 10SM FEW120 FEW250 09/M02 A3060 RMK AO2 SLP361 T00891017 $ (BBE)","FM-15","7",,,,,,,,,,,,,,,,,,,,,,,,,,,,"2009-06-10"
"72208013880","2020-01-17T18:56:00","FM-15","7",,"SE","0.25","mi","TEMP, PRECIP, SNOW",,,"MMTS, SRG, SNOWBOARD",,,"WFO CHS",,,,,,,,,,,,,,,,,,,,,,,,,,,"30.63","28","46","0.00",,"-0.05","3","50","30.62","FEW:02 120","30.58","10.00","39","080",,"10",,,,,,,,,,,,,,,,,,,,,,,,,,,,,,,,,,,,,"MET12001/17/20 18:56:02 METAR KCHS 172356Z 08009KT 10SM FEW120 08/M02 A3063 RMK AO2 SLP370 T00781022 10133 20078 53018 $ (BBE)","FM-15","7",,,,,,,,,,,,,,,,,,,,,,,,,,,,"2009-06-10"
"72208013880","2020-01-17T19:00:00","FM-12","4",,"SE","0.25","mi","TEMP, PRECIP, SNOW",,,"MMTS, SRG, SNOWBOARD",,,"WFO CHS",,,,,,,,,,,,,,,,,,,,,,,,,,,"30.63","28","46",,,"-0.05","3","50","30.62",,"30.58","9.94","39","080",,"10",,,,,,,,,,,,,,,,,,,,,,,,,,,,,,,,,,,,,"SYN08072208 32966 20809 10078 21022 30356 40370 53018 92356 333 10133 20078 555 91800=","FM-12","4",,,,,,,,,,,,,,,,,,,,,,,,,,,,"2009-06-10"
"72208013880","2020-01-17T19:56:00","FM-15","7",,"SE","0.25","mi","TEMP, PRECIP, SNOW",,,"MMTS, SRG, SNOWBOARD",,,"WFO CHS",,,,,,,,,,,,,,,,,,,,,,,,,,,"30.62","28","44","0.00",,,,"53","30.62","CLR:00","30.57","10.00","38","080",,"6",,,,,,,,,,,,,,,,,,,,,,,,,,,,,,,,,,,,,"MET09301/17/20 19:56:01 METAR KCHS 180056Z 08005KT 10SM CLR 07/M02 A3062 RMK AO2 SLP369 T00671022 $","FM-15","7",,,,,,,,,,,,,,,,,,,,,,,,,,,,"2009-06-10"
"72208013880","2020-01-17T20:56:00","FM-15","7",,"SE","0.25","mi","TEMP, PRECIP, SNOW",,,"MMTS, SRG, SNOWBOARD",,,"WFO CHS",,,,,,,,,,,,,,,,,,,,,,,,,,,"30.62","28","42","0.00",,,,"58","30.62","FEW:02 35 FEW:02 120","30.57","10.00","36","050",,"6",,,,,,,,,,,,,,,,,,,,,,,,,,,,,,,,,,,,,"MET10301/17/20 20:56:01 METAR KCHS 180156Z 05005KT 10SM FEW035 FEW120 06/M02 A3062 RMK AO2 SLP369 T00561022 $","FM-15","7",,,,,,,,,,,,,,,,,,,,,,,,,,,,"2009-06-10"
"72208013880","2020-01-17T21:56:00","FM-15","7",,"SE","0.25","mi","TEMP, PRECIP, SNOW",,,"MMTS, SRG, SNOWBOARD",,,"WFO CHS",,,,,,,,,,,,,,,,,,,,,,,,,,,"30.62","29","41","0.00",,"+0.00","6","62","30.62","CLR:00","30.57","10.00","36","040",,"6",,,,,,,,,,,,,,,,,,,,,,,,,,,,,,,,,,,,,"MET09901/17/20 21:56:01 METAR KCHS 180256Z 04005KT 10SM CLR 05/M02 A3062 RMK AO2 SLP369 T00501017 56001 $","FM-15","7",,,,,,,,,,,,,,,,,,,,,,,,,,,,"2009-06-10"
"72208013880","2020-01-17T22:00:00","FM-12","4",,"SE","0.25","mi","TEMP, PRECIP, SNOW",,,"MMTS, SRG, SNOWBOARD",,,"WFO CHS",,,,,,,,,,,,,,,,,,,,,,,,,,,"30.62","29","41",,,"+0.00","6","62","30.62",,"30.57","9.94","36","040",,"6",,,,,,,,,,,,,,,,,,,,,,,,,,,,,,,,,,,,,"SYN06472208 32966 00405 10050 21017 30353 40369 56001 90256 555 91803=","FM-12","4",,,,,,,,,,,,,,,,,,,,,,,,,,,,"2009-06-10"
"72208013880","2020-01-17T22:56:00","FM-15","7",,"SE","0.25","mi","TEMP, PRECIP, SNOW",,,"MMTS, SRG, SNOWBOARD",,,"WFO CHS",,,,,,,,,,,,,,,,,,,,,,,,,,,"30.61","29","41","0.00",,,,"62","30.61","CLR:00","30.55","10.00","36","040",,"8",,,,,,,,,,,,,,,,,,,,,,,,,,,,,,,,,,,,,"MET09301/17/20 22:56:01 METAR KCHS 180356Z 04007KT 10SM CLR 05/M02 A3061 RMK AO2 SLP365 T00501017 $","FM-15","7",,,,,,,,,,,,,,,,,,,,,,,,,,,,"2009-06-10"
"72208013880","2020-01-17T23:56:00","FM-15","7",,"SE","0.25","mi","TEMP, PRECIP, SNOW",,,"MMTS, SRG, SNOWBOARD",,,"WFO CHS",,,,,,,,,,,,,,,,,,,,,,,,,,,"30.60","28","41","0.00",,,,"60","30.59","CLR:00","30.55","10.00","36","030",,"10",,,,,,,,,,,,,,,,,,,,,,,,,,,,,,,,,,,,,"MET10301/17/20 23:56:02 METAR KCHS 180456Z 03009KT 10SM CLR 05/M02 A3060 RMK AO2 SLP360 T00501022 401330050 $","FM-15","7",,,,,,,,,,,,,,,,,,,,,,,,,,,,"2009-06-10"
"72208013880","2020-01-17T23:59:00","SOD  ","6",,"SE","0.25","mi","TEMP, PRECIP, SNOW",,,"MMTS, SRG, SNOWBOARD",,,"WFO CHS",,,,"25","49","39","30.55","30.47","40","10.9","0","1.0","16","56","41","050","26","0.00","0","0.0","040","21",,,,,,,,,,,,,,,,,,,,,,,,,,,,,,,,,,,,,,,,,,,,,,,,,,,,,,,,,"SOD73924 HR PRECIPITATION (IN): 0.00 SNOW DEPTH (IN):0     24 HR SNOWFALL (IN):0.0  24 HR MAX TEMP (F): 5624 HR MIN TEMP (F): 41AVERAGE STATION PRESSURE:30.470 MINIMUM SEA LEVEL PRESSURE:30.37 TIME OF OCCURRENCE:0034 PEAK WIND SPEED (MPH): 26 PEAK WIND DIR (DEG): 50 PEAK WIND TIME (LST):      FASTEST 2MIN SPEED (MPH): 21FASTEST 2MIN DIR (DEG): 40 FASTEST 2MIN TIME (LST):     AVERAGE WIND SPEED (MPH):10.9 24 HR AVG TEMP (F): 49DEPART FROM NORMAL:  1  HEATING DEGREE DAYS: 16 COOLING DEGREE DAYS:  0 LATEST DAY MAX TEMP (0700-1900 LST):56  LATEST NIGHT MIN TEMP(1900-0800 LST):47 HOURLY INCREMENTAL PRECIPITATION VALUES (IN):.00 0.00 0.00 0.00 0.00 0.00 0.00 0.00 0.00 0.00 0.00 0.00 0.00 0.00 0.00 0.00 0.00 0.00 0.00 0.00 0.00 0.00 0.00 0.00","SOD  ","6",,,,,,,,,,,,,,,,,,,,,,,,,"0723","1738",,"2009-06-10"
"72208013880","2020-01-18T00:56:00","FM-15","7",,"SE","0.25","mi","TEMP, PRECIP, SNOW",,,"MMTS, SRG, SNOWBOARD",,,"WFO CHS",,,,,,,,,,,,,,,,,,,,,,,,,,,"30.56","28","40","0.00",,"+0.06","8","63","30.56","CLR:00","30.50","10.00","35","040",,"7",,,,,,,,,,,,,,,,,,,,,,,,,,,,,,,,,,,,,"MET11701/18/20 00:56:02 METAR KCHS 180556Z 04006KT 10SM CLR 04/M02 A3056 RMK AO2 SLP348 T00441022 10078 20044 58021 $ (ARB)","FM-15","7",,,,,,,,,,,,,,,,,,,,,,,,,,,,"2009-06-10"
"72208013880","2020-01-18T01:00:00","FM-12","4",,"SE","0.25","mi","TEMP, PRECIP, SNOW",,,"MMTS, SRG, SNOWBOARD",,,"WFO CHS",,,,,,,,,,,,,,,,,,,,,,,,,,,"30.56","28","40",,,"+0.06","8","63","30.56",,"30.51","9.94","35","040",,"7",,,,,,,,,,,,,,,,,,,,,,,,,,,,,,,,,,,,,"SYN08072208 32966 00406 10044 21022 30332 40348 58021 90556 333 10128 20044 555 91806=","FM-12","4",,,,,,,,,,,,,,,,,,,,,,,,,,,,"2009-06-10"
"72208013880","2020-01-18T01:56:00","FM-15","7",,"SE","0.25","mi","TEMP, PRECIP, SNOW",,,"MMTS, SRG, SNOWBOARD",,,"WFO CHS",,,,,,,,,,,,,,,,,,,,,,,,,,,"30.55","28","40","0.00",,,,"63","30.54","CLR:00","30.50","10.00","35","030",,"8",,,,,,,,,,,,,,,,,,,,,,,,,,,,,,,,,,,,,"MET09901/18/20 01:56:02 METAR KCHS 180656Z 03007KT 10SM CLR 04/M02 A3055 RMK AO2 SLP343 T00441022 $ (ARB)","FM-15","7",,,,,,,,,,,,,,,,,,,,,,,,,,,,"2009-06-10"
"72208013880","2020-01-18T02:56:00","FM-15","7",,"SE","0.25","mi","TEMP, PRECIP, SNOW",,,"MMTS, SRG, SNOWBOARD",,,"WFO CHS",,,,,,,,,,,,,,,,,,,,,,,,,,,"30.52","28","40","0.00",,,,"63","30.52","CLR:00","30.47","10.00","35","040",,"11",,,,,,,,,,,,,,,,,,,,,,,,,,,,,,,,,,,,,"MET09901/18/20 02:56:02 METAR KCHS 180756Z 04010KT 10SM CLR 04/M02 A3052 RMK AO2 SLP335 T00441022 $ (ARB)","FM-15","7",,,,,,,,,,,,,,,,,,,,,,,,,,,,"2009-06-10"
"72208013880","2020-01-18T03:56:00","FM-15","7",,"SE","0.25","mi","TEMP, PRECIP, SNOW",,,"MMTS, SRG, SNOWBOARD",,,"WFO CHS",,,,,,,,,,,,,,,,,,,,,,,,,,,"30.51","30","41","0.00",,"+0.05","6","65","30.50","SCT:04 110","30.46","10.00","37","030",,"11",,,,,,,,,,,,,,,,,,,,,,,,,,,,,,,,,,,,,"MET10801/18/20 03:56:02 METAR KCHS 180856Z 03010KT 10SM SCT110 05/M01 A3051 RMK AO2 SLP330 T00501011 56017 $ (ARB)","FM-15","7",,,,,,,,,,,,,,,,,,,,,,,,,,,,"2009-06-10"
"72208013880","2020-01-18T04:00:00","FM-12","4",,"SE","0.25","mi","TEMP, PRECIP, SNOW",,,"MMTS, SRG, SNOWBOARD",,,"WFO CHS",,,,,,,,,,,,,,,,,,,,,,,,,,,"30.51","30","41",,,"+0.05","6","65","30.50",,"30.46","9.94","37","030",,"11",,,,,,,,,,,,,,,,,,,,,,,,,,,,,,,,,,,,,"SYN06472208 32966 40310 10050 21011 30316 40330 56017 90856 555 91809=","FM-12","4",,,,,,,,,,,,,,,,,,,,,,,,,,,,"2009-06-10"
"72208013880","2020-01-18T04:56:00","FM-15","7",,"SE","0.25","mi","TEMP, PRECIP, SNOW",,,"MMTS, SRG, SNOWBOARD",,,"WFO CHS",,,,,,,,,,,,,,,,,,,,,,,,,,,"30.50","31","42","0.00",,,,"65","30.50","BKN:07 100","30.45","10.00","38","030",,"9",,,,,,,,,,,,,,,,,,,,,,,,,,,,,,,,,,,,,"MET10201/18/20 04:56:02 METAR KCHS 180956Z 03008KT 10SM BKN100 06/M01 A3050 RMK AO2 SLP327 T00561006 $ (ARB)","FM-15","7",,,,,,,,,,,,,,,,,,,,,,,,,,,,"2009-06-10"
"72208013880","2020-01-18T05:56:00","FM-15","7",,"SE","0.25","mi","TEMP, PRECIP, SNOW",,,"MMTS, SRG, SNOWBOARD",,,"WFO CHS",,,,,,,,,,,,,,,,,,,,,,,,,,,"30.49","32","42","0.00",,,,"68","30.49","SCT:04 110","30.44","10.00","38","030",,"10",,,,,,,,,,,,,,,,,,,,,,,,,,,,,,,,,,,,,"MET10101/18/20 05:56:02 METAR KCHS 181056Z 03009KT 10SM SCT110 06/00 A3049 RMK AO2 SLP324 T00560000 $ (ARB)","FM-15","7",,,,,,,,,,,,,,,,,,,,,,,,,,,,"2009-06-10"
"72208013880","2020-01-18T06:56:00","FM-15","7",,"SE","0.25","mi","TEMP, PRECIP, SNOW",,,"MMTS, SRG, SNOWBOARD",,,"WFO CHS",,,,,,,,,,,,,,,,,,,,,,,,,,,"30.49","32","41","0.00",,"+0.02","6","70","30.48","FEW:02 28 SCT:04 110 BKN:07 150","30.44","10.00","37","030",,"8",,,,,,,,,,,,,,,,,,,,,,,,,,,,,,,,,,,,,"MET13301/18/20 06:56:02 METAR KCHS 181156Z 03007KT 10SM FEW028 SCT110 BKN150 05/00 A3049 RMK AO2 SLP322 T00500000 10056 20044 56008 $ (DTU)","FM-15","7",,,,,,,,,,,,,,,,,,,,,,,,,,,,"2009-06-10"
"72208013880","2020-01-18T07:00:00","FM-12","4",,"SE","0.25","mi","TEMP, PRECIP, SNOW",,,"MMTS, SRG, SNOWBOARD",,,"WFO CHS",,,,,,,,,,,,,,,,,,,,,,,,,,,"30.49","32","41",,,"+0.02","6","70","30.48","26","30.44","9.94","37","030",,"8",,,,,,,,,,,,,,,,,,,,,,,,,,,,,,,,,,,,,"SYN08072208 32566 60307 10050 20000 30309 40322 56008 91156 333 10133 20044 555 91812=","FM-12","4",,,,,,,,,,,,,,,,,,,,,,,,,,,,"2009-06-10"
"72208013880","2020-01-18T07:56:00","FM-15","7",,"SE","0.25","mi","TEMP, PRECIP, SNOW",,,"MMTS, SRG, SNOWBOARD",,,"WFO CHS",,,,,,,,,,,,,,,,,,,,,,,,,,,"30.48","34","42","0.00",,,,"73","30.48","SCT:04 35 SCT:04 120 BKN:07 250","30.42","10.00","39","030",,"8",,,,,,,,,,,,,,,,,,,,,,,,,,,,,,,,,,,,,"MET11501/18/20 07:56:02 METAR KCHS 181256Z 03007KT 10SM SCT035 SCT120 BKN250 06/01 A3048 RMK AO2 SLP321 T00560011 $ (DTU)","FM-15","7",,,,,,,,,,,,,,,,,,,,,,,,,,,,"2009-06-10"
"72208013880","2020-01-18T08:21:00","FM-16","7",,"SE","0.25","mi","TEMP, PRECIP, SNOW",,,"MMTS, SRG, SNOWBOARD",,,"WFO CHS",,,,,,,,,,,,,,,,,,,,,,,,,,,"30.48","35","42",,,,,"76",,"BKN:07 15 BKN:07 120 BKN:07 250","30.42","10.00","39","030",,"10",,,,,,,,,,,,,,,,,,,,,,,,,,,,,,,,,,,,,"MET10801/18/20 08:21:02 SPECI KCHS 181321Z 03009KT 10SM BKN015 BKN120 BKN250 06/02 A3048 RMK AO2 T00560017 $ (DTU)","FM-16","7",,,,,,,,,,,,,,,,,,,,,,,,,,,,"2009-06-10"
"72208013880","2020-01-18T08:56:00","FM-15","7",,"SE","0.25","mi","TEMP, PRECIP, SNOW",,,"MMTS, SRG, SNOWBOARD",,,"WFO CHS",,,,,,,,,,,,,,,,,,,,,,,,,,,"30.47","36","44","0.00",,,,"73","30.47","OVC:08 15","30.42","10.00","41","030",,"9",,,,,,,,,,,,,,,,,,,,,,,,,,,,,,,,,,,,,"MET10101/18/20 08:56:02 METAR KCHS 181356Z 03008KT 10SM OVC015 07/02 A3047 RMK AO2 SLP319 T00670022 $ (DTU)","FM-15","7",,,,,,,,,,,,,,,,,,,,,,,,,,,,"2009-06-10"
"72208013880","2020-01-18T09:56:00","FM-15","7",,"SE","0.25","mi","TEMP, PRECIP, SNOW",,,"MMTS, SRG, SNOWBOARD",,,"WFO CHS",,,,,,,,,,,,,,,,,,,,,,,,,,,"30.47","40","49","0.00",,"+0.02","8","71","30.46","OVC:08 15","30.42","10.00","45","050",,"9",,,,,,,,,,,,,,,,,,,,,,,,,,,,,,,,,,,,,"MET10701/18/20 09:56:02 METAR KCHS 181456Z 05008KT 10SM OVC015 09/04 A3047 RMK AO2 SLP316 T00940044 58006 $ (DTU)","FM-15","7",,,,,,,,,,,,,,,,,,,,,,,,,,,,"2009-06-10"
"72208013880","2020-01-18T10:00:00","FM-12","4",,"SE","0.25","mi","TEMP, PRECIP, SNOW",,,"MMTS, SRG, SNOWBOARD",,,"WFO CHS",,,,,,,,,,,,,,,,,,,,,,,,,,,"30.47","40","49",,,"+0.02","8","71","30.46","15","30.42","9.94","45","050",,"9",,,,,,,,,,,,,,,,,,,,,,,,,,,,,,,,,,,,,"SYN06472208 32466 80508 10094 20044 30302 40316 58006 91456 555 91815=","FM-12","4",,,,,,,,,,,,,,,,,,,,,,,,,,,,"2009-06-10"
"72208013880","2020-01-18T10:54:00","FM-16","6",,"SE","0.25","mi","TEMP, PRECIP, SNOW",,,"MMTS, SRG, SNOWBOARD",,,"WFO CHS",,,,,,,,,,,,,,,,,,,,,,,,,,,"30.44","45","54",,,,,"72",,"OVC:08 13","30.39","10.00","50","050",,"9",,,,,,,,,,,,,,,,,,,,,,,,,,,,,,,,,,,,,"MET08901/18/20 10:54:02 SPECI KCHS 181554Z 05008KT 10SM OVC013 12/07 A3044 RMK AO2 $ FIBI (DTU)","FM-16","6",,,,,,,,,,,,,,,,,,,,,,,,,,,,"2009-06-10"
"72208013880","2020-01-18T10:56:00","FM-15","7",,"SE","0.25","mi","TEMP, PRECIP, SNOW",,,"MMTS, SRG, SNOWBOARD",,,"WFO CHS",,,,,,,,,,,,,,,,,,,,,,,,,,,"30.44","44","53","0.00",,,,"72","30.44","OVC:08 13","30.39","10.00","49","060",,"10",,,,,,,,,,,,,,,,,,,,,,,,,,,,,,,,,,,,,"MET10101/18/20 10:56:02 METAR KCHS 181556Z 06009KT 10SM OVC013 12/07 A3044 RMK AO2 SLP308 T01170067 $ (DTU)","FM-15","7",,,,,,,,,,,,,,,,,,,,,,,,,,,,"2009-06-10"
"72208013880","2020-01-18T11:31:00","FM-16","7",,"SE","0.25","mi","TEMP, PRECIP, SNOW",,,"MMTS, SRG, SNOWBOARD",,,"WFO CHS",,,,,,,,,,,,,,,,,,,,,,,,,,,"30.42","47","57",,,,,"69",,"SCT:04 13 BKN:07 55 BKN:07 200","30.37","10.00","52","080",,"9",,,,,,,,,,,,,,,,,,,,,,,,,,,,,,,,,,,,,"MET10801/18/20 11:31:02 SPECI KCHS 181631Z 08008KT 10SM SCT013 BKN055 BKN200 14/08 A3042 RMK AO2 T01390083 $ (DTU)","FM-16","7",,,,,,,,,,,,,,,,,,,,,,,,,,,,"2009-06-10"
"72208013880","2020-01-18T11:56:00","FM-15","7",,"SE","0.25","mi","TEMP, PRECIP, SNOW",,,"MMTS, SRG, SNOWBOARD",,,"WFO CHS",,,,,,,,,,,,,,,,,,,,,,,,,,,"30.40","49","59","0.00",,,,"69","30.40","FEW:02 13 SCT:04 39 BKN:07 50","30.35","10.00","54","110",,"9",,,,,,,,,,,,,,,,,,,,,,,,,,,,,,,,,,,,,"MET11601/18/20 11:56:02 METAR KCHS 181656Z 11008KT 10SM FEW013 SCT039 BKN050 15/09 A3040 RMK AO2 PRESFR SLP293 T01500094 $","FM-15","7",,,,,,,,,,,,,,,,,,,,,,,,,,,,"2009-06-10"
"72208013880","2020-01-18T12:56:00","FM-15","7",,"SE","0.25","mi","TEMP, PRECIP, SNOW",,,"MMTS, SRG, SNOWBOARD",,,"WFO CHS",,,,,,,,,,,,,,,,,,,,,,,,,,,"30.35","52","61","0.00",,"+0.12","8","72","30.35","SCT:04 43 BKN:07 55 BKN:07 200","30.29","10.00","56","130",,"5",,,,,,,,,,,,,,,,,,,,,,,,,,,,,,,,,,,,,"MET12701/18/20 12:56:02 METAR KCHS 181756Z 13004KT 10SM SCT043 BKN055 BKN200 16/11 A3035 RMK AO2 SLP277 T01610111 10167 20050 58039 $","FM-15","7",,,,,,,,,,,,,,,,,,,,,,,,,,,,"2009-06-10"
"72208013880","2020-01-18T13:00:00","FM-12","4",,"SE","0.25","mi","TEMP, PRECIP, SNOW",,,"MMTS, SRG, SNOWBOARD",,,"WFO CHS",,,,,,,,,,,,,,,,,,,,,,,,,,,"30.35","52","61",,,"+0.12","8","72","30.35","41","30.30","9.94","56","130",,"5",,,,,,,,,,,,,,,,,,,,,,,,,,,,,,,,,,,,,"SYN08072208 32666 61304 10161 20111 30261 40277 58039 91756 333 10167 20050 555 91818=","FM-12","4",,,,,,,,,,,,,,,,,,,,,,,,,,,,"2009-06-10"
"72208013880","2020-01-18T13:56:00","FM-15","7",,"SE","0.25","mi","TEMP, PRECIP, SNOW",,,"MMTS, SRG, SNOWBOARD",,,"WFO CHS",,,,,,,,,,,,,,,,,,,,,,,,,,,"30.31","53","65","0.00",,,,"66","30.31","FEW:02 43 FEW:02 55 SCT:04 120","30.26","10.00","58","170",,"8",,,,,,,,,,,,,,,,,,,,,,,,,,,,,,,,,,,,,"MET10901/18/20 13:56:02 METAR KCHS 181856Z 17007KT 10SM FEW043 FEW055 SCT120 18/12 A3031 RMK AO2 SLP264 T01830117 $","FM-15","7",,,,,,,,,,,,,,,,,,,,,,,,,,,,"2009-06-10"
"72208013880","2020-01-18T14:56:00","FM-15","7",,"SE","0.25","mi","TEMP, PRECIP, SNOW",,,"MMTS, SRG, SNOWBOARD",,,"WFO CHS",,,,,,,,,,,,,,,,,,,,,,,,,,,"30.28","53","67","0.00",,,,"61","30.28","SCT:04 120 OVC:08 250","30.23","10.00","59","180",,"10",,,,,,,,,,,,,,,,,,,,,,,,,,,,,,,,,,,,,"MET10201/18/20 14:56:02 METAR KCHS 181956Z 18009KT 10SM SCT120 OVC250 19/12 A3028 RMK AO2 SLP253 T01940117 $","FM-15","7",,,,,,,,,,,,,,,,,,,,,,,,,,,,"2009-06-10"
"72208013880","2020-01-18T15:56:00","FM-15","7",,"SE","0.25","mi","TEMP, PRECIP, SNOW",,,"MMTS, SRG, SNOWBOARD",,,"WFO CHS",,,,,,,,,,,,,,,,,,,,,,,,,,,"30.27","53","67","0.00",,"+0.09","6","61","30.26","FEW:02 55 BKN:07 250","30.22","10.00","59","190",,"13",,,,,,,,,,,,,,,,,,,,,,,,,,,,,,,,,,,,,"MET10801/18/20 15:56:02 METAR KCHS 182056Z 19011KT 10SM FEW055 BKN250 19/12 A3027 RMK AO2 SLP248 T01940117 56029 $","FM-15","7",,,,,,,,,,,,,,,,,,,,,,,,,,,,"2009-06-10"
"72208013880","2020-01-18T16:00:00","FM-12","4",,"SE","0.25","mi","TEMP, PRECIP, SNOW",,,"MMTS, SRG, SNOWBOARD",,,"WFO CHS",,,,,,,,,,,,,,,,,,,,,,,,,,,"30.27","53","67",,,"+0.09","6","61","30.26","57","30.22","9.94","59","190",,"13",,,,,,,,,,,,,,,,,,,,,,,,,,,,,,,,,,,,,"SYN06472208 32766 61911 10194 20117 30234 40248 56029 92056 555 91821=","FM-12","4",,,,,,,,,,,,,,,,,,,,,,,,,,,,"2009-06-10"
"72208013880","2020-01-18T16:56:00","FM-15","7",,"SE","0.25","mi","TEMP, PRECIP, SNOW",,,"MMTS, SRG, SNOWBOARD",,,"WFO CHS",,,,,,,,,,,,,,,,,,,,,,,,,,,"30.21","53","65","0.00",,,,"66","30.21","FEW:02 50 BKN:07 250","30.16","10.00","58","180",,"11",,,,,,,,,,,,,,,,,,,,,,,,,,,,,,,,,,,,,"MET10201/18/20 16:56:02 METAR KCHS 182156Z 18010KT 10SM FEW050 BKN250 18/12 A3021 RMK AO2 SLP229 T01830117 $","FM-15","7",,,,,,,,,,,,,,,,,,,,,,,,,,,,"2009-06-10"
"72208013880","2020-01-18T17:56:00","FM-15","7",,"SE","0.25","mi","TEMP, PRECIP, SNOW",,,"MMTS, SRG, SNOWBOARD",,,"WFO CHS",,,,,,,,,,,,,,,,,,,,,,,,,,,"30.22","54","63","0.00",,,,"73","30.21","FEW:02 45 BKN:07 250","30.17","10.00","58","220",,"8",,,,,,,,,,,,,,,,,,,,,,,,,,,,,,,,,,,,,"MET10201/18/20 17:56:02 METAR KCHS 182256Z 22007KT 10SM FEW045 BKN250 17/12 A3022 RMK AO2 SLP231 T01720122 $","FM-15","7",,,,,,,,,,,,,,,,,,,,,,,,,,,,"2009-06-10"
"72208013880","2020-01-18T18:56:00","FM-15","7",,"SE","0.25","mi","TEMP, PRECIP, SNOW",,,"MMTS, SRG, SNOWBOARD",,,"WFO CHS",,,,,,,,,,,,,,,,,,,,,,,,,,,"30.18","54","59","0.00",,"+0.08","6","83","30.18","BKN:07 250","30.13","10.00","56","190",,"8",,,,,,,,,,,,,,,,,,,,,,,,,,,,,,,,,,,,,"MET11301/18/20 18:56:02 METAR KCHS 182356Z 19007KT 10SM BKN250 15/12 A3018 RMK AO2 SLP220 T01500122 10194 20150 56028 $","FM-15","7",,,,,,,,,,,,,,,,,,,,,,,,,,,,"2009-06-10"
"72208013880","2020-01-18T19:00:00","FM-12","4",,"SE","0.25","mi","TEMP, PRECIP, SNOW",,,"MMTS, SRG, SNOWBOARD",,,"WFO CHS",,,,,,,,,,,,,,,,,,,,,,,,,,,"30.18","54","59",,,"+0.08","6","83","30.18",,"30.13","9.94","56","190",,"8",,,,,,,,,,,,,,,,,,,,,,,,,,,,,,,,,,,,,"SYN08072208 32966 61907 10150 20122 30204 40220 56028 92356 333 10194 20044 555 91900=","FM-12","4",,,,,,,,,,,,,,,,,,,,,,,,,,,,"2009-06-10"
"72208013880","2020-01-18T19:56:00","FM-15","7",,"SE","0.25","mi","TEMP, PRECIP, SNOW",,,"MMTS, SRG, SNOWBOARD",,,"WFO CHS",,,,,,,,,,,,,,,,,,,,,,,,,,,"30.18","55","59","0.00",,,,"87","30.18","FEW:02 100 BKN:07 250","30.13","10.00","57","220",,"3",,,,,,,,,,,,,,,,,,,,,,,,,,,,,,,,,,,,,"MET10201/18/20 19:56:01 METAR KCHS 190056Z 22003KT 10SM FEW100 BKN250 15/13 A3018 RMK AO2 SLP219 T01500128 $","FM-15","7",,,,,,,,,,,,,,,,,,,,,,,,,,,,"2009-06-10"
"72208013880","2020-01-18T20:56:00","FM-15","7",,"SE","0.25","mi","TEMP, PRECIP, SNOW",,,"MMTS, SRG, SNOWBOARD",,,"WFO CHS",,,,,,,,,,,,,,,,,,,,,,,,,,,"30.17","56","60","0.00",,,,"86","30.16","BKN:07 80 OVC:08 250","30.12","10.00","58","220",,"7",,,,,,,,,,,,,,,,,,,,,,,,,,,,,,,,,,,,,"MET10201/18/20 20:56:01 METAR KCHS 190156Z 22006KT 10SM BKN080 OVC250 16/13 A3017 RMK AO2 SLP214 T01560133 $","FM-15","7",,,,,,,,,,,,,,,,,,,,,,,,,,,,"2009-06-10"
"72208013880","2020-01-18T21:56:00","FM-15","7",,"SE","0.25","mi","TEMP, PRECIP, SNOW",,,"MMTS, SRG, SNOWBOARD",,,"WFO CHS",,,,,,,,,,,,,,,,,,,,,,,,,,,"30.14","56","61","0.00",,"+0.04","8","84","30.14","OVC:08 90","30.09","10.00","58","210",,"10",,,,,,,,,,,,,,,,,,,,,,,,,,,,,,,,,,,,,"MET10101/18/20 21:56:01 METAR KCHS 190256Z 21009KT 10SM OVC090 16/13 A3014 RMK AO2 SLP207 T01610133 58013 $","FM-15","7",,,,,,,,,,,,,,,,,,,,,,,,,,,,"2009-06-10"
"72208013880","2020-01-18T22:00:00","FM-12","4",,"SE","0.25","mi","TEMP, PRECIP, SNOW",,,"MMTS, SRG, SNOWBOARD",,,"WFO CHS",,,,,,,,,,,,,,,,,,,,,,,,,,,"30.14","56","61",,,"+0.04","8","84","30.14",,"30.09","9.94","58","210",,"10",,,,,,,,,,,,,,,,,,,,,,,,,,,,,,,,,,,,,"SYN06472208 32966 82109 10161 20133 30190 40207 58013 90256 555 91903=","FM-12","4",,,,,,,,,,,,,,,,,,,,,,,,,,,,"2009-06-10"
"72208013880","2020-01-18T22:56:00","FM-15","7",,"SE","0.25","mi","TEMP, PRECIP, SNOW",,,"MMTS, SRG, SNOWBOARD",,,"WFO CHS",,,,,,,,,,,,,,,,,,,,,,,,,,,"30.13","56","63","0.00",,,,"78","30.13","BKN:07 80 BKN:07 90 OVC:08 110","30.08","10.00","59","220",,"14",,,,,,,,,,,,,,,,,,,,,,,,,,,,,,,,,,,,,"MET10901/18/20 22:56:01 METAR KCHS 190356Z 22012KT 10SM BKN080 BKN090 OVC110 17/13 A3013 RMK AO2 SLP202 T01720133 $","FM-15","7",,,,,,,,,,,,,,,,,,,,,,,,,,,,"2009-06-10"
"72208013880","2020-01-18T23:56:00","FM-15","7",,"SE","0.25","mi","TEMP, PRECIP, SNOW",,,"MMTS, SRG, SNOWBOARD",,,"WFO CHS",,,,,,,,,,,,,,,,,,,,,,,,,,,"30.11","58","64","0.00",,,,"81","30.10","SCT:04 75 BKN:07 100","30.06","10.00","61","210","21","13",,,,,,,,,,,,,,,,,,,,,,,,,,,,,,,,,,,,,"MET11501/18/20 23:56:01 METAR KCHS 190456Z 21011G18KT 10SM SCT075 BKN100 18/14 A3011 RMK AO2 SLP194 T01780144 401940044 $","FM-15","7",,,,,,,,,,,,,,,,,,,,,,,,,,,,"2009-06-10"
"72208013880","2020-01-18T23:59:00","SOD  ","6",,"SE","0.25","mi","TEMP, PRECIP, SNOW",,,"MMTS, SRG, SNOWBOARD",,,"WFO CHS",,,,"44","54","72","30.35","30.31","49","9.2","0","5.9","11","67","40","200","23","0.00","0","0.0","220","16",,,,,,,,,,,,,,,,,,,,,,,,,,,,,,,,,,,,,,,,,,,,,,,,,,,,,,,,,"SOD74324 HR PRECIPITATION (IN): 0.00 SNOW DEPTH (IN):0     24 HR SNOWFALL (IN):0.0  24 HR MAX TEMP (F): 6724 HR MIN TEMP (F): 40AVERAGE STATION PRESSURE(D):30.309 MINIMUM SEA LEVEL PRESSURE:30.10 TIME OF OCCURRENCE:2359 PEAK WIND SPEED (MPH): 23 PEAK WIND DIR (DEG):200 PEAK WIND TIME (LST):      FASTEST 2MIN SPEED (MPH): 16FASTEST 2MIN DIR (DEG):220 FASTEST 2MIN TIME (LST):     AVERAGE WIND SPEED (MPH): 9.2 24 HR AVG TEMP (F): 54DEPART FROM NORMAL:  6  HEATING DEGREE DAYS: 11 COOLING DEGREE DAYS:  0 LATEST DAY MAX TEMP (0700-1900 LST): 67 LATEST NIGHT MIN TEMP(1900-0800 LST):40 HOURLY INCREMENTAL PRECIPITATION VALUES (IN):0.00 0.00 0.00 0.00 0.00 0.00 0.00 0.00 0.00 0.00 0.00 0.00 0.00 0.00 0.00 0.00 0.00 0.00 0.00 0.00 0.00 0.00 0.00 0.00","SOD  ","6",,,,,,,,,,,,,,,,,,,,,,,,,"0722","1739",,"2009-06-10"
"72208013880","2020-01-19T00:56:00","FM-15","7",,"SE","0.25","mi","TEMP, PRECIP, SNOW",,,"MMTS, SRG, SNOWBOARD",,,"WFO CHS",,,,,,,,,,,,,,,,,,,,,,,,,,,"30.08","58","65","0.00",,"+0.06","8","78","30.08","BKN:07 70 BKN:07 90","30.03","10.00","61","220","31","24",,,,,,,,,,,,,,,,,,,,,,,,,,,,,,,,,,,,,"MET14701/19/20 00:56:02 METAR KCHS 190556Z 22021G27KT 10SM BKN070 BKN090 18/14 A3008 RMK AO2 PK WND 21027/0556 SLP186 T01830144 10183 20144 58021 $ (ARB)","FM-15","7",,,,,,,,,,,,,,,,,,,,,,,,,,,,"2009-06-10"
"72208013880","2020-01-19T01:00:00","FM-12","4",,"SE","0.25","mi","TEMP, PRECIP, SNOW",,,"MMTS, SRG, SNOWBOARD",,,"WFO CHS",,,,,,,,,,,,,,,,,,,,,,,,,,,"30.08","58","65",,,"+0.06","8","78","30.08","74","30.03","9.94","61","220",,"24",,,,,,,,,,,,,,,,,,,,,,,,,,,,,,,,,,,,,"SYN08672208 32866 62221 10183 20144 30170 40186 58021 90556 333 10183 20044 91027 555 91906=","FM-12","4",,,,,,,,,,,,,,,,,,,,,,,,,,,,"2009-06-10"
"72208013880","2020-01-19T01:56:00","FM-15","7",,"SE","0.25","mi","TEMP, PRECIP, SNOW",,,"MMTS, SRG, SNOWBOARD",,,"WFO CHS",,,,,,,,,,,,,,,,,,,,,,,,,,,"30.07","59","64","T","-RA:02 |RA |RA",,,"84","30.06","SCT:04 46 BKN:07 55 OVC:08 60","30.02","8.00","61","220","24","20",,,,,,,,,,,,,,,,,,,,,,,,,,,,,,,,,,,,,"MET13301/19/20 01:56:02 METAR KCHS 190656Z 22017G21KT 8SM -RA SCT046 BKN055 OVC060 18/15 A3007 RMK AO2 RAB43 SLP181 P0000 T01780150 $ (ARB)","FM-15","7",,,,,,,,,,,,,,,,,,,,,,,,,,,,"2009-06-10"
"72208013880","2020-01-19T02:56:00","FM-15","7",,"SE","0.25","mi","TEMP, PRECIP, SNOW",,,"MMTS, SRG, SNOWBOARD",,,"WFO CHS",,,,,,,,,,,,,,,,,,,,,,,,,,,"30.03","58","63","T",,,,"84","30.03","FEW:02 60 FEW:02 110","29.98","10.00","60","220",,"11",,,,,,,,,,,,,,,,,,,,,,,,,,,,,,,,,,,,,"MET12001/19/20 02:56:02 METAR KCHS 190756Z 22010KT 10SM FEW060 FEW110 17/14 A3003 RMK AO2 RAE13 SLP168 P0000 T01720144 $ (ARB)","FM-15","7",,,,,,,,,,,,,,,,,,,,,,,,,,,,"2009-06-10"
"72208013880","2020-01-19T03:56:00","FM-15","7",,"SE","0.25","mi","TEMP, PRECIP, SNOW",,,"MMTS, SRG, SNOWBOARD",,,"WFO CHS",,,,,,,,,,,,,,,,,,,,,,,,,,,"30.01","58","63","0.00",,"+0.07","8","84","30.01","BKN:07 95","29.96","10.00","60","220",,"11",,,,,,,,,,,,,,,,,,,,,,,,,,,,,,,,,,,,,"MET11301/19/20 03:56:02 METAR KCHS 190856Z 22010KT 10SM BKN095 17/14 A3001 RMK AO2 SLP161 60000 T01720144 58024 $ (ARB)","FM-15","7",,,,,,,,,,,,,,,,,,,,,,,,,,,,"2009-06-10"
"72208013880","2020-01-19T04:00:00","FM-12","4",,"SE","0.25","mi","TEMP, PRECIP, SNOW",,,"MMTS, SRG, SNOWBOARD",,,"WFO CHS",,,,,,,,,,,,,,,,,,,,,,,,,,,"30.01","58","63",,,"+0.07","8","84","30.01",,"29.96","9.94","60","220",,"11",,,,,,,,,,,,,,,,,,,,,,,,,,,,,,,,,,,,,"SYN07072208 12966 62210 10172 20144 30146 40161 58024 69907 90856 555 91909=","FM-12","4",,,,,,,,,,,,,,,,,,,,,,,,,,,,"2009-06-10"
"72208013880","2020-01-19T04:56:00","FM-15","7",,"SE","0.25","mi","TEMP, PRECIP, SNOW",,,"MMTS, SRG, SNOWBOARD",,,"WFO CHS",,,,,,,,,,,,,,,,,,,,,,,,,,,"30.00","58","64","0.00",,,,"81","29.99","FEW:02 35 BKN:07 110","29.95","10.00","61","220","20","13",,,,,,,,,,,,,,,,,,,,,,,,,,,,,,,,,,,,,"MET11101/19/20 04:56:02 METAR KCHS 190956Z 22011G17KT 10SM FEW035 BKN110 18/14 A3000 RMK AO2 SLP157 T01780144 $ (ARB)","FM-15","7",,,,,,,,,,,,,,,,,,,,,,,,,,,,"2009-06-10"
"72208013880","2020-01-19T05:56:00","FM-15","7",,"SE","0.25","mi","TEMP, PRECIP, SNOW",,,"MMTS, SRG, SNOWBOARD",,,"WFO CHS",,,,,,,,,,,,,,,,,,,,,,,,,,,"30.00","58","64","0.00",,,,"81","29.99","SCT:04 50 OVC:08 70","29.95","10.00","61","220",,"11",,,,,,,,,,,,,,,,,,,,,,,,,,,,,,,,,,,,,"MET10801/19/20 05:56:02 METAR KCHS 191056Z 22010KT 10SM SCT050 OVC070 18/14 A3000 RMK AO2 SLP157 T01780144 $ (ARB)","FM-15","7",,,,,,,,,,,,,,,,,,,,,,,,,,,,"2009-06-10"
"72208013880","2020-01-19T06:56:00","FM-15","7",,"SE","0.25","mi","TEMP, PRECIP, SNOW",,,"MMTS, SRG, SNOWBOARD",,,"WFO CHS",,,,,,,,,,,,,,,,,,,,,,,,,,,"30.00","57","64","0.00",,"+0.01","5","78","30.00","SCT:04 44 BKN:07 60","29.95","10.00","60","230",,"13",,,,,,,,,,,,,,,,,,,,,,,,,,,,,,,,,,,,,"MET13201/19/20 06:56:02 METAR KCHS 191156Z 23011KT 10SM SCT044 BKN060 18/14 A3000 RMK AO2 SLP158 60000 T01780139 10183 20172 55003 $ (DTU)","FM-15","7",,,,,,,,,,,,,,,,,,,,,,,,,,,,"2009-06-10"
"72208013880","2020-01-19T07:00:00","FM-12","4",,"SE","0.25","mi","TEMP, PRECIP, SNOW",,,"MMTS, SRG, SNOWBOARD",,,"WFO CHS",,,,,,,,,,,,,,,,,,,,,,,,,,,"30.00","57","64",,,"+0.01","5","78","30.00","41","29.95","9.94","60","230",,"13",,,,,,,,,,,,,,,,,,,,,,,,,,,,,,,,,,,,,"SYN08672208 12666 62311 10178 20139 30143 40158 55003 69901 91156 333 10194 20144 555 91912=","FM-12","4",,,,,,,,,,,,,,,,,,,,,,,,,,,,"2009-06-10"
"72208013880","2020-01-19T07:56:00","FM-15","7",,"SE","0.25","mi","TEMP, PRECIP, SNOW",,,"MMTS, SRG, SNOWBOARD",,,"WFO CHS",,,,,,,,,,,,,,,,,,,,,,,,,,,"30.00","58","64","T","-RA:02 |RA |RA",,,"81","30.00","BKN:07 42 BKN:07 49 OVC:08 65","29.95","10.00","61","220",,"11",,,,,,,,,,,,,,,,,,,,,,,,,,,,,,,,,,,,,"MET13101/19/20 07:56:02 METAR KCHS 191256Z 22010KT 10SM -RA BKN042 BKN049 OVC065 18/14 A3000 RMK AO2 RAB55 SLP158 P0000 T01780144 $ (DTU)","FM-15","7",,,,,,,,,,,,,,,,,,,,,,,,,,,,"2009-06-10"
"72208013880","2020-01-19T08:56:00","FM-15","7",,"SE","0.25","mi","TEMP, PRECIP, SNOW",,,"MMTS, SRG, SNOWBOARD",,,"WFO CHS",,,,,,,,,,,,,,,,,,,,,,,,,,,"29.99","58","63","T",,,,"84","29.99","SCT:04 38 BKN:07 49 OVC:08 70","29.94","10.00","60","220",,"10",,,,,,,,,,,,,,,,,,,,,,,,,,,,,,,,,,,,,"MET12701/19/20 08:56:02 METAR KCHS 191356Z 22009KT 10SM SCT038 BKN049 OVC070 17/14 A2999 RMK AO2 RAE14 SLP156 P0000 T01720144 $ (DTU)","FM-15","7",,,,,,,,,,,,,,,,,,,,,,,,,,,,"2009-06-10"
"72208013880","2020-01-19T09:26:00","FM-16","7",,"SE","0.25","mi","TEMP, PRECIP, SNOW",,,"MMTS, SRG, SNOWBOARD",,,"WFO CHS",,,,,,,,,,,,,,,,,,,,,,,,,,,"30.00","58","63","T","-RA:02 |RA |RA",,,"84",,"BKN:07 24 OVC:08 35","29.95","10.00","60","230",,"13",,,,,,,,,,,,,,,,,,,,,,,,,,,,,,,,,,,,,"MET11701/19/20 09:26:02 SPECI KCHS 191426Z 23011KT 10SM -RA BKN024 OVC035 17/14 A3000 RMK AO2 RAB13 P0000 T01720144 $ (DTU)","FM-16","7",,,,,,,,,,,,,,,,,,,,,,,,,,,,"2009-06-10"
"72208013880","2020-01-19T09:56:00","FM-15","7",,"SE","0.25","mi","TEMP, PRECIP, SNOW",,,"MMTS, SRG, SNOWBOARD",,,"WFO CHS",,,,,,,,,,,,,,,,,,,,,,,,,,,"30.00","59","64","T",,"+0.00","5","84","29.99","BKN:07 21 BKN:07 38 OVC:08 110","29.95","10.00","61","250",,"10",,,,,,,,,,,,,,,,,,,,,,,,,,,,,,,,,,,,,"MET14201/19/20 09:56:02 METAR KCHS 191456Z 25009KT 10SM BKN021 BKN038 OVC110 18/15 A3000 RMK AO2 RAB13E30 SLP157 P0000 60000 T01780150 55001 $ (DTU)","FM-15","7",,,,,,,,,,,,,,,,,,,,,,,,,,,,"2009-06-10"
"72208013880","2020-01-19T10:00:00","FM-12","4",,"SE","0.25","mi","TEMP, PRECIP, SNOW",,,"MMTS, SRG, SNOWBOARD",,,"WFO CHS",,,,,,,,,,,,,,,,,,,,,,,,,,,"30.00","59","64",,,"+0.00","5","84","29.99","26","29.95","9.94","61","250",,"10",,,,,,,,,,,,,,,,,,,,,,,,,,,,,,,,,,,,,"SYN07072208 12566 82509 10178 20150 30143 40157 55001 69907 91456 555 91915=","FM-12","4",,,,,,,,,,,,,,,,,,,,,,,,,,,,"2009-06-10"
"72208013880","2020-01-19T10:42:00","FM-16","7",,"SE","0.25","mi","TEMP, PRECIP, SNOW",,,"MMTS, SRG, SNOWBOARD",,,"WFO CHS",,,,,,,,,,,,,,,,,,,,,,,,,,,"30.01","60","62","T","-RA:02 BR:1 |RA |RA",,,"93",,"BKN:07 9 OVC:08 15","29.96","3.00","61","270",,"9",,,,,,,,,,,,,,,,,,,,,,,,,,,,,,,,,,,,,"MET14801/19/20 10:42:02 SPECI KCHS 191542Z 27008KT 3SM R15/6000VP6000FT -RA BR BKN009 OVC015 17/16 A3001 RMK AO2 RAB18 CIG 007V012 P0000 T01670156 $ (DTU)","FM-16","7",,,,,,,,,,,,,,,,,,,,,,,,,,,,"2009-06-10"
"72208013880","2020-01-19T10:56:00","FM-15","7",,"SE","0.25","mi","TEMP, PRECIP, SNOW",,,"MMTS, SRG, SNOWBOARD",,,"WFO CHS",,,,,,,,,,,,,,,,,,,,,,,,,,,"30.01","57","59","T","-RA:02 BR:1 |RA |RA",,,"93","30.01","BKN:07 7 OVC:08 13","29.96","4.00","58","290",,"17",,,,,,,,,,,,,,,,,,,,,,,,,,,,,,,,,,,,,"MET13801/19/20 10:56:02 METAR KCHS 191556Z 29015KT 4SM -RA BR BKN007 OVC013 15/14 A3001 RMK AO2 RAB18 CIG 005V009 SLP161 P0000 T01500139 $ (DTU)","FM-15","7",,,,,,,,,,,,,,,,,,,,,,,,,,,,"2009-06-10"
"72208013880","2020-01-19T11:21:00","FM-16","7",,"SE","0.25","mi","TEMP, PRECIP, SNOW",,,"MMTS, SRG, SNOWBOARD",,,"WFO CHS",,,,,,,,,,,,,,,,,,,,,,,,,,,"30.01","56","59","T",,,,"90",,"FEW:02 5 BKN:07 9 OVC:08 13","29.96","10.00","57","280",,"10",,,,,,,,,,,,,,,,,,,,,,,,,,,,,,,,,,,,,"MET12001/19/20 11:21:02 SPECI KCHS 191621Z 28009KT 10SM FEW005 BKN009 OVC013 15/13 A3001 RMK AO2 RAE00 P0000 T01500133 $ (DTU)","FM-16","7",,,,,,,,,,,,,,,,,,,,,,,,,,,,"2009-06-10"
"72208013880","2020-01-19T11:56:00","FM-15","7",,"SE","0.25","mi","TEMP, PRECIP, SNOW",,,"MMTS, SRG, SNOWBOARD",,,"WFO CHS",,,,,,,,,,,,,,,,,,,,,,,,,,,"30.00","56","60","T",,,,"86","29.99","BKN:07 9 OVC:08 13","29.95","10.00","58","290","20","13",,,,,,,,,,,,,,,,,,,,,,,,,,,,,,,,,,,,,"MET12301/19/20 11:56:02 METAR KCHS 191656Z 29011G17KT 10SM BKN009 OVC013 16/13 A3000 RMK AO2 RAE00 SLP156 P0000 T01560133 $ (DTU)","FM-15","7",,,,,,,,,,,,,,,,,,,,,,,,,,,,"2009-06-10"
"72208013880","2020-01-19T12:29:00","FM-16","7",,"SE","0.25","mi","TEMP, PRECIP, SNOW",,,"MMTS, SRG, SNOWBOARD",,,"WFO CHS",,,,,,,,,,,,,,,,,,,,,,,,,,,"29.98","55","61",,,,,"81",,"BKN:07 15 OVC:08 27","29.93","10.00","58","290",,"16",,,,,,,,,,,,,,,,,,,,,,,,,,,,,,,,,,,,,"MET10101/19/20 12:29:02 SPECI KCHS 191729Z 29014KT 10SM BKN015 OVC027 16/13 A2998 RMK AO2 T01610128 $ (DTU)","FM-16","7",,,,,,,,,,,,,,,,,,,,,,,,,,,,"2009-06-10"
"72208013880","2020-01-19T12:50:00","FM-16","7",,"SE","0.25","mi","TEMP, PRECIP, SNOW",,,"MMTS, SRG, SNOWBOARD",,,"WFO CHS",,,,,,,,,,,,,,,,,,,,,,,,,,,"29.97","53","61",,,,,"75",,"FEW:02 15 OVC:08 36","29.92","10.00","57","270",,"13",,,,,,,,,,,,,,,,,,,,,,,,,,,,,,,,,,,,,"MET10101/19/20 12:50:02 SPECI KCHS 191750Z 27011KT 10SM FEW015 OVC036 16/12 A2997 RMK AO2 T01610117 $ (DTU)","FM-16","7",,,,,,,,,,,,,,,,,,,,,,,,,,,,"2009-06-10"
"72208013880","2020-01-19T12:56:00","FM-15","7",,"SE","0.25","mi","TEMP, PRECIP, SNOW",,,"MMTS, SRG, SNOWBOARD",,,"WFO CHS",,,,,,,,,,,,,,,,,,,,,,,,,,,"29.96","53","61","0.00",,"+0.04","8","75","29.96","FEW:02 15 BKN:07 38","29.91","10.00","57","270",,"10",,,,,,,,,,,,,,,,,,,,,,,,,,,,,,,,,,,,,"MET13201/19/20 12:56:02 METAR KCHS 191756Z 27009KT 10SM FEW015 BKN038 16/12 A2996 RMK AO2 SLP146 60000 T01610117 10178 20150 58012 $ (DTU)","FM-15","7",,,,,,,,,,,,,,,,,,,,,,,,,,,,"2009-06-10"
"72208013880","2020-01-19T13:00:00","FM-12","4",,"SE","0.25","mi","TEMP, PRECIP, SNOW",,,"MMTS, SRG, SNOWBOARD",,,"WFO CHS",,,,,,,,,,,,,,,,,,,,,,,,,,,"29.96","53","61",,,"+0.04","8","75","29.96","15","29.91","9.94","57","270",,"10",,,,,,,,,,,,,,,,,,,,,,,,,,,,,,,,,,,,,"SYN08672208 12466 62709 10161 20117 30129 40146 58012 69901 91756 333 10183 20150 555 91918=","FM-12","4",,,,,,,,,,,,,,,,,,,,,,,,,,,,"2009-06-10"
"72208013880","2020-01-19T13:56:00","FM-15","7",,"SE","0.25","mi","TEMP, PRECIP, SNOW",,,"MMTS, SRG, SNOWBOARD",,,"WFO CHS",,,,,,,,,,,,,,,,,,,,,,,,,,,"29.94","42","62","0.00",,,,"48","29.93","SCT:04 45 OVC:08 120","29.89","10.00","52","270",,"13",,,,,,,,,,,,,,,,,,,,,,,,,,,,,,,,,,,,,"MET10801/19/20 13:56:02 METAR KCHS 191856Z 27011KT 10SM SCT045 OVC120 17/06 A2994 RMK AO2 SLP137 T01670056 $ (DTU)","FM-15","7",,,,,,,,,,,,,,,,,,,,,,,,,,,,"2009-06-10"
"72208013880","2020-01-19T14:56:00","FM-15","7",,"SE","0.25","mi","TEMP, PRECIP, SNOW",,,"MMTS, SRG, SNOWBOARD",,,"WFO CHS",,,,,,,,,,,,,,,,,,,,,,,,,,,"29.94","45","60","0.00",,,,"58","29.93","FEW:02 45 BKN:07 200","29.89","10.00","52","270",,"13",,,,,,,,,,,,,,,,,,,,,,,,,,,,,,,,,,,,,"MET10801/19/20 14:56:02 METAR KCHS 191956Z 27011KT 10SM FEW045 BKN200 16/07 A2994 RMK AO2 SLP137 T01560072 $ (DTU)","FM-15","7",,,,,,,,,,,,,,,,,,,,,,,,,,,,"2009-06-10"
"72208013880","2020-01-19T15:56:00","FM-15","7",,"SE","0.25","mi","TEMP, PRECIP, SNOW",,,"MMTS, SRG, SNOWBOARD",,,"WFO CHS",,,,,,,,,,,,,,,,,,,,,,,,,,,"29.95","41","60","0.00",,"+0.01","5","50","29.95","BKN:07 250","29.90","10.00","51","280","23","14",,,,,,,,,,,,,,,,,,,,,,,,,,,,,,,,,,,,,"MET11001/19/20 15:56:02 METAR KCHS 192056Z 28012G20KT 10SM BKN250 16/05 A2995 RMK AO2 SLP141 T01560050 55005 $ (JRS)","FM-15","7",,,,,,,,,,,,,,,,,,,,,,,,,,,,"2009-06-10"
"72208013880","2020-01-19T16:00:00","FM-12","4",,"SE","0.25","mi","TEMP, PRECIP, SNOW",,,"MMTS, SRG, SNOWBOARD",,,"WFO CHS",,,,,,,,,,,,,,,,,,,,,,,,,,,"29.95","41","60",,,"+0.01","5","50","29.95",,"29.90","9.94","51","280",,"14",,,,,,,,,,,,,,,,,,,,,,,,,,,,,,,,,,,,,"SYN07472208 32966 62812 10156 20050 30126 40141 55005 92056 333 91020 555 91921=","FM-12","4",,,,,,,,,,,,,,,,,,,,,,,,,,,,"2009-06-10"
"72208013880","2020-01-19T16:56:00","FM-15","7",,"SE","0.25","mi","TEMP, PRECIP, SNOW",,,"MMTS, SRG, SNOWBOARD",,,"WFO CHS",,,,,,,,,,,,,,,,,,,,,,,,,,,"29.97","40","57","0.00",,,,"53","29.96","BKN:07 220","29.92","10.00","49","270",,"11",,,,,,,,,,,,,,,,,,,,,,,,,,,,,,,,,,,,,"MET10101/19/20 16:56:02 METAR KCHS 192156Z 27010KT 10SM BKN220 14/04 A2997 RMK AO2 SLP146 T01390044 $ (JRS)","FM-15","7",,,,,,,,,,,,,,,,,,,,,,,,,,,,"2009-06-10"
"72208013880","2020-01-19T17:56:00","FM-15","7",,"SE","0.25","mi","TEMP, PRECIP, SNOW",,,"MMTS, SRG, SNOWBOARD",,,"WFO CHS",,,,,,,,,,,,,,,,,,,,,,,,,,,"30.00","29","53","0.00",,,,"40","29.99","BKN:07 220","29.95","10.00","43","290",,"13",,,,,,,,,,,,,,,,,,,,,,,,,,,,,,,,,,,,,"MET10201/19/20 17:56:02 METAR KCHS 192256Z 29011KT 10SM BKN220 12/M02 A3000 RMK AO2 SLP157 T01171017 $ (JRS)","FM-15","7",,,,,,,,,,,,,,,,,,,,,,,,,,,,"2009-06-10"
"72208013880","2020-01-19T18:56:00","FM-15","7",,"SE","0.25","mi","TEMP, PRECIP, SNOW",,,"MMTS, SRG, SNOWBOARD",,,"WFO CHS",,,,,,,,,,,,,,,,,,,,,,,,,,,"30.03","28","50","0.00",,"-0.08","3","43","30.02","BKN:07 220","29.98","10.00","41","290",,"10",,,,,,,,,,,,,,,,,,,,,,,,,,,,,,,,,,,,,"MET12001/19/20 18:56:02 METAR KCHS 192356Z 29009KT 10SM BKN220 10/M02 A3003 RMK AO2 SLP167 T01001022 10172 20100 53026 $ (JRS)","FM-15","7",,,,,,,,,,,,,,,,,,,,,,,,,,,,"2009-06-10"
"72208013880","2020-01-19T19:00:00","FM-12","4",,"SE","0.25","mi","TEMP, PRECIP, SNOW",,,"MMTS, SRG, SNOWBOARD",,,"WFO CHS",,,,,,,,,,,,,,,,,,,,,,,,,,,"30.03","28","50",,,"-0.08","3","43","30.02",,"29.98","9.94","41","290",,"10",,,,,,,,,,,,,,,,,,,,,,,,,,,,,,,,,,,,,"SYN08072208 32966 62909 10100 21022 30153 40167 53026 92356 333 10178 20100 555 92000=","FM-12","4",,,,,,,,,,,,,,,,,,,,,,,,,,,,"2009-06-10"
"72208013880","2020-01-19T19:56:00","FM-15","7",,"SE","0.25","mi","TEMP, PRECIP, SNOW",,,"MMTS, SRG, SNOWBOARD",,,"WFO CHS",,,,,,,,,,,,,,,,,,,,,,,,,,,"30.05","29","49","0.00",,,,"46","30.05","SCT:04 220","30.00","10.00","41","280",,"9",,,,,,,,,,,,,,,,,,,,,,,,,,,,,,,,,,,,,"MET09601/19/20 19:56:01 METAR KCHS 200056Z 28008KT 10SM SCT220 09/M02 A3005 RMK AO2 SLP176 T00941017 $","FM-15","7",,,,,,,,,,,,,,,,,,,,,,,,,,,,"2009-06-10"
"72208013880","2020-01-19T20:56:00","FM-15","7",,"SE","0.25","mi","TEMP, PRECIP, SNOW",,,"MMTS, SRG, SNOWBOARD",,,"WFO CHS",,,,,,,,,,,,,,,,,,,,,,,,,,,"30.07","30","47","0.00",,,,"52","30.07","FEW:02 250","30.02","10.00","40","290",,"10",,,,,,,,,,,,,,,,,,,,,,,,,,,,,,,,,,,,,"MET09601/19/20 20:56:01 METAR KCHS 200156Z 29009KT 10SM FEW250 08/M01 A3007 RMK AO2 SLP182 T00831011 $","FM-15","7",,,,,,,,,,,,,,,,,,,,,,,,,,,,"2009-06-10"
"72208013880","2020-01-19T21:56:00","FM-15","7",,"SE","0.25","mi","TEMP, PRECIP, SNOW",,,"MMTS, SRG, SNOWBOARD",,,"WFO CHS",,,,,,,,,,,,,,,,,,,,,,,,,,,"30.08","30","45","0.00",,"-0.06","1","56","30.08","CLR:00","30.03","10.00","39","300",,"7",,,,,,,,,,,,,,,,,,,,,,,,,,,,,,,,,,,,,"MET09901/19/20 21:56:01 METAR KCHS 200256Z 30006KT 10SM CLR 07/M01 A3008 RMK AO2 SLP186 T00721011 51019 $","FM-15","7",,,,,,,,,,,,,,,,,,,,,,,,,,,,"2009-06-10"
"72208013880","2020-01-19T22:00:00","FM-12","4",,"SE","0.25","mi","TEMP, PRECIP, SNOW",,,"MMTS, SRG, SNOWBOARD",,,"WFO CHS",,,,,,,,,,,,,,,,,,,,,,,,,,,"30.08","30","45",,,"-0.06","1","56","30.08",,"30.03","9.94","39","300",,"7",,,,,,,,,,,,,,,,,,,,,,,,,,,,,,,,,,,,,"SYN06472208 32966 03006 10072 21011 30170 40186 51019 90256 555 92003=","FM-12","4",,,,,,,,,,,,,,,,,,,,,,,,,,,,"2009-06-10"
"72208013880","2020-01-19T22:56:00","FM-15","7",,"SE","0.25","mi","TEMP, PRECIP, SNOW",,,"MMTS, SRG, SNOWBOARD",,,"WFO CHS",,,,,,,,,,,,,,,,,,,,,,,,,,,"30.10","30","45","0.00",,,,"56","30.09","CLR:00","30.05","10.00","39","290",,"11",,,,,,,,,,,,,,,,,,,,,,,,,,,,,,,,,,,,,"MET09301/19/20 22:56:01 METAR KCHS 200356Z 29010KT 10SM CLR 07/M01 A3010 RMK AO2 SLP191 T00721011 $","FM-15","7",,,,,,,,,,,,,,,,,,,,,,,,,,,,"2009-06-10"
"72208013880","2020-01-19T23:56:00","FM-15","7",,"SE","0.25","mi","TEMP, PRECIP, SNOW",,,"MMTS, SRG, SNOWBOARD",,,"WFO CHS",,,,,,,,,,,,,,,,,,,,,,,,,,,"30.11","30","42","0.00",,,,"62","30.11","CLR:00","30.06","10.00","37","310",,"7",,,,,,,,,,,,,,,,,,,,,,,,,,,,,,,,,,,,,"MET10301/19/20 23:56:01 METAR KCHS 200456Z 31006KT 10SM CLR 06/M01 A3011 RMK AO2 SLP196 T00561011 401830056 $","FM-15","7",,,,,,,,,,,,,,,,,,,,,,,,,,,,"2009-06-10"
"72208013880","2020-01-19T23:59:00","SOD  ","6",,"SE","0.25","mi","TEMP, PRECIP, SNOW",,,"MMTS, SRG, SNOWBOARD",,,"WFO CHS",,,,"47","54","68","30.01","29.96","53","12.3","0","5.9","11","65","42","210","31","T","0","0.0","220","23","RA BR",,,,,,,,,,,,,,,,,,,,,,,,,,,,,,,,,,,,,,,,,,,,,,,,,,,,,,,,"SOD75624 HR PRECIPITATION (IN):    T SNOW DEPTH (IN):0     24 HR SNOWFALL (IN):0.0  WEATHER(CODE):1  24 HR MAX TEMP (F): 6524 HR MIN TEMP (F): 42AVERAGE STATION PRESSURE:29.960 MINIMUM SEA LEVEL PRESSURE:29.93 TIME OF OCCURRENCE:1354 PEAK WIND SPEED (MPH): 31 PEAK WIND DIR (DEG):210 PEAK WIND TIME (LST):      FASTEST 2MIN SPEED (MPH): 23FASTEST 2MIN DIR (DEG):220 FASTEST 2MIN TIME (LST):     AVERAGE WIND SPEED (MPH):12.3 24 HR AVG TEMP (F): 54DEPART FROM NORMAL:  6  HEATING DEGREE DAYS: 11 COOLING DEGREE DAYS:  0 LATEST DAY MAX TEMP (0700-1900 LST):64  LATEST NIGHT MIN TEMP(1900-0800 LST):58 HOURLY INCREMENTAL PRECIPITATION VALUES (IN):.00 T    T    0.00 0.00 0.00 0.00 T    T    T    T    T    0.00 0.00 0.00 0.00 0.00 0.00 0.00 0.00 0.00 0.00 0.00 0.00","SOD  ","6",,,,,,,,,,,,,,,,,,,,,,,,,"0722","1740",,"2009-06-10"
"72208013880","2020-01-20T00:56:00","FM-15","7",,"SE","0.25","mi","TEMP, PRECIP, SNOW",,,"MMTS, SRG, SNOWBOARD",,,"WFO CHS",,,,,,,,,,,,,,,,,,,,,,,,,,,"30.12","29","40","0.00",,"-0.04","1","65","30.12","CLR:00","30.07","10.00","36","340",,"10",,,,,,,,,,,,,,,,,,,,,,,,,,,,,,,,,,,,,"MET11701/20/20 00:56:02 METAR KCHS 200556Z 34009KT 10SM CLR 04/M02 A3012 RMK AO2 SLP199 T00441017 10100 20044 51013 $ (KLJ)","FM-15","7",,,,,,,,,,,,,,,,,,,,,,,,,,,,"2009-06-10"
"72208013880","2020-01-20T01:00:00","FM-12","4",,"SE","0.25","mi","TEMP, PRECIP, SNOW",,,"MMTS, SRG, SNOWBOARD",,,"WFO CHS",,,,,,,,,,,,,,,,,,,,,,,,,,,"30.12","29","40",,,"-0.04","1","65","30.12",,"30.07","9.94","36","340",,"10",,,,,,,,,,,,,,,,,,,,,,,,,,,,,,,,,,,,,"SYN08072208 32966 03409 10044 21017 30184 40199 51013 90556 333 10183 20044 555 92006=","FM-12","4",,,,,,,,,,,,,,,,,,,,,,,,,,,,"2009-06-10"
"72208013880","2020-01-20T01:56:00","FM-15","7",,"SE","0.25","mi","TEMP, PRECIP, SNOW",,,"MMTS, SRG, SNOWBOARD",,,"WFO CHS",,,,,,,,,,,,,,,,,,,,,,,,,,,"30.13","26","43","0.00",,,,"51","30.13","CLR:00","30.08","10.00","36","020",,"10",,,,,,,,,,,,,,,,,,,,,,,,,,,,,,,,,,,,,"MET09901/20/20 01:56:02 METAR KCHS 200656Z 02009KT 10SM CLR 06/M03 A3013 RMK AO2 SLP202 T00611033 $ (KLJ)","FM-15","7",,,,,,,,,,,,,,,,,,,,,,,,,,,,"2009-06-10"
"72208013880","2020-01-20T02:56:00","FM-15","7",,"SE","0.25","mi","TEMP, PRECIP, SNOW",,,"MMTS, SRG, SNOWBOARD",,,"WFO CHS",,,,,,,,,,,,,,,,,,,,,,,,,,,"30.14","26","42","0.00",,,,"53","30.14","CLR:00","30.09","10.00","36","020",,"14",,,,,,,,,,,,,,,,,,,,,,,,,,,,,,,,,,,,,"MET09901/20/20 02:56:02 METAR KCHS 200756Z 02012KT 10SM CLR 06/M03 A3014 RMK AO2 SLP206 T00561033 $ (KLJ)","FM-15","7",,,,,,,,,,,,,,,,,,,,,,,,,,,,"2009-06-10"
"72208013880","2020-01-20T03:56:00","FM-15","7",,"SE","0.25","mi","TEMP, PRECIP, SNOW",,,"MMTS, SRG, SNOWBOARD",,,"WFO CHS",,,,,,,,,,,,,,,,,,,,,,,,,,,"30.17","24","39","0.00",,"-0.05","3","55","30.16","CLR:00","30.12","10.00","33","010","25","14",,,,,,,,,,,,,,,,,,,,,,,,,,,,,,,,,,,,,"MET10801/20/20 03:56:02 METAR KCHS 200856Z 01012G22KT 10SM CLR 04/M04 A3017 RMK AO2 SLP215 T00391044 53016 $ (KLJ)","FM-15","7",,,,,,,,,,,,,,,,,,,,,,,,,,,,"2009-06-10"
"72208013880","2020-01-20T04:00:00","FM-12","4",,"SE","0.25","mi","TEMP, PRECIP, SNOW",,,"MMTS, SRG, SNOWBOARD",,,"WFO CHS",,,,,,,,,,,,,,,,,,,,,,,,,,,"30.17","24","39",,,"-0.05","3","55","30.16",,"30.12","9.94","33","010",,"14",,,,,,,,,,,,,,,,,,,,,,,,,,,,,,,,,,,,,"SYN07472208 32966 00112 10039 21044 30201 40215 53016 90856 333 91022 555 92009=","FM-12","4",,,,,,,,,,,,,,,,,,,,,,,,,,,,"2009-06-10"
"72208013880","2020-01-20T04:56:00","FM-15","7",,"SE","0.25","mi","TEMP, PRECIP, SNOW",,,"MMTS, SRG, SNOWBOARD",,,"WFO CHS",,,,,,,,,,,,,,,,,,,,,,,,,,,"30.18","21","37","0.00",,,,"52","30.18","CLR:00","30.13","10.00","31","030",,"14",,,,,,,,,,,,,,,,,,,,,,,,,,,,,,,,,,,,,"MET09901/20/20 04:56:02 METAR KCHS 200956Z 03012KT 10SM CLR 03/M06 A3018 RMK AO2 SLP219 T00281061 $ (KLJ)","FM-15","7",,,,,,,,,,,,,,,,,,,,,,,,,,,,"2009-06-10"
"72208013880","2020-01-20T05:56:00","FM-15","7",,"SE","0.25","mi","TEMP, PRECIP, SNOW",,,"MMTS, SRG, SNOWBOARD",,,"WFO CHS",,,,,,,,,,,,,,,,,,,,,,,,,,,"30.21","20","35","0.00",,,,"54","30.21","CLR:00","30.16","10.00","30","030","18","13",,,,,,,,,,,,,,,,,,,,,,,,,,,,,,,,,,,,,"MET10201/20/20 05:56:02 METAR KCHS 201056Z 03011G16KT 10SM CLR 02/M07 A3021 RMK AO2 SLP229 T00171067 $ (KLJ)","FM-15","7",,,,,,,,,,,,,,,,,,,,,,,,,,,,"2009-06-10"
"72208013880","2020-01-20T06:56:00","FM-15","7",,"SE","0.25","mi","TEMP, PRECIP, SNOW",,,"MMTS, SRG, SNOWBOARD",,,"WFO CHS",,,,,,,,,,,,,,,,,,,,,,,,,,,"30.25","19","34","0.00",,"-0.08","3","54","30.24","CLR:00","30.20","10.00","29","020",,"11",,,,,,,,,,,,,,,,,,,,,,,,,,,,,,,,,,,,,"MET11701/20/20 06:56:02 METAR KCHS 201156Z 02010KT 10SM CLR 01/M07 A3025 RMK AO2 SLP242 T00111072 10061 20006 53027 $ (KLJ)","FM-15","7",,,,,,,,,,,,,,,,,,,,,,,,,,,,"2009-06-10"
"72208013880","2020-01-20T07:00:00","FM-12","4",,"SE","0.25","mi","TEMP, PRECIP, SNOW",,,"MMTS, SRG, SNOWBOARD",,,"WFO CHS",,,,,,,,,,,,,,,,,,,,,,,,,,,"30.25","19","34",,,"-0.08","3","54","30.24",,"30.20","9.94","29","020",,"11",,,,,,,,,,,,,,,,,,,,,,,,,,,,,,,,,,,,,"SYN08072208 32966 00210 10011 21072 30228 40242 53027 91156 333 10183 20006 555 92012=","FM-12","4",,,,,,,,,,,,,,,,,,,,,,,,,,,,"2009-06-10"
"72208013880","2020-01-20T07:56:00","FM-15","7",,"SE","0.25","mi","TEMP, PRECIP, SNOW",,,"MMTS, SRG, SNOWBOARD",,,"WFO CHS",,,,,,,,,,,,,,,,,,,,,,,,,,,"30.29","18","34","0.00",,,,"52","30.29","CLR:00","30.24","10.00","29","030",,"13",,,,,,,,,,,,,,,,,,,,,,,,,,,,,,,,,,,,,"MET09901/20/20 07:56:02 METAR KCHS 201256Z 03011KT 10SM CLR 01/M08 A3029 RMK AO2 SLP256 T00111078 $ (JMB)","FM-15","7",,,,,,,,,,,,,,,,,,,,,,,,,,,,"2009-06-10"
"72208013880","2020-01-20T08:56:00","FM-15","7",,"SE","0.25","mi","TEMP, PRECIP, SNOW",,,"MMTS, SRG, SNOWBOARD",,,"WFO CHS",,,,,,,,,,,,,,,,,,,,,,,,,,,"30.31","18","36","0.00",,,,"48","30.30","CLR:00","30.26","10.00","30","020",,"15",,,,,,,,,,,,,,,,,,,,,,,,,,,,,,,,,,,,,"MET09901/20/20 08:56:02 METAR KCHS 201356Z 02013KT 10SM CLR 02/M08 A3031 RMK AO2 SLP262 T00221078 $ (JMB)","FM-15","7",,,,,,,,,,,,,,,,,,,,,,,,,,,,"2009-06-10"
"72208013880","2020-01-20T09:56:00","FM-15","7",,"SE","0.25","mi","TEMP, PRECIP, SNOW",,,"MMTS, SRG, SNOWBOARD",,,"WFO CHS",,,,,,,,,,,,,,,,,,,,,,,,,,,"30.33","17","38","0.00",,"-0.08","1","43","30.33","FEW:02 250","30.28","10.00","31","020",,"17",,,,,,,,,,,,,,,,,,,,,,,,,,,,,,,,,,,,,"MET10801/20/20 09:56:02 METAR KCHS 201456Z 02015KT 10SM FEW250 03/M08 A3033 RMK AO2 SLP271 T00331083 51028 $ (JMB)","FM-15","7",,,,,,,,,,,,,,,,,,,,,,,,,,,,"2009-06-10"
"72208013880","2020-01-20T10:00:00","FM-12","4",,"SE","0.25","mi","TEMP, PRECIP, SNOW",,,"MMTS, SRG, SNOWBOARD",,,"WFO CHS",,,,,,,,,,,,,,,,,,,,,,,,,,,"30.33","17","38",,,"-0.08","1","43","30.33",,"30.28","9.94","31","020",,"17",,,,,,,,,,,,,,,,,,,,,,,,,,,,,,,,,,,,,"SYN06472208 32966 20215 10033 21083 30255 40271 51028 91456 555 92015=","FM-12","4",,,,,,,,,,,,,,,,,,,,,,,,,,,,"2009-06-10"
"72208013880","2020-01-20T10:56:00","FM-15","7",,"SE","0.25","mi","TEMP, PRECIP, SNOW",,,"MMTS, SRG, SNOWBOARD",,,"WFO CHS",,,,,,,,,,,,,,,,,,,,,,,,,,,"30.33","17","40","0.00",,,,"40","30.33","SCT:04 250","30.28","10.00","32","050",,"11",,,,,,,,,,,,,,,,,,,,,,,,,,,,,,,,,,,,,"MET10201/20/20 10:56:02 METAR KCHS 201556Z 05010KT 10SM SCT250 04/M08 A3033 RMK AO2 SLP271 T00441083 $ (JMB)","FM-15","7",,,,,,,,,,,,,,,,,,,,,,,,,,,,"2009-06-10"
"72208013880","2020-01-20T11:25:00","FM-16","7",,"SE","0.25","mi","TEMP, PRECIP, SNOW",,,"MMTS, SRG, SNOWBOARD",,,"WFO CHS",,,,,,,,,,,,,,,,,,,,,,,,,,,"30.33","17","41",,,,,"38",,"SCT:04 250","30.28","10.00","33","350",,"10",,,,,,,,,,,,,,,,,,,,,,,,,,,,,,,,,,,,,"MET10601/20/20 11:25:02 SPECI KCHS 201625Z 35009KT 10SM SCT250 05/M08 A3033 RMK AO2 WSHFT 1606 T00501083 $ (JMB)","FM-16","7",,,,,,,,,,,,,,,,,,,,,,,,,,,,"2009-06-10"
"72208013880","2020-01-20T11:56:00","FM-15","7",,"SE","0.25","mi","TEMP, PRECIP, SNOW",,,"MMTS, SRG, SNOWBOARD",,,"WFO CHS",,,,,,,,,,,,,,,,,,,,,,,,,,,"30.31","18","42","0.00",,,,"38","30.31","SCT:04 250","30.26","10.00","33","040",,"10",,,,,,,,,,,,,,,,,,,,,,,,,,,,,,,,,,,,,"MET11301/20/20 11:56:02 METAR KCHS 201656Z 04009KT 10SM SCT250 06/M08 A3031 RMK AO2 WSHFT 1606 SLP263 T00561078 $ (JMB)","FM-15","7",,,,,,,,,,,,,,,,,,,,,,,,,,,,"2009-06-10"
"72208013880","2020-01-20T12:56:00","FM-15","7",,"SE","0.25","mi","TEMP, PRECIP, SNOW",,,"MMTS, SRG, SNOWBOARD",,,"WFO CHS",,,,,,,,,,,,,,,,,,,,,,,,,,,"30.29","19","44","0.00",,"+0.04","8","37","30.29","FEW:02 250","30.24","10.00","35","030","17","14",,,,,,,,,,,,,,,,,,,,,,,,,,,,,,,,,,,,,"MET12301/20/20 12:56:02 METAR KCHS 201756Z 03012G15KT 10SM FEW250 07/M07 A3029 RMK AO2 SLP256 T00671072 10072 20006 58015 $ (JMB)","FM-15","7",,,,,,,,,,,,,,,,,,,,,,,,,,,,"2009-06-10"
"72208013880","2020-01-20T13:00:00","FM-12","4",,"SE","0.25","mi","TEMP, PRECIP, SNOW",,,"MMTS, SRG, SNOWBOARD",,,"WFO CHS",,,,,,,,,,,,,,,,,,,,,,,,,,,"30.29","19","44",,,"+0.04","8","37","30.29",,"30.24","9.94","35","030",,"14",,,,,,,,,,,,,,,,,,,,,,,,,,,,,,,,,,,,,"SYN08672208 32966 20312 10067 21072 30241 40256 58015 91756 333 10072 20006 91015 555 92018=","FM-12","4",,,,,,,,,,,,,,,,,,,,,,,,,,,,"2009-06-10"
"72208013880","2020-01-20T13:56:00","FM-15","7",,"SE","0.25","mi","TEMP, PRECIP, SNOW",,,"MMTS, SRG, SNOWBOARD",,,"WFO CHS",,,,,,,,,,,,,,,,,,,,,,,,,,,"30.27","20","45","0.00",,,,"37","30.27","FEW:02 200","30.22","10.00","36","350","18","8",,,,,,,,,,,,,,,,,,,,,,,,,,,,,,,,,,,,,"MET10501/20/20 13:56:02 METAR KCHS 201856Z 35007G16KT 10SM FEW200 07/M07 A3027 RMK AO2 SLP250 T00721067 $ (JMB)","FM-15","7",,,,,,,,,,,,,,,,,,,,,,,,,,,,"2009-06-10"
"72208013880","2020-01-20T14:56:00","FM-15","7",,"SE","0.25","mi","TEMP, PRECIP, SNOW",,,"MMTS, SRG, SNOWBOARD",,,"WFO CHS",,,,,,,,,,,,,,,,,,,,,,,,,,,"30.27","20","45","0.00",,,,"37","30.27","FEW:02 200","30.22","10.00","36","350",,"11",,,,,,,,,,,,,,,,,,,,,,,,,,,,,,,,,,,,,"MET10201/20/20 14:56:02 METAR KCHS 201956Z 35010KT 10SM FEW200 07/M07 A3027 RMK AO2 SLP250 T00721067 $ (JMB)","FM-15","7",,,,,,,,,,,,,,,,,,,,,,,,,,,,"2009-06-10"
"72208013880","2020-01-20T15:56:00","FM-15","7",,"SE","0.25","mi","TEMP, PRECIP, SNOW",,,"MMTS, SRG, SNOWBOARD",,,"WFO CHS",,,,,,,,,,,,,,,,,,,,,,,,,,,"30.28","20","44","0.00",,"+0.01","5","38","30.28","FEW:02 200","30.23","10.00","35","020",,"13",,,,,,,,,,,,,,,,,,,,,,,,,,,,,,,,,,,,,"MET10801/20/20 15:56:02 METAR KCHS 202056Z 02011KT 10SM FEW200 07/M07 A3028 RMK AO2 SLP254 T00671067 55002 $ (BBE)","FM-15","7",,,,,,,,,,,,,,,,,,,,,,,,,,,,"2009-06-10"
"72208013880","2020-01-20T16:00:00","FM-12","4",,"SE","0.25","mi","TEMP, PRECIP, SNOW",,,"MMTS, SRG, SNOWBOARD",,,"WFO CHS",,,,,,,,,,,,,,,,,,,,,,,,,,,"30.28","20","44",,,"+0.01","5","38","30.28",,"30.23","9.94","35","020",,"13",,,,,,,,,,,,,,,,,,,,,,,,,,,,,,,,,,,,,"SYN06472208 32966 20211 10067 21067 30238 40254 55002 92056 555 92021=","FM-12","4",,,,,,,,,,,,,,,,,,,,,,,,,,,,"2009-06-10"
"72208013880","2020-01-20T16:56:00","FM-15","7",,"SE","0.25","mi","TEMP, PRECIP, SNOW",,,"MMTS, SRG, SNOWBOARD",,,"WFO CHS",,,,,,,,,,,,,,,,,,,,,,,,,,,"30.30","20","42","0.00",,,,"41","30.30","FEW:02 200","30.25","10.00","34","360",,"11",,,,,,,,,,,,,,,,,,,,,,,,,,,,,,,,,,,,,"MET10201/20/20 16:56:02 METAR KCHS 202156Z 36010KT 10SM FEW200 06/M07 A3030 RMK AO2 SLP260 T00561067 $ (BBE)","FM-15","7",,,,,,,,,,,,,,,,,,,,,,,,,,,,"2009-06-10"
"72208013880","2020-01-20T17:56:00","FM-15","7",,"SE","0.25","mi","TEMP, PRECIP, SNOW",,,"MMTS, SRG, SNOWBOARD",,,"WFO CHS",,,,,,,,,,,,,,,,,,,,,,,,,,,"30.31","20","39","0.00",,,,"46","30.31","FEW:02 200","30.26","10.00","32","010",,"10",,,,,,,,,,,,,,,,,,,,,,,,,,,,,,,,,,,,,"MET10201/20/20 17:56:02 METAR KCHS 202256Z 01009KT 10SM FEW200 04/M07 A3031 RMK AO2 SLP265 T00391067 $ (BBE)","FM-15","7",,,,,,,,,,,,,,,,,,,,,,,,,,,,"2009-06-10"
"72208013880","2020-01-20T18:56:00","FM-15","7",,"SE","0.25","mi","TEMP, PRECIP, SNOW",,,"MMTS, SRG, SNOWBOARD",,,"WFO CHS",,,,,,,,,,,,,,,,,,,,,,,,,,,"30.33","22","34","0.00",,"-0.05","3","61","30.33","CLR:00","30.28","10.00","30","350",,"7",,,,,,,,,,,,,,,,,,,,,,,,,,,,,,,,,,,,,"MET11701/20/20 18:56:02 METAR KCHS 202356Z 35006KT 10SM CLR 01/M06 A3033 RMK AO2 SLP271 T00111056 10078 20011 53016 $ (BBE)","FM-15","7",,,,,,,,,,,,,,,,,,,,,,,,,,,,"2009-06-10"
"72208013880","2020-01-20T19:00:00","FM-12","4",,"SE","0.25","mi","TEMP, PRECIP, SNOW",,,"MMTS, SRG, SNOWBOARD",,,"WFO CHS",,,,,,,,,,,,,,,,,,,,,,,,,,,"30.33","22","34",,,"-0.05","3","61","30.33",,"30.28","9.94","30","350",,"7",,,,,,,,,,,,,,,,,,,,,,,,,,,,,,,,,,,,,"SYN08072208 32966 03506 10011 21056 30255 40271 53016 92356 333 10078 20006 555 92100=","FM-12","4",,,,,,,,,,,,,,,,,,,,,,,,,,,,"2009-06-10"
"72208013880","2020-01-20T19:56:00","FM-15","7",,"SE","0.25","mi","TEMP, PRECIP, SNOW",,,"MMTS, SRG, SNOWBOARD",,,"WFO CHS",,,,,,,,,,,,,,,,,,,,,,,,,,,"30.34","22","36","0.00",,,,"57","30.34","CLR:00","30.29","10.00","31","020",,"7",,,,,,,,,,,,,,,,,,,,,,,,,,,,,,,,,,,,,"MET09301/20/20 19:56:01 METAR KCHS 210056Z 02006KT 10SM CLR 02/M06 A3034 RMK AO2 SLP275 T00221056 $","FM-15","7",,,,,,,,,,,,,,,,,,,,,,,,,,,,"2009-06-10"
"72208013880","2020-01-20T20:56:00","FM-15","7",,"SE","0.25","mi","TEMP, PRECIP, SNOW",,,"MMTS, SRG, SNOWBOARD",,,"WFO CHS",,,,,,,,,,,,,,,,,,,,,,,,,,,"30.35","21","35","0.00",,,,"57","30.35","CLR:00","30.29","10.00","30","020",,"6",,,,,,,,,,,,,,,,,,,,,,,,,,,,,,,,,,,,,"MET09301/20/20 20:56:01 METAR KCHS 210156Z 02005KT 10SM CLR 02/M06 A3035 RMK AO2 SLP278 T00171061 $","FM-15","7",,,,,,,,,,,,,,,,,,,,,,,,,,,,"2009-06-10"
"72208013880","2020-01-20T21:56:00","FM-15","7",,"SE","0.25","mi","TEMP, PRECIP, SNOW",,,"MMTS, SRG, SNOWBOARD",,,"WFO CHS",,,,,,,,,,,,,,,,,,,,,,,,,,,"30.34","21","34","0.00",,"-0.01","0","59","30.34","CLR:00","30.29","10.00","30","030",,"7",,,,,,,,,,,,,,,,,,,,,,,,,,,,,,,,,,,,,"MET09901/20/20 21:56:01 METAR KCHS 210256Z 03006KT 10SM CLR 01/M06 A3034 RMK AO2 SLP274 T00111061 50003 $","FM-15","7",,,,,,,,,,,,,,,,,,,,,,,,,,,,"2009-06-10"
"72208013880","2020-01-20T22:00:00","FM-12","4",,"SE","0.25","mi","TEMP, PRECIP, SNOW",,,"MMTS, SRG, SNOWBOARD",,,"WFO CHS",,,,,,,,,,,,,,,,,,,,,,,,,,,"30.34","21","34",,,"0.01","9","59","30.34",,"30.29","9.94","30","030",,"7",,,,,,,,,,,,,,,,,,,,,,,,,,,,,,,,,,,,,"SYN06472208 32966 00306 10011 21061 30258 40274 50003 90256 555 92103=","FM-12","4",,,,,,,,,,,,,,,,,,,,,,,,,,,,"2009-06-10"
"72208013880","2020-01-20T22:56:00","FM-15","7",,"SE","0.25","mi","TEMP, PRECIP, SNOW",,,"MMTS, SRG, SNOWBOARD",,,"WFO CHS",,,,,,,,,,,,,,,,,,,,,,,,,,,"30.34","22","32","0.00",,,,"66","30.34","CLR:00","30.29","10.00","29","030",,"6",,,,,,,,,,,,,,,,,,,,,,,,,,,,,,,,,,,,,"MET09301/20/20 22:56:01 METAR KCHS 210356Z 03005KT 10SM CLR 00/M06 A3034 RMK AO2 SLP275 T00001056 $","FM-15","7",,,,,,,,,,,,,,,,,,,,,,,,,,,,"2009-06-10"
"72208013880","2020-01-20T23:56:00","FM-15","7",,"SE","0.25","mi","TEMP, PRECIP, SNOW",,,"MMTS, SRG, SNOWBOARD",,,"WFO CHS",,,,,,,,,,,,,,,,,,,,,,,,,,,"30.34","22","32","0.00",,,,"66","30.34","CLR:00","30.29","10.00","29","020",,"8",,,,,,,,,,,,,,,,,,,,,,,,,,,,,,,,,,,,,"MET10301/20/20 23:56:01 METAR KCHS 210456Z 02007KT 10SM CLR 00/M06 A3034 RMK AO2 SLP274 T00001056 400781006 $","FM-15","7",,,,,,,,,,,,,,,,,,,,,,,,,,,,"2009-06-10"
"72208013880","2020-01-20T23:59:00","SOD  ","6",,"SE","0.25","mi","TEMP, PRECIP, SNOW",,,"MMTS, SRG, SNOWBOARD",,,"WFO CHS",,,,"21","39","50","30.27","30.19","32","10.9","0","-9.2","26","46","31","030","29","0.00","0","0.0","030","22",,,,,,,,,,,,,,,,,,,,,,,,,,,,,,,,,,,,,,,,,,,,,,,,,,,,,,,,,"SOD73924 HR PRECIPITATION (IN): 0.00 SNOW DEPTH (IN):0     24 HR SNOWFALL (IN):0.0  24 HR MAX TEMP (F): 4624 HR MIN TEMP (F): 31AVERAGE STATION PRESSURE:30.190 MINIMUM SEA LEVEL PRESSURE:30.11 TIME OF OCCURRENCE:0034 PEAK WIND SPEED (MPH): 29 PEAK WIND DIR (DEG): 30 PEAK WIND TIME (LST):      FASTEST 2MIN SPEED (MPH): 22FASTEST 2MIN DIR (DEG): 30 FASTEST 2MIN TIME (LST):     AVERAGE WIND SPEED (MPH):10.9 24 HR AVG TEMP (F): 39DEPART FROM NORMAL: -9  HEATING DEGREE DAYS: 26 COOLING DEGREE DAYS:  0 LATEST DAY MAX TEMP (0700-1900 LST):46  LATEST NIGHT MIN TEMP(1900-0800 LST):33 HOURLY INCREMENTAL PRECIPITATION VALUES (IN):.00 0.00 0.00 0.00 0.00 0.00 0.00 0.00 0.00 0.00 0.00 0.00 0.00 0.00 0.00 0.00 0.00 0.00 0.00 0.00 0.00 0.00 0.00 0.00","SOD  ","6",,,,,,,,,,,,,,,,,,,,,,,,,"0722","1741",,"2009-06-10"
"72208013880","2020-01-21T00:56:00","FM-15","7",,"SE","0.25","mi","TEMP, PRECIP, SNOW",,,"MMTS, SRG, SNOWBOARD",,,"WFO CHS",,,,,,,,,,,,,,,,,,,,,,,,,,,"30.33","22","31","0.00",,"+0.01","8","69","30.33","CLR:00","30.28","10.00","28","030",,"6",,,,,,,,,,,,,,,,,,,,,,,,,,,,,,,,,,,,,"MET11801/21/20 00:56:02 METAR KCHS 210556Z 03005KT 10SM CLR M01/M06 A3033 RMK AO2 SLP272 T10061056 10022 21006 58002 $ (KLJ)","FM-15","7",,,,,,,,,,,,,,,,,,,,,,,,,,,,"2009-06-10"
"72208013880","2020-01-21T01:00:00","FM-12","4",,"SE","0.25","mi","TEMP, PRECIP, SNOW",,,"MMTS, SRG, SNOWBOARD",,,"WFO CHS",,,,,,,,,,,,,,,,,,,,,,,,,,,"30.33","22","31",,,"+0.01","8","69","30.33",,"30.28","9.94","28","030",,"6",,,,,,,,,,,,,,,,,,,,,,,,,,,,,,,,,,,,,"SYN08072208 32966 00305 11006 21056 30255 40272 58002 90556 333 10061 21006 555 92106=","FM-12","4",,,,,,,,,,,,,,,,,,,,,,,,,,,,"2009-06-10"
"72208013880","2020-01-21T01:56:00","FM-15","7",,"SE","0.25","mi","TEMP, PRECIP, SNOW",,,"MMTS, SRG, SNOWBOARD",,,"WFO CHS",,,,,,,,,,,,,,,,,,,,,,,,,,,"30.32","21","32","0.00",,,,"64","30.32","CLR:00","30.27","10.00","28","030",,"10",,,,,,,,,,,,,,,,,,,,,,,,,,,,,,,,,,,,,"MET09901/21/20 01:56:02 METAR KCHS 210656Z 03009KT 10SM CLR 00/M06 A3032 RMK AO2 SLP269 T00001061 $ (KLJ)","FM-15","7",,,,,,,,,,,,,,,,,,,,,,,,,,,,"2009-06-10"
"72208013880","2020-01-21T02:56:00","FM-15","7",,"SE","0.25","mi","TEMP, PRECIP, SNOW",,,"MMTS, SRG, SNOWBOARD",,,"WFO CHS",,,,,,,,,,,,,,,,,,,,,,,,,,,"30.32","20","31","0.00",,,,"64","30.32","CLR:00","30.27","10.00","27","030",,"9",,,,,,,,,,,,,,,,,,,,,,,,,,,,,,,,,,,,,"MET10001/21/20 02:56:02 METAR KCHS 210756Z 03008KT 10SM CLR M01/M07 A3032 RMK AO2 SLP268 T10061067 $ (KLJ)","FM-15","7",,,,,,,,,,,,,,,,,,,,,,,,,,,,"2009-06-10"
"72208013880","2020-01-21T03:56:00","FM-15","7",,"SE","0.25","mi","TEMP, PRECIP, SNOW",,,"MMTS, SRG, SNOWBOARD",,,"WFO CHS",,,,,,,,,,,,,,,,,,,,,,,,,,,"30.33","19","30","0.00",,"+0.01","5","64","30.33","CLR:00","30.28","10.00","26","040",,"10",,,,,,,,,,,,,,,,,,,,,,,,,,,,,,,,,,,,,"MET10601/21/20 03:56:02 METAR KCHS 210856Z 04009KT 10SM CLR M01/M07 A3033 RMK AO2 SLP270 T10111072 55002 $ (KLJ)","FM-15","7",,,,,,,,,,,,,,,,,,,,,,,,,,,,"2009-06-10"
"72208013880","2020-01-21T04:00:00","FM-12","4",,"SE","0.25","mi","TEMP, PRECIP, SNOW",,,"MMTS, SRG, SNOWBOARD",,,"WFO CHS",,,,,,,,,,,,,,,,,,,,,,,,,,,"30.33","19","30",,,"+0.01","5","64","30.33",,"30.28","9.94","26","040",,"10",,,,,,,,,,,,,,,,,,,,,,,,,,,,,,,,,,,,,"SYN06472208 32966 00409 11011 21072 30255 40270 55002 90856 555 92109=","FM-12","4",,,,,,,,,,,,,,,,,,,,,,,,,,,,"2009-06-10"
"72208013880","2020-01-21T04:56:00","FM-15","7",,"SE","0.25","mi","TEMP, PRECIP, SNOW",,,"MMTS, SRG, SNOWBOARD",,,"WFO CHS",,,,,,,,,,,,,,,,,,,,,,,,,,,"30.32","19","30","0.00",,,,"64","30.32","CLR:00","30.27","10.00","26","030",,"11",,,,,,,,,,,,,,,,,,,,,,,,,,,,,,,,,,,,,"MET10001/21/20 04:56:02 METAR KCHS 210956Z 03010KT 10SM CLR M01/M07 A3032 RMK AO2 SLP268 T10111072 $ (KLJ)","FM-15","7",,,,,,,,,,,,,,,,,,,,,,,,,,,,"2009-06-10"
"72208013880","2020-01-21T05:56:00","FM-15","7",,"SE","0.25","mi","TEMP, PRECIP, SNOW",,,"MMTS, SRG, SNOWBOARD",,,"WFO CHS",,,,,,,,,,,,,,,,,,,,,,,,,,,"30.33","18","30","0.00",,,,"61","30.32","CLR:00","30.28","10.00","26","030",,"13",,,,,,,,,,,,,,,,,,,,,,,,,,,,,,,,,,,,,"MET10001/21/20 05:56:02 METAR KCHS 211056Z 03011KT 10SM CLR M01/M08 A3033 RMK AO2 SLP269 T10111078 $ (KLJ)","FM-15","7",,,,,,,,,,,,,,,,,,,,,,,,,,,,"2009-06-10"
"72208013880","2020-01-21T06:56:00","FM-15","7",,"SE","0.25","mi","TEMP, PRECIP, SNOW",,,"MMTS, SRG, SNOWBOARD",,,"WFO CHS",,,,,,,,,,,,,,,,,,,,,,,,,,,"30.35","18","29","0.00",,"-0.02","3","63","30.35","CLR:00","30.29","10.00","25","020",,"9",,,,,,,,,,,,,,,,,,,,,,,,,,,,,,,,,,,,,"MET11801/21/20 06:56:02 METAR KCHS 211156Z 02008KT 10SM CLR M02/M08 A3035 RMK AO2 SLP277 T10171078 10000 21017 53007 $ (KLJ)","FM-15","7",,,,,,,,,,,,,,,,,,,,,,,,,,,,"2009-06-10"
"72208013880","2020-01-21T07:00:00","FM-12","4",,"SE","0.25","mi","TEMP, PRECIP, SNOW",,,"MMTS, SRG, SNOWBOARD",,,"WFO CHS",,,,,,,,,,,,,,,,,,,,,,,,,,,"30.35","18","29",,,"-0.02","3","63","30.35",,"30.30","9.94","25","020",,"9",,,,,,,,,,,,,,,,,,,,,,,,,,,,,,,,,,,,,"SYN08072208 32966 00208 11017 21078 30261 40277 53007 91156 333 10078 21017 555 92112=","FM-12","4",,,,,,,,,,,,,,,,,,,,,,,,,,,,"2009-06-10"
"72208013880","2020-01-21T07:56:00","FM-15","7",,"SE","0.25","mi","TEMP, PRECIP, SNOW",,,"MMTS, SRG, SNOWBOARD",,,"WFO CHS",,,,,,,,,,,,,,,,,,,,,,,,,,,"30.36","18","30","0.00",,,,"61","30.36","CLR:00","30.31","10.00","26","360",,"13",,,,,,,,,,,,,,,,,,,,,,,,,,,,,,,,,,,,,"MET09801/21/20 07:56:02 METAR KCHS 211256Z 36011KT 10SM CLR M01/M08 A3036 RMK AO2 SLP282 T10111078 (JMB)","FM-15","7",,,,,,,,,,,,,,,,,,,,,,,,,,,,"2009-06-10"
"72208013880","2020-01-21T08:56:00","FM-15","7",,"SE","0.25","mi","TEMP, PRECIP, SNOW",,,"MMTS, SRG, SNOWBOARD",,,"WFO CHS",,,,,,,,,,,,,,,,,,,,,,,,,,,"30.38","16","32","0.00",,,,"52","30.38","FEW:02 150","30.33","10.00","27","020","21","14",,,,,,,,,,,,,,,,,,,,,,,,,,,,,,,,,,,,,"MET10301/21/20 08:56:02 METAR KCHS 211356Z 02012G18KT 10SM FEW150 00/M09 A3038 RMK AO2 SLP288 T00001089 (JMB)","FM-15","7",,,,,,,,,,,,,,,,,,,,,,,,,,,,"2009-06-10"
"72208013880","2020-01-21T09:56:00","FM-15","7",,"SE","0.25","mi","TEMP, PRECIP, SNOW",,,"MMTS, SRG, SNOWBOARD",,,"WFO CHS",,,,,,,,,,,,,,,,,,,,,,,,,,,"30.40","15","36","0.00",,"-0.06","3","42","30.40","FEW:02 150","30.35","10.00","29","030",,"15",,,,,,,,,,,,,,,,,,,,,,,,,,,,,,,,,,,,,"MET10601/21/20 09:56:02 METAR KCHS 211456Z 03013KT 10SM FEW150 02/M09 A3040 RMK AO2 SLP296 T00221094 53019 (JMB)","FM-15","7",,,,,,,,,,,,,,,,,,,,,,,,,,,,"2009-06-10"
"72208013880","2020-01-21T10:00:00","FM-12","4",,"SE","0.25","mi","TEMP, PRECIP, SNOW",,,"MMTS, SRG, SNOWBOARD",,,"WFO CHS",,,,,,,,,,,,,,,,,,,,,,,,,,,"30.40","15","36",,,"-0.06","3","42","30.40",,"30.35","9.94","29","030",,"15",,,,,,,,,,,,,,,,,,,,,,,,,,,,,,,,,,,,,"SYN06472208 32966 20313 10022 21094 30278 40296 53019 91456 555 92115=","FM-12","4",,,,,,,,,,,,,,,,,,,,,,,,,,,,"2009-06-10"
"72208013880","2020-01-21T10:56:00","FM-15","7",,"SE","0.25","mi","TEMP, PRECIP, SNOW",,,"MMTS, SRG, SNOWBOARD",,,"WFO CHS",,,,,,,,,,,,,,,,,,,,,,,,,,,"30.39","13","37","0.00",,,,"37","30.39","FEW:02 150","30.34","10.00","29","360","23","18",,,,,,,,,,,,,,,,,,,,,,,,,,,,,,,,,,,,,"MET10301/21/20 10:56:02 METAR KCHS 211556Z 36016G20KT 10SM FEW150 03/M11 A3039 RMK AO2 SLP291 T00281106 (JMB)","FM-15","7",,,,,,,,,,,,,,,,,,,,,,,,,,,,"2009-06-10"
"72208013880","2020-01-21T11:56:00","FM-15","7",,"SE","0.25","mi","TEMP, PRECIP, SNOW",,,"MMTS, SRG, SNOWBOARD",,,"WFO CHS",,,,,,,,,,,,,,,,,,,,,,,,,,,"30.37","15","39","0.00",,,,"38","30.37","FEW:02 50 SCT:04 150","30.32","10.00","31","010","25","16",,,,,,,,,,,,,,,,,,,,,,,,,,,,,,,,,,,,,"MET12201/21/20 11:56:02 METAR KCHS 211656Z 01014G22KT 10SM FEW050 SCT150 04/M09 A3037 RMK AO2 PK WND 36026/1637 SLP284 T00391094","FM-15","7",,,,,,,,,,,,,,,,,,,,,,,,,,,,"2009-06-10"
"72208013880","2020-01-21T12:56:00","FM-15","7",,"SE","0.25","mi","TEMP, PRECIP, SNOW",,,"MMTS, SRG, SNOWBOARD",,,"WFO CHS",,,,,,,,,,,,,,,,,,,,,,,,,,,"30.32","15","41","0.00",,"+0.08","8","35","30.32","FEW:02 55 FEW:02 200","30.27","10.00","32","360","29","21",,,,,,,,,,,,,,,,,,,,,,,,,,,,,,,,,,,,,"MET14001/21/20 12:56:02 METAR KCHS 211756Z 36018G25KT 10SM FEW055 FEW200 05/M09 A3032 RMK AO2 PK WND 35028/1720 SLP269 T00501094 10050 21017 58027","FM-15","7",,,,,,,,,,,,,,,,,,,,,,,,,,,,"2009-06-10"
"72208013880","2020-01-21T13:00:00","FM-12","4",,"SE","0.25","mi","TEMP, PRECIP, SNOW",,,"MMTS, SRG, SNOWBOARD",,,"WFO CHS",,,,,,,,,,,,,,,,,,,,,,,,,,,"30.32","15","41",,,"+0.08","8","35","30.32","57","30.27","9.94","32","360",,"21",,,,,,,,,,,,,,,,,,,,,,,,,,,,,,,,,,,,,"SYN08672208 32766 23618 10050 21094 30251 40269 58027 91756 333 10050 21017 91025 555 92118=","FM-12","4",,,,,,,,,,,,,,,,,,,,,,,,,,,,"2009-06-10"
"72208013880","2020-01-21T13:56:00","FM-15","7",,"SE","0.25","mi","TEMP, PRECIP, SNOW",,,"MMTS, SRG, SNOWBOARD",,,"WFO CHS",,,,,,,,,,,,,,,,,,,,,,,,,,,"30.30","13","40","0.00",,,,"33","30.30","FEW:02 60 SCT:04 200","30.25","10.00","31","360","33","20",,,,,,,,,,,,,,,,,,,,,,,,,,,,,,,,,,,,,"MET12201/21/20 13:56:02 METAR KCHS 211856Z 36017G29KT 10SM FEW060 SCT200 04/M11 A3030 RMK AO2 PK WND 36029/1850 SLP261 T00441106","FM-15","7",,,,,,,,,,,,,,,,,,,,,,,,,,,,"2009-06-10"
"72208013880","2020-01-21T14:56:00","FM-15","7",,"SE","0.25","mi","TEMP, PRECIP, SNOW",,,"MMTS, SRG, SNOWBOARD",,,"WFO CHS",,,,,,,,,,,,,,,,,,,,,,,,,,,"30.29","13","41","0.00",,,,"32","30.29","SCT:04 65 BKN:07 200","30.24","10.00","32","010","31","21",,,,,,,,,,,,,,,,,,,,,,,,,,,,,,,,,,,,,"MET12201/21/20 14:56:02 METAR KCHS 211956Z 01018G27KT 10SM SCT065 BKN200 05/M11 A3029 RMK AO2 PK WND 01027/1949 SLP257 T00501106","FM-15","7",,,,,,,,,,,,,,,,,,,,,,,,,,,,"2009-06-10"
"72208013880","2020-01-21T15:56:00","FM-15","7",,"SE","0.25","mi","TEMP, PRECIP, SNOW",,,"MMTS, SRG, SNOWBOARD",,,"WFO CHS",,,,,,,,,,,,,,,,,,,,,,,,,,,"30.28","13","40","0.00",,"+0.04","6","33","30.28","BKN:07 120 BKN:07 200","30.23","10.00","31","360","25","21",,,,,,,,,,,,,,,,,,,,,,,,,,,,,,,,,,,,,"MET12801/21/20 15:56:02 METAR KCHS 212056Z 36018G22KT 10SM BKN120 BKN200 04/M11 A3028 RMK AO2 PK WND 35027/2026 SLP255 T00441106 56014","FM-15","7",,,,,,,,,,,,,,,,,,,,,,,,,,,,"2009-06-10"
"72208013880","2020-01-21T16:00:00","FM-12","4",,"SE","0.25","mi","TEMP, PRECIP, SNOW",,,"MMTS, SRG, SNOWBOARD",,,"WFO CHS",,,,,,,,,,,,,,,,,,,,,,,,,,,"30.28","13","40",,,"+0.04","6","33","30.28",,"30.23","9.94","31","360",,"21",,,,,,,,,,,,,,,,,,,,,,,,,,,,,,,,,,,,,"SYN07472208 32966 63618 10044 21106 30238 40255 56014 92056 333 91022 555 92121=","FM-12","4",,,,,,,,,,,,,,,,,,,,,,,,,,,,"2009-06-10"
"72208013880","2020-01-21T16:56:00","FM-15","7",,"SE","0.25","mi","TEMP, PRECIP, SNOW",,,"MMTS, SRG, SNOWBOARD",,,"WFO CHS",,,,,,,,,,,,,,,,,,,,,,,,,,,"30.28","12","40","0.00",,,,"32","30.28","SCT:04 120 BKN:07 200","30.23","10.00","31","350","29","17",,,,,,,,,,,,,,,,,,,,,,,,,,,,,,,,,,,,,"MET12201/21/20 16:56:02 METAR KCHS 212156Z 35015G25KT 10SM SCT120 BKN200 04/M11 A3028 RMK AO2 PK WND 02028/2123 SLP253 T00441111","FM-15","7",,,,,,,,,,,,,,,,,,,,,,,,,,,,"2009-06-10"
"72208013880","2020-01-21T17:56:00","FM-15","7",,"SE","0.25","mi","TEMP, PRECIP, SNOW",,,"MMTS, SRG, SNOWBOARD",,,"WFO CHS",,,,,,,,,,,,,,,,,,,,,,,,,,,"30.28","12","38","0.00",,,,"34","30.28","FEW:02 60 SCT:04 120 SCT:04 200","30.23","10.00","30","360","23","18",,,,,,,,,,,,,,,,,,,,,,,,,,,,,,,,,,,,,"MET12901/21/20 17:56:02 METAR KCHS 212256Z 36016G20KT 10SM FEW060 SCT120 SCT200 03/M11 A3028 RMK AO2 PK WND 35027/2220 SLP254 T00331111","FM-15","7",,,,,,,,,,,,,,,,,,,,,,,,,,,,"2009-06-10"
"72208013880","2020-01-21T18:56:00","FM-15","7",,"SE","0.25","mi","TEMP, PRECIP, SNOW",,,"MMTS, SRG, SNOWBOARD",,,"WFO CHS",,,,,,,,,,,,,,,,,,,,,,,,,,,"30.31","11","36","0.00",,"-0.03","3","35","30.31","FEW:02 60 SCT:04 200","30.26","10.00","28","010",,"9",,,,,,,,,,,,,,,,,,,,,,,,,,,,,,,,,,,,,"MET11901/21/20 18:56:02 METAR KCHS 212356Z 01008KT 10SM FEW060 SCT200 02/M12 A3031 RMK AO2 SLP265 T00221117 10056 20022 53010","FM-15","7",,,,,,,,,,,,,,,,,,,,,,,,,,,,"2009-06-10"
"72208013880","2020-01-21T19:00:00","FM-12","4",,"SE","0.25","mi","TEMP, PRECIP, SNOW",,,"MMTS, SRG, SNOWBOARD",,,"WFO CHS",,,,,,,,,,,,,,,,,,,,,,,,,,,"30.31","11","36",,,"-0.03","3","35","30.31","57","30.26","9.94","28","010",,"9",,,,,,,,,,,,,,,,,,,,,,,,,,,,,,,,,,,,,"SYN08072208 32766 40108 10022 21117 30248 40265 53010 92356 333 10056 21016 555 92200=","FM-12","4",,,,,,,,,,,,,,,,,,,,,,,,,,,,"2009-06-10"
"72208013880","2020-01-21T19:56:00","FM-15","7",,"SE","0.25","mi","TEMP, PRECIP, SNOW",,,"MMTS, SRG, SNOWBOARD",,,"WFO CHS",,,,,,,,,,,,,,,,,,,,,,,,,,,"30.33","11","36","0.00",,,,"35","30.33","FEW:02 120 SCT:04 200","30.28","10.00","28","010",,"15",,,,,,,,,,,,,,,,,,,,,,,,,,,,,,,,,,,,,"MET10101/21/20 19:56:01 METAR KCHS 220056Z 01013KT 10SM FEW120 SCT200 02/M12 A3033 RMK AO2 SLP271 T00221117","FM-15","7",,,,,,,,,,,,,,,,,,,,,,,,,,,,"2009-06-10"
"72208013880","2020-01-21T20:56:00","FM-15","7",,"SE","0.25","mi","TEMP, PRECIP, SNOW",,,"MMTS, SRG, SNOWBOARD",,,"WFO CHS",,,,,,,,,,,,,,,,,,,,,,,,,,,"30.34","11","36","0.00",,,,"35","30.33","SCT:04 200","30.29","10.00","28","010","22","15",,,,,,,,,,,,,,,,,,,,,,,,,,,,,,,,,,,,,"MET09701/21/20 20:56:01 METAR KCHS 220156Z 01013G19KT 10SM SCT200 02/M12 A3034 RMK AO2 SLP272 T00221117","FM-15","7",,,,,,,,,,,,,,,,,,,,,,,,,,,,"2009-06-10"
"72208013880","2020-01-21T21:56:00","FM-15","7",,"SE","0.25","mi","TEMP, PRECIP, SNOW",,,"MMTS, SRG, SNOWBOARD",,,"WFO CHS",,,,,,,,,,,,,,,,,,,,,,,,,,,"30.31","12","36","0.00",,"+0.01","8","37","30.30","BKN:07 200","30.26","10.00","28","010",,"14",,,,,,,,,,,,,,,,,,,,,,,,,,,,,,,,,,,,,"MET10001/21/20 21:56:01 METAR KCHS 220256Z 01012KT 10SM BKN200 02/M11 A3031 RMK AO2 SLP262 T00221111 58002","FM-15","7",,,,,,,,,,,,,,,,,,,,,,,,,,,,"2009-06-10"
"72208013880","2020-01-21T22:00:00","FM-12","4",,"SE","0.25","mi","TEMP, PRECIP, SNOW",,,"MMTS, SRG, SNOWBOARD",,,"WFO CHS",,,,,,,,,,,,,,,,,,,,,,,,,,,"30.31","12","36",,,"+0.01","8","37","30.30",,"30.26","9.94","28","010",,"14",,,,,,,,,,,,,,,,,,,,,,,,,,,,,,,,,,,,,"SYN06472208 32966 60112 10022 21111 30248 40262 58002 90256 555 92203=","FM-12","4",,,,,,,,,,,,,,,,,,,,,,,,,,,,"2009-06-10"
"72208013880","2020-01-21T22:56:00","FM-15","7",,"SE","0.25","mi","TEMP, PRECIP, SNOW",,,"MMTS, SRG, SNOWBOARD",,,"WFO CHS",,,,,,,,,,,,,,,,,,,,,,,,,,,"30.30","11","35","0.00",,,,"37","30.30","FEW:02 130 SCT:04 160","30.25","10.00","28","010",,"10",,,,,,,,,,,,,,,,,,,,,,,,,,,,,,,,,,,,,"MET10101/21/20 22:56:01 METAR KCHS 220356Z 01009KT 10SM FEW130 SCT160 02/M12 A3030 RMK AO2 SLP262 T00171117","FM-15","7",,,,,,,,,,,,,,,,,,,,,,,,,,,,"2009-06-10"
"72208013880","2020-01-21T23:56:00","FM-15","7",,"SE","0.25","mi","TEMP, PRECIP, SNOW",,,"MMTS, SRG, SNOWBOARD",,,"WFO CHS",,,,,,,,,,,,,,,,,,,,,,,,,,,"30.28","11","34","0.00",,,,"38","30.28","SCT:04 120 SCT:04 160","30.23","10.00","27","010","23","17",,,,,,,,,,,,,,,,,,,,,,,,,,,,,,,,,,,,,"MET12101/21/20 23:56:01 METAR KCHS 220456Z 01015G20KT 10SM SCT120 SCT160 01/M12 A3028 RMK AO2 PRESFR SLP253 T00111117 400561017","FM-15","7",,,,,,,,,,,,,,,,,,,,,,,,,,,,"2009-06-10"
"72208013880","2020-01-21T23:59:00","SOD  ","6",,"SE","0.25","mi","TEMP, PRECIP, SNOW",,,"MMTS, SRG, SNOWBOARD",,,"WFO CHS",,,,"15","36","45","30.32","30.27","28","14.3","0","-12.3","29","42","29","360","33","0.00","0","0.0","350","28",,,,,,,,,,,,,,,,,,,,,,,,,,,,,,,,,,,,,,,,,,,,,,,,,,,,,,,,,"SOD74324 HR PRECIPITATION (IN): 0.00 SNOW DEPTH (IN):0     24 HR SNOWFALL (IN):0.0  24 HR MAX TEMP (F): 4224 HR MIN TEMP (F): 29AVERAGE STATION PRESSURE(D):30.273 MINIMUM SEA LEVEL PRESSURE:30.27 TIME OF OCCURRENCE:2359 PEAK WIND SPEED (MPH): 33 PEAK WIND DIR (DEG):360 PEAK WIND TIME (LST):      FASTEST 2MIN SPEED (MPH): 28FASTEST 2MIN DIR (DEG):350 FASTEST 2MIN TIME (LST):     AVERAGE WIND SPEED (MPH):14.3 24 HR AVG TEMP (F): 36DEPART FROM NORMAL:-12  HEATING DEGREE DAYS: 29 COOLING DEGREE DAYS:  0 LATEST DAY MAX TEMP (0700-1900 LST): 42 LATEST NIGHT MIN TEMP(1900-0800 LST):29 HOURLY INCREMENTAL PRECIPITATION VALUES (IN):0.00 0.00 0.00 0.00 0.00 0.00 0.00 0.00 0.00 0.00 0.00 0.00 0.00 0.00 0.00 0.00 0.00 0.00 0.00 0.00 0.00 0.00 0.00 0.00","SOD  ","6",,,,,,,,,,,,,,,,,,,,,,,,,"0721","1742",,"2009-06-10"
"72208013880","2020-01-22T00:56:00","FM-15","7",,"SE","0.25","mi","TEMP, PRECIP, SNOW",,,"MMTS, SRG, SNOWBOARD",,,"WFO CHS",,,,,,,,,,,,,,,,,,,,,,,,,,,"30.27","12","34","0.00",,"+0.03","8","40","30.27","FEW:02 120","30.22","10.00","27","020","23","14",,,,,,,,,,,,,,,,,,,,,,,,,,,,,,,,,,,,,"MET12101/22/20 00:56:02 METAR KCHS 220556Z 02012G20KT 10SM FEW120 01/M11 A3027 RMK AO2 SLP251 T00111111 10028 20006 58011 (KLJ)","FM-15","7",,,,,,,,,,,,,,,,,,,,,,,,,,,,"2009-06-10"
"72208013880","2020-01-22T01:00:00","FM-12","4",,"SE","0.25","mi","TEMP, PRECIP, SNOW",,,"MMTS, SRG, SNOWBOARD",,,"WFO CHS",,,,,,,,,,,,,,,,,,,,,,,,,,,"30.27","12","34",,,"+0.03","8","40","30.27",,"30.22","9.94","27","020",,"14",,,,,,,,,,,,,,,,,,,,,,,,,,,,,,,,,,,,,"SYN08672208 32966 20212 10011 21111 30234 40251 58011 90556 333 10028 21016 91020 555 92206=","FM-12","4",,,,,,,,,,,,,,,,,,,,,,,,,,,,"2009-06-10"
"72208013880","2020-01-22T01:56:00","FM-15","7",,"SE","0.25","mi","TEMP, PRECIP, SNOW",,,"MMTS, SRG, SNOWBOARD",,,"WFO CHS",,,,,,,,,,,,,,,,,,,,,,,,,,,"30.28","12","33","0.00",,,,"42","30.27","FEW:02 120","30.23","10.00","27","010",,"15",,,,,,,,,,,,,,,,,,,,,,,,,,,,,,,,,,,,,"MET10001/22/20 01:56:02 METAR KCHS 220656Z 01013KT 10SM FEW120 01/M11 A3028 RMK AO2 SLP252 T00061111 (KLJ)","FM-15","7",,,,,,,,,,,,,,,,,,,,,,,,,,,,"2009-06-10"
"72208013880","2020-01-22T02:56:00","FM-15","7",,"SE","0.25","mi","TEMP, PRECIP, SNOW",,,"MMTS, SRG, SNOWBOARD",,,"WFO CHS",,,,,,,,,,,,,,,,,,,,,,,,,,,"30.27","13","33","0.00",,,,"43","30.27","CLR:00","30.22","10.00","27","010",,"14",,,,,,,,,,,,,,,,,,,,,,,,,,,,,,,,,,,,,"MET09701/22/20 02:56:02 METAR KCHS 220756Z 01012KT 10SM CLR 01/M11 A3027 RMK AO2 SLP250 T00061106 (KLJ)","FM-15","7",,,,,,,,,,,,,,,,,,,,,,,,,,,,"2009-06-10"
"72208013880","2020-01-22T03:56:00","FM-15","7",,"SE","0.25","mi","TEMP, PRECIP, SNOW",,,"MMTS, SRG, SNOWBOARD",,,"WFO CHS",,,,,,,,,,,,,,,,,,,,,,,,,,,"30.25","14","32","0.00",,"+0.02","8","47","30.25","CLR:00","30.20","10.00","26","010",,"16",,,,,,,,,,,,,,,,,,,,,,,,,,,,,,,,,,,,,"MET10301/22/20 03:56:02 METAR KCHS 220856Z 01014KT 10SM CLR 00/M10 A3025 RMK AO2 SLP245 T00001100 58006 (KLJ)","FM-15","7",,,,,,,,,,,,,,,,,,,,,,,,,,,,"2009-06-10"
"72208013880","2020-01-22T04:00:00","FM-12","4",,"SE","0.25","mi","TEMP, PRECIP, SNOW",,,"MMTS, SRG, SNOWBOARD",,,"WFO CHS",,,,,,,,,,,,,,,,,,,,,,,,,,,"30.25","14","32",,,"+0.02","8","47","30.25",,"30.20","9.94","26","010",,"16",,,,,,,,,,,,,,,,,,,,,,,,,,,,,,,,,,,,,"SYN06472208 32966 00114 10000 21100 30228 40245 58006 90856 555 92209=","FM-12","4",,,,,,,,,,,,,,,,,,,,,,,,,,,,"2009-06-10"
"72208013880","2020-01-22T04:56:00","FM-15","7",,"SE","0.25","mi","TEMP, PRECIP, SNOW",,,"MMTS, SRG, SNOWBOARD",,,"WFO CHS",,,,,,,,,,,,,,,,,,,,,,,,,,,"30.27","15","32","0.00",,,,"50","30.27","CLR:00","30.22","10.00","27","010","25","15",,,,,,,,,,,,,,,,,,,,,,,,,,,,,,,,,,,,,"MET10001/22/20 04:56:02 METAR KCHS 220956Z 01013G22KT 10SM CLR 00/M09 A3027 RMK AO2 SLP249 T00001094 (KLJ)","FM-15","7",,,,,,,,,,,,,,,,,,,,,,,,,,,,"2009-06-10"
"72208013880","2020-01-22T05:56:00","FM-15","7",,"SE","0.25","mi","TEMP, PRECIP, SNOW",,,"MMTS, SRG, SNOWBOARD",,,"WFO CHS",,,,,,,,,,,,,,,,,,,,,,,,,,,"30.29","18","32","0.00",,,,"56","30.29","CLR:00","30.24","10.00","27","010",,"15",,,,,,,,,,,,,,,,,,,,,,,,,,,,,,,,,,,,,"MET09701/22/20 05:56:02 METAR KCHS 221056Z 01013KT 10SM CLR 00/M08 A3029 RMK AO2 SLP257 T00001078 (KLJ)","FM-15","7",,,,,,,,,,,,,,,,,,,,,,,,,,,,"2009-06-10"
"72208013880","2020-01-22T06:56:00","FM-15","7",,"SE","0.25","mi","TEMP, PRECIP, SNOW",,,"MMTS, SRG, SNOWBOARD",,,"WFO CHS",,,,,,,,,,,,,,,,,,,,,,,,,,,"30.29","18","31","0.00",,"-0.04","1","59","30.29","CLR:00","30.24","10.00","27","030","23","13",,,,,,,,,,,,,,,,,,,,,,,,,,,,,,,,,,,,,"MET11901/22/20 06:56:02 METAR KCHS 221156Z 03011G20KT 10SM CLR M01/M08 A3029 RMK AO2 SLP257 T10061078 10011 21006 51013 (KLJ)","FM-15","7",,,,,,,,,,,,,,,,,,,,,,,,,,,,"2009-06-10"
"72208013880","2020-01-22T07:00:00","FM-12","4",,"SE","0.25","mi","TEMP, PRECIP, SNOW",,,"MMTS, SRG, SNOWBOARD",,,"WFO CHS",,,,,,,,,,,,,,,,,,,,,,,,,,,"30.29","18","31",,,"-0.04","1","59","30.29",,"30.24","9.94","27","030",,"13",,,,,,,,,,,,,,,,,,,,,,,,,,,,,,,,,,,,,"SYN08672208 32966 00311 11006 21078 30241 40257 51013 91156 333 10056 21006 91020 555 92212=","FM-12","4",,,,,,,,,,,,,,,,,,,,,,,,,,,,"2009-06-10"
"72208013880","2020-01-22T07:56:00","FM-15","7",,"SE","0.25","mi","TEMP, PRECIP, SNOW",,,"MMTS, SRG, SNOWBOARD",,,"WFO CHS",,,,,,,,,,,,,,,,,,,,,,,,,,,"30.31","19","32","0.00",,,,"59","30.31","CLR:00","30.26","10.00","28","020","20","11",,,,,,,,,,,,,,,,,,,,,,,,,,,,,,,,,,,,,"MET10001/22/20 07:56:02 METAR KCHS 221256Z 02010G17KT 10SM CLR 00/M07 A3031 RMK AO2 SLP265 T00001072 (JMB)","FM-15","7",,,,,,,,,,,,,,,,,,,,,,,,,,,,"2009-06-10"
"72208013880","2020-01-22T08:56:00","FM-15","7",,"SE","0.25","mi","TEMP, PRECIP, SNOW",,,"MMTS, SRG, SNOWBOARD",,,"WFO CHS",,,,,,,,,,,,,,,,,,,,,,,,,,,"30.31","21","35","0.00",,,,"57","30.31","CLR:00","30.26","10.00","30","020","23","14",,,,,,,,,,,,,,,,,,,,,,,,,,,,,,,,,,,,,"MET10001/22/20 08:56:02 METAR KCHS 221356Z 02012G20KT 10SM CLR 02/M06 A3031 RMK AO2 SLP264 T00171061 (JMB)","FM-15","7",,,,,,,,,,,,,,,,,,,,,,,,,,,,"2009-06-10"
"72208013880","2020-01-22T09:56:00","FM-15","7",,"SE","0.25","mi","TEMP, PRECIP, SNOW",,,"MMTS, SRG, SNOWBOARD",,,"WFO CHS",,,,,,,,,,,,,,,,,,,,,,,,,,,"30.32","23","39","0.00",,"-0.03","1","53","30.32","CLR:00","30.27","10.00","33","020","22","16",,,,,,,,,,,,,,,,,,,,,,,,,,,,,,,,,,,,,"MET10601/22/20 09:56:02 METAR KCHS 221456Z 02014G19KT 10SM CLR 04/M05 A3032 RMK AO2 SLP266 T00391050 51009 (JMB)","FM-15","7",,,,,,,,,,,,,,,,,,,,,,,,,,,,"2009-06-10"
"72208013880","2020-01-22T10:00:00","FM-12","4",,"SE","0.25","mi","TEMP, PRECIP, SNOW",,,"MMTS, SRG, SNOWBOARD",,,"WFO CHS",,,,,,,,,,,,,,,,,,,,,,,,,,,"30.32","23","39",,,"-0.03","1","53","30.32",,"30.27","9.94","33","020",,"16",,,,,,,,,,,,,,,,,,,,,,,,,,,,,,,,,,,,,"SYN07472208 32966 00214 10039 21050 30251 40266 51009 91456 333 91019 555 92215=","FM-12","4",,,,,,,,,,,,,,,,,,,,,,,,,,,,"2009-06-10"
"72208013880","2020-01-22T10:56:00","FM-15","7",,"SE","0.25","mi","TEMP, PRECIP, SNOW",,,"MMTS, SRG, SNOWBOARD",,,"WFO CHS",,,,,,,,,,,,,,,,,,,,,,,,,,,"30.32","25","44","0.00",,,,"47","30.32","CLR:00","30.27","10.00","37","010",,"13",,,,,,,,,,,,,,,,,,,,,,,,,,,,,,,,,,,,,"MET09701/22/20 10:56:02 METAR KCHS 221556Z 01011KT 10SM CLR 07/M04 A3032 RMK AO2 SLP267 T00671039 (JMB)","FM-15","7",,,,,,,,,,,,,,,,,,,,,,,,,,,,"2009-06-10"
"72208013880","2020-01-22T11:56:00","FM-15","7",,"SE","0.25","mi","TEMP, PRECIP, SNOW",,,"MMTS, SRG, SNOWBOARD",,,"WFO CHS",,,,,,,,,,,,,,,,,,,,,,,,,,,"30.30","28","48","0.00",,,,"46","30.30","FEW:02 250","30.25","10.00","40","010",,"11",,,,,,,,,,,,,,,,,,,,,,,,,,,,,,,,,,,,,"MET10001/22/20 11:56:02 METAR KCHS 221656Z 01010KT 10SM FEW250 09/M02 A3030 RMK AO2 SLP261 T00891022 (JMB)","FM-15","7",,,,,,,,,,,,,,,,,,,,,,,,,,,,"2009-06-10"
"72208013880","2020-01-22T12:56:00","FM-15","7",,"SE","0.25","mi","TEMP, PRECIP, SNOW",,,"MMTS, SRG, SNOWBOARD",,,"WFO CHS",,,,,,,,,,,,,,,,,,,,,,,,,,,"30.28","29","51","0.00",,"+0.04","8","43","30.28","FEW:02 250","30.23","10.00","42","030","24","17",,,,,,,,,,,,,,,,,,,,,,,,,,,,,,,,,,,,,"MET12101/22/20 12:56:02 METAR KCHS 221756Z 03015G21KT 10SM FEW250 11/M02 A3028 RMK AO2 SLP253 T01061017 10106 21006 58012 (JMB)","FM-15","7",,,,,,,,,,,,,,,,,,,,,,,,,,,,"2009-06-10"
"72208013880","2020-01-22T13:00:00","FM-12","4",,"SE","0.25","mi","TEMP, PRECIP, SNOW",,,"MMTS, SRG, SNOWBOARD",,,"WFO CHS",,,,,,,,,,,,,,,,,,,,,,,,,,,"30.28","29","51",,,"+0.04","8","43","30.28",,"30.23","9.94","42","030",,"17",,,,,,,,,,,,,,,,,,,,,,,,,,,,,,,,,,,,,"SYN08672208 32966 20315 10106 21017 30238 40253 58012 91756 333 10106 21006 91021 555 92218=","FM-12","4",,,,,,,,,,,,,,,,,,,,,,,,,,,,"2009-06-10"
"72208013880","2020-01-22T13:56:00","FM-15","7",,"SE","0.25","mi","TEMP, PRECIP, SNOW",,,"MMTS, SRG, SNOWBOARD",,,"WFO CHS",,,,,,,,,,,,,,,,,,,,,,,,,,,"30.25","30","53","0.00",,,,"41","30.24","SCT:04 250","30.20","10.00","43","010","21","13",,,,,,,,,,,,,,,,,,,,,,,,,,,,,,,,,,,,,"MET10301/22/20 13:56:02 METAR KCHS 221856Z 01011G18KT 10SM SCT250 12/M01 A3025 RMK AO2 SLP241 T01171011 (JMB)","FM-15","7",,,,,,,,,,,,,,,,,,,,,,,,,,,,"2009-06-10"
"72208013880","2020-01-22T14:56:00","FM-15","7",,"SE","0.25","mi","TEMP, PRECIP, SNOW",,,"MMTS, SRG, SNOWBOARD",,,"WFO CHS",,,,,,,,,,,,,,,,,,,,,,,,,,,"30.23","32","54","0.00",,,,"43","30.23","BKN:07 250","30.18","10.00","44","360",,"13",,,,,,,,,,,,,,,,,,,,,,,,,,,,,,,,,,,,,"MET09901/22/20 14:56:02 METAR KCHS 221956Z 36011KT 10SM BKN250 12/00 A3023 RMK AO2 SLP237 T01220000 (JMB)","FM-15","7",,,,,,,,,,,,,,,,,,,,,,,,,,,,"2009-06-10"
"72208013880","2020-01-22T15:56:00","FM-15","7",,"SE","0.25","mi","TEMP, PRECIP, SNOW",,,"MMTS, SRG, SNOWBOARD",,,"WFO CHS",,,,,,,,,,,,,,,,,,,,,,,,,,,"30.23","33","54","0.00",,"+0.05","5","45","30.23","FEW:02 120 SCT:04 250","30.18","10.00","45","040",,"11",,,,,,,,,,,,,,,,,,,,,,,,,,,,,,,,,,,,,"MET11201/22/20 15:56:02 METAR KCHS 222056Z 04010KT 10SM FEW120 SCT250 12/01 A3023 RMK AO2 SLP237 T01220006 55016 (BBE)","FM-15","7",,,,,,,,,,,,,,,,,,,,,,,,,,,,"2009-06-10"
"72208013880","2020-01-22T16:00:00","FM-12","4",,"SE","0.25","mi","TEMP, PRECIP, SNOW",,,"MMTS, SRG, SNOWBOARD",,,"WFO CHS",,,,,,,,,,,,,,,,,,,,,,,,,,,"30.23","33","54",,,"+0.05","5","45","30.23",,"30.18","9.94","45","040",,"11",,,,,,,,,,,,,,,,,,,,,,,,,,,,,,,,,,,,,"SYN06472208 32966 40410 10122 20006 30221 40237 55016 92056 555 92221=","FM-12","4",,,,,,,,,,,,,,,,,,,,,,,,,,,,"2009-06-10"
"72208013880","2020-01-22T16:56:00","FM-15","7",,"SE","0.25","mi","TEMP, PRECIP, SNOW",,,"MMTS, SRG, SNOWBOARD",,,"WFO CHS",,,,,,,,,,,,,,,,,,,,,,,,,,,"30.25","34","52","0.00",,,,"50","30.24","SCT:04 250","30.20","10.00","44","020",,"8",,,,,,,,,,,,,,,,,,,,,,,,,,,,,,,,,,,,,"MET09901/22/20 16:56:02 METAR KCHS 222156Z 02007KT 10SM SCT250 11/01 A3025 RMK AO2 SLP242 T01110011 (BBE)","FM-15","7",,,,,,,,,,,,,,,,,,,,,,,,,,,,"2009-06-10"
"72208013880","2020-01-22T17:56:00","FM-15","7",,"SE","0.25","mi","TEMP, PRECIP, SNOW",,,"MMTS, SRG, SNOWBOARD",,,"WFO CHS",,,,,,,,,,,,,,,,,,,,,,,,,,,"30.27","33","48","0.00",,,,"56","30.27","FEW:02 250","30.22","10.00","42","010",,"8",,,,,,,,,,,,,,,,,,,,,,,,,,,,,,,,,,,,,"MET09901/22/20 17:56:02 METAR KCHS 222256Z 01007KT 10SM FEW250 09/01 A3027 RMK AO2 SLP251 T00890006 (BBE)","FM-15","7",,,,,,,,,,,,,,,,,,,,,,,,,,,,"2009-06-10"
"72208013880","2020-01-22T18:56:00","FM-15","7",,"SE","0.25","mi","TEMP, PRECIP, SNOW",,,"MMTS, SRG, SNOWBOARD",,,"WFO CHS",,,,,,,,,,,,,,,,,,,,,,,,,,,"30.29","33","47","0.00",,"-0.06","3","59","30.29","CLR:00","30.24","10.00","41","010",,"9",,,,,,,,,,,,,,,,,,,,,,,,,,,,,,,,,,,,,"MET11401/22/20 18:56:02 METAR KCHS 222356Z 01008KT 10SM CLR 08/01 A3029 RMK AO2 SLP257 T00830006 10128 20078 53019 (BBE)","FM-15","7",,,,,,,,,,,,,,,,,,,,,,,,,,,,"2009-06-10"
"72208013880","2020-01-22T19:00:00","FM-12","4",,"SE","0.25","mi","TEMP, PRECIP, SNOW",,,"MMTS, SRG, SNOWBOARD",,,"WFO CHS",,,,,,,,,,,,,,,,,,,,,,,,,,,"30.29","33","47",,,"-0.06","3","59","30.29",,"30.24","9.94","41","010",,"9",,,,,,,,,,,,,,,,,,,,,,,,,,,,,,,,,,,,,"SYN08072208 32966 00108 10083 20006 30241 40257 53019 92356 333 10128 21005 555 92300=","FM-12","4",,,,,,,,,,,,,,,,,,,,,,,,,,,,"2009-06-10"
"72208013880","2020-01-22T19:56:00","FM-15","7",,"SE","0.25","mi","TEMP, PRECIP, SNOW",,,"MMTS, SRG, SNOWBOARD",,,"WFO CHS",,,,,,,,,,,,,,,,,,,,,,,,,,,"30.32","32","45","0.00",,,,"61","30.32","SCT:04 200","30.27","10.00","40","020",,"7",,,,,,,,,,,,,,,,,,,,,,,,,,,,,,,,,,,,,"MET09301/22/20 19:56:01 METAR KCHS 230056Z 02006KT 10SM SCT200 07/00 A3032 RMK AO2 SLP266 T00720000","FM-15","7",,,,,,,,,,,,,,,,,,,,,,,,,,,,"2009-06-10"
"72208013880","2020-01-22T20:56:00","FM-15","7",,"SE","0.25","mi","TEMP, PRECIP, SNOW",,,"MMTS, SRG, SNOWBOARD",,,"WFO CHS",,,,,,,,,,,,,,,,,,,,,,,,,,,"30.33","32","42","0.00",,,,"68","30.33","CLR:00","30.28","10.00","38","030",,"7",,,,,,,,,,,,,,,,,,,,,,,,,,,,,,,,,,,,,"MET09001/22/20 20:56:01 METAR KCHS 230156Z 03006KT 10SM CLR 06/00 A3033 RMK AO2 SLP272 T00560000","FM-15","7",,,,,,,,,,,,,,,,,,,,,,,,,,,,"2009-06-10"
"72208013880","2020-01-22T21:56:00","FM-15","7",,"SE","0.25","mi","TEMP, PRECIP, SNOW",,,"MMTS, SRG, SNOWBOARD",,,"WFO CHS",,,,,,,,,,,,,,,,,,,,,,,,,,,"30.31","31","42","0.00",,"-0.03","0","65","30.31","CLR:00","30.26","10.00","38","030",,"13",,,,,,,,,,,,,,,,,,,,,,,,,,,,,,,,,,,,,"MET09701/22/20 21:56:01 METAR KCHS 230256Z 03011KT 10SM CLR 06/M01 A3031 RMK AO2 SLP265 T00561006 50009","FM-15","7",,,,,,,,,,,,,,,,,,,,,,,,,,,,"2009-06-10"
"72208013880","2020-01-22T22:00:00","FM-12","4",,"SE","0.25","mi","TEMP, PRECIP, SNOW",,,"MMTS, SRG, SNOWBOARD",,,"WFO CHS",,,,,,,,,,,,,,,,,,,,,,,,,,,"30.31","31","42",,,"0.03","9","65","30.31",,"30.26","9.94","38","030",,"13",,,,,,,,,,,,,,,,,,,,,,,,,,,,,,,,,,,,,"SYN06472208 32966 00311 10056 21006 30248 40265 50009 90256 555 92303=","FM-12","4",,,,,,,,,,,,,,,,,,,,,,,,,,,,"2009-06-10"
"72208013880","2020-01-22T22:56:00","FM-15","7",,"SE","0.25","mi","TEMP, PRECIP, SNOW",,,"MMTS, SRG, SNOWBOARD",,,"WFO CHS",,,,,,,,,,,,,,,,,,,,,,,,,,,"30.32","30","42","0.00",,,,"62","30.32","FEW:02 200","30.27","10.00","37","030",,"11",,,,,,,,,,,,,,,,,,,,,,,,,,,,,,,,,,,,,"MET09401/22/20 22:56:01 METAR KCHS 230356Z 03010KT 10SM FEW200 06/M01 A3032 RMK AO2 SLP266 T00561011","FM-15","7",,,,,,,,,,,,,,,,,,,,,,,,,,,,"2009-06-10"
"72208013880","2020-01-22T23:56:00","FM-15","7",,"SE","0.25","mi","TEMP, PRECIP, SNOW",,,"MMTS, SRG, SNOWBOARD",,,"WFO CHS",,,,,,,,,,,,,,,,,,,,,,,,,,,"30.29","30","41","0.00",,,,"65","30.29","FEW:02 200","30.24","10.00","37","020",,"14",,,,,,,,,,,,,,,,,,,,,,,,,,,,,,,,,,,,,"MET10401/22/20 23:56:01 METAR KCHS 230456Z 02012KT 10SM FEW200 05/M01 A3029 RMK AO2 SLP257 T00501011 401281006","FM-15","7",,,,,,,,,,,,,,,,,,,,,,,,,,,,"2009-06-10"
"72208013880","2020-01-22T23:59:00","SOD  ","6",,"SE","0.25","mi","TEMP, PRECIP, SNOW",,,"MMTS, SRG, SNOWBOARD",,,"WFO CHS",,,,"25","43","53","30.28","30.22","35","12.4","0","-5.4","22","55","31","010","26","0.00","0","0.0","020","21",,,,,,,,,,,,,,,,,,,,,,,,,,,,,,,,,,,,,,,,,,,,,,,,,,,,,,,,,"SOD73924 HR PRECIPITATION (IN): 0.00 SNOW DEPTH (IN):0     24 HR SNOWFALL (IN):0.0  24 HR MAX TEMP (F): 5524 HR MIN TEMP (F): 31AVERAGE STATION PRESSURE:30.225 MINIMUM SEA LEVEL PRESSURE:30.23 TIME OF OCCURRENCE:1637 PEAK WIND SPEED (MPH): 26 PEAK WIND DIR (DEG): 10 PEAK WIND TIME (LST):      FASTEST 2MIN SPEED (MPH): 21FASTEST 2MIN DIR (DEG): 20 FASTEST 2MIN TIME (LST):     AVERAGE WIND SPEED (MPH):12.4 24 HR AVG TEMP (F): 43DEPART FROM NORMAL: -5  HEATING DEGREE DAYS: 22 COOLING DEGREE DAYS:  0 LATEST DAY MAX TEMP (0700-1900 LST):55  LATEST NIGHT MIN TEMP(1900-0800 LST):31 HOURLY INCREMENTAL PRECIPITATION VALUES (IN):.00 0.00 0.00 0.00 0.00 0.00 0.00 0.00 0.00 0.00 0.00 0.00 0.00 0.00 0.00 0.00 0.00 0.00 0.00 0.00 0.00 0.00 0.00 0.00","SOD  ","6",,,,,,,,,,,,,,,,,,,,,,,,,"0721","1743",,"2009-06-10"
"72208013880","2020-01-23T00:56:00","FM-15","7",,"SE","0.25","mi","TEMP, PRECIP, SNOW",,,"MMTS, SRG, SNOWBOARD",,,"WFO CHS",,,,,,,,,,,,,,,,,,,,,,,,,,,"30.30","29","40","0.00",,"+0.01","5","65","30.30","FEW:02 200","30.25","10.00","36","050",,"9",,,,,,,,,,,,,,,,,,,,,,,,,,,,,,,,,,,,,"MET11801/23/20 00:56:02 METAR KCHS 230556Z 05008KT 10SM FEW200 04/M02 A3030 RMK AO2 SLP260 T00441017 10083 20044 55004 (KLJ)","FM-15","7",,,,,,,,,,,,,,,,,,,,,,,,,,,,"2009-06-10"
"72208013880","2020-01-23T01:00:00","FM-12","4",,"SE","0.25","mi","TEMP, PRECIP, SNOW",,,"MMTS, SRG, SNOWBOARD",,,"WFO CHS",,,,,,,,,,,,,,,,,,,,,,,,,,,"30.30","29","40",,,"+0.01","5","65","30.30",,"30.25","9.94","36","050",,"9",,,,,,,,,,,,,,,,,,,,,,,,,,,,,,,,,,,,,"SYN08072208 32966 20508 10044 21017 30244 40260 55004 90556 333 10083 21005 555 92306=","FM-12","4",,,,,,,,,,,,,,,,,,,,,,,,,,,,"2009-06-10"
"72208013880","2020-01-23T01:56:00","FM-15","7",,"SE","0.25","mi","TEMP, PRECIP, SNOW",,,"MMTS, SRG, SNOWBOARD",,,"WFO CHS",,,,,,,,,,,,,,,,,,,,,,,,,,,"30.29","29","39","0.00",,,,"67","30.29","SCT:04 200","30.24","10.00","35","030",,"9",,,,,,,,,,,,,,,,,,,,,,,,,,,,,,,,,,,,,"MET10001/23/20 01:56:02 METAR KCHS 230656Z 03008KT 10SM SCT200 04/M02 A3029 RMK AO2 SLP256 T00391017 (KLJ)","FM-15","7",,,,,,,,,,,,,,,,,,,,,,,,,,,,"2009-06-10"
"72208013880","2020-01-23T02:56:00","FM-15","7",,"SE","0.25","mi","TEMP, PRECIP, SNOW",,,"MMTS, SRG, SNOWBOARD",,,"WFO CHS",,,,,,,,,,,,,,,,,,,,,,,,,,,"30.27","29","38","0.00",,,,"70","30.27","SCT:04 200","30.22","10.00","34","020",,"9",,,,,,,,,,,,,,,,,,,,,,,,,,,,,,,,,,,,,"MET10001/23/20 02:56:02 METAR KCHS 230756Z 02008KT 10SM SCT200 03/M02 A3027 RMK AO2 SLP249 T00331017 (KLJ)","FM-15","7",,,,,,,,,,,,,,,,,,,,,,,,,,,,"2009-06-10"
"72208013880","2020-01-23T03:56:00","FM-15","7",,"SE","0.25","mi","TEMP, PRECIP, SNOW",,,"MMTS, SRG, SNOWBOARD",,,"WFO CHS",,,,,,,,,,,,,,,,,,,,,,,,,,,"30.26","28","37","0.00",,"+0.04","6","70","30.25","FEW:02 40 SCT:04 220","30.21","10.00","34","010",,"8",,,,,,,,,,,,,,,,,,,,,,,,,,,,,,,,,,,,,"MET11301/23/20 03:56:02 METAR KCHS 230856Z 01007KT 10SM FEW040 SCT220 03/M02 A3026 RMK AO2 SLP245 T00281022 56015 (KLJ)","FM-15","7",,,,,,,,,,,,,,,,,,,,,,,,,,,,"2009-06-10"
"72208013880","2020-01-23T04:00:00","FM-12","4",,"SE","0.25","mi","TEMP, PRECIP, SNOW",,,"MMTS, SRG, SNOWBOARD",,,"WFO CHS",,,,,,,,,,,,,,,,,,,,,,,,,,,"30.26","28","37",,,"+0.04","6","70","30.25","41","30.21","9.94","34","010",,"8",,,,,,,,,,,,,,,,,,,,,,,,,,,,,,,,,,,,,"SYN06472208 32666 40107 10028 21022 30231 40245 56015 90856 555 92309=","FM-12","4",,,,,,,,,,,,,,,,,,,,,,,,,,,,"2009-06-10"
"72208013880","2020-01-23T04:56:00","FM-15","7",,"SE","0.25","mi","TEMP, PRECIP, SNOW",,,"MMTS, SRG, SNOWBOARD",,,"WFO CHS",,,,,,,,,,,,,,,,,,,,,,,,,,,"30.26","28","38","0.00",,,,"68","30.25","FEW:02 40 BKN:07 220","30.21","10.00","34","020",,"8",,,,,,,,,,,,,,,,,,,,,,,,,,,,,,,,,,,,,"MET10701/23/20 04:56:02 METAR KCHS 230956Z 02007KT 10SM FEW040 BKN220 03/M02 A3026 RMK AO2 SLP245 T00331022 (KLJ)","FM-15","7",,,,,,,,,,,,,,,,,,,,,,,,,,,,"2009-06-10"
"72208013880","2020-01-23T05:56:00","FM-15","7",,"SE","0.25","mi","TEMP, PRECIP, SNOW",,,"MMTS, SRG, SNOWBOARD",,,"WFO CHS",,,,,,,,,,,,,,,,,,,,,,,,,,,"30.25","29","38","0.00",,,,"70","30.24","FEW:02 40 OVC:08 210","30.20","10.00","34","030",,"13",,,,,,,,,,,,,,,,,,,,,,,,,,,,,,,,,,,,,"MET10701/23/20 05:56:02 METAR KCHS 231056Z 03011KT 10SM FEW040 OVC210 03/M02 A3025 RMK AO2 SLP242 T00331017 (KLJ)","FM-15","7",,,,,,,,,,,,,,,,,,,,,,,,,,,,"2009-06-10"
"72208013880","2020-01-23T06:56:00","FM-15","7",,"SE","0.25","mi","TEMP, PRECIP, SNOW",,,"MMTS, SRG, SNOWBOARD",,,"WFO CHS",,,,,,,,,,,,,,,,,,,,,,,,,,,"30.26","30","37","0.00",,"+0.00","5","76","30.25","FEW:02 40 OVC:08 200","30.21","10.00","34","030",,"9",,,,,,,,,,,,,,,,,,,,,,,,,,,,,,,,,,,,,"MET12501/23/20 06:56:02 METAR KCHS 231156Z 03008KT 10SM FEW040 OVC200 03/M01 A3026 RMK AO2 SLP245 T00281011 10044 20028 55000 (KLJ)","FM-15","7",,,,,,,,,,,,,,,,,,,,,,,,,,,,"2009-06-10"
"72208013880","2020-01-23T07:00:00","FM-12","4",,"SE","0.25","mi","TEMP, PRECIP, SNOW",,,"MMTS, SRG, SNOWBOARD",,,"WFO CHS",,,,,,,,,,,,,,,,,,,,,,,,,,,"30.26","30","37",,,"+0.00","5","76","30.25","41","30.21","9.94","34","030",,"9",,,,,,,,,,,,,,,,,,,,,,,,,,,,,,,,,,,,,"SYN08072208 32666 80308 10028 21011 30231 40245 55000 91156 333 10128 20028 555 92312=","FM-12","4",,,,,,,,,,,,,,,,,,,,,,,,,,,,"2009-06-10"
"72208013880","2020-01-23T07:56:00","FM-15","7",,"SE","0.25","mi","TEMP, PRECIP, SNOW",,,"MMTS, SRG, SNOWBOARD",,,"WFO CHS",,,,,,,,,,,,,,,,,,,,,,,,,,,"30.26","31","38","0.00",,,,"76","30.26","BKN:07 200","30.21","10.00","35","020",,"10",,,,,,,,,,,,,,,,,,,,,,,,,,,,,,,,,,,,,"MET10001/23/20 07:56:02 METAR KCHS 231256Z 02009KT 10SM BKN200 03/M01 A3026 RMK AO2 SLP247 T00331006 (JMB)","FM-15","7",,,,,,,,,,,,,,,,,,,,,,,,,,,,"2009-06-10"
"72208013880","2020-01-23T08:56:00","FM-15","7",,"SE","0.25","mi","TEMP, PRECIP, SNOW",,,"MMTS, SRG, SNOWBOARD",,,"WFO CHS",,,,,,,,,,,,,,,,,,,,,,,,,,,"30.27","33","41","0.00",,,,"73","30.27","OVC:08 200","30.22","10.00","38","360",,"9",,,,,,,,,,,,,,,,,,,,,,,,,,,,,,,,,,,,,"MET09901/23/20 08:56:02 METAR KCHS 231356Z 36008KT 10SM OVC200 05/01 A3027 RMK AO2 SLP249 T00500006 (JMB)","FM-15","7",,,,,,,,,,,,,,,,,,,,,,,,,,,,"2009-06-10"
"72208013880","2020-01-23T09:56:00","FM-15","7",,"SE","0.25","mi","TEMP, PRECIP, SNOW",,,"MMTS, SRG, SNOWBOARD",,,"WFO CHS",,,,,,,,,,,,,,,,,,,,,,,,,,,"30.27","36","45","0.00",,"-0.01","0","71","30.26","FEW:02 120 OVC:08 200","30.22","10.00","41","010",,"10",,,,,,,,,,,,,,,,,,,,,,,,,,,,,,,,,,,,,"MET11201/23/20 09:56:02 METAR KCHS 231456Z 01009KT 10SM FEW120 OVC200 07/02 A3027 RMK AO2 SLP248 T00720022 50004 (JMB)","FM-15","7",,,,,,,,,,,,,,,,,,,,,,,,,,,,"2009-06-10"
"72208013880","2020-01-23T10:00:00","FM-12","4",,"SE","0.25","mi","TEMP, PRECIP, SNOW",,,"MMTS, SRG, SNOWBOARD",,,"WFO CHS",,,,,,,,,,,,,,,,,,,,,,,,,,,"30.27","36","45",,,"0.01","9","71","30.26",,"30.22","9.94","41","010",,"10",,,,,,,,,,,,,,,,,,,,,,,,,,,,,,,,,,,,,"SYN06472208 32966 80109 10072 20022 30234 40248 50004 91456 555 92315=","FM-12","4",,,,,,,,,,,,,,,,,,,,,,,,,,,,"2009-06-10"
"72208013880","2020-01-23T10:56:00","FM-15","7",,"SE","0.25","mi","TEMP, PRECIP, SNOW",,,"MMTS, SRG, SNOWBOARD",,,"WFO CHS",,,,,,,,,,,,,,,,,,,,,,,,,,,"30.28","38","49","0.00",,,,"66","30.28","SCT:04 120 OVC:08 200","30.23","10.00","44","040",,"10",,,,,,,,,,,,,,,,,,,,,,,,,,,,,,,,,,,,,"MET10601/23/20 10:56:02 METAR KCHS 231556Z 04009KT 10SM SCT120 OVC200 09/03 A3028 RMK AO2 SLP253 T00940033 (JMB)","FM-15","7",,,,,,,,,,,,,,,,,,,,,,,,,,,,"2009-06-10"
"72208013880","2020-01-23T11:56:00","FM-15","7",,"SE","0.25","mi","TEMP, PRECIP, SNOW",,,"MMTS, SRG, SNOWBOARD",,,"WFO CHS",,,,,,,,,,,,,,,,,,,,,,,,,,,"30.26","39","51","0.00",,,,"64","30.25","FEW:02 120 OVC:08 200","30.21","10.00","45","020",,"11",,,,,,,,,,,,,,,,,,,,,,,,,,,,,,,,,,,,,"MET10601/23/20 11:56:02 METAR KCHS 231656Z 02010KT 10SM FEW120 OVC200 11/04 A3026 RMK AO2 SLP245 T01060039 (JMB)","FM-15","7",,,,,,,,,,,,,,,,,,,,,,,,,,,,"2009-06-10"
"72208013880","2020-01-23T12:56:00","FM-15","7",,"SE","0.25","mi","TEMP, PRECIP, SNOW",,,"MMTS, SRG, SNOWBOARD",,,"WFO CHS",,,,,,,,,,,,,,,,,,,,,,,,,,,"30.23","39","51","0.00",,"+0.04","8","64","30.22","FEW:02 120 OVC:08 200","30.18","10.00","45","010",,"11",,,,,,,,,,,,,,,,,,,,,,,,,,,,,,,,,,,,,"MET12401/23/20 12:56:02 METAR KCHS 231756Z 01010KT 10SM FEW120 OVC200 11/04 A3023 RMK AO2 SLP235 T01060039 10117 20028 58013 (JMB)","FM-15","7",,,,,,,,,,,,,,,,,,,,,,,,,,,,"2009-06-10"
"72208013880","2020-01-23T13:00:00","FM-12","4",,"SE","0.25","mi","TEMP, PRECIP, SNOW",,,"MMTS, SRG, SNOWBOARD",,,"WFO CHS",,,,,,,,,,,,,,,,,,,,,,,,,,,"30.23","39","51",,,"+0.04","8","64","30.22",,"30.18","9.94","45","010",,"11",,,,,,,,,,,,,,,,,,,,,,,,,,,,,,,,,,,,,"SYN08072208 32966 80110 10106 20039 30221 40235 58013 91756 333 10117 20028 555 92318=","FM-12","4",,,,,,,,,,,,,,,,,,,,,,,,,,,,"2009-06-10"
"72208013880","2020-01-23T13:56:00","FM-15","7",,"SE","0.25","mi","TEMP, PRECIP, SNOW",,,"MMTS, SRG, SNOWBOARD",,,"WFO CHS",,,,,,,,,,,,,,,,,,,,,,,,,,,"30.21","40","52","0.00",,,,"64","30.20","SCT:04 120 OVC:08 200","30.16","10.00","46","030",,"10",,,,,,,,,,,,,,,,,,,,,,,,,,,,,,,,,,,,,"MET10601/23/20 13:56:02 METAR KCHS 231856Z 03009KT 10SM SCT120 OVC200 11/04 A3021 RMK AO2 SLP228 T01110044 (JMB)","FM-15","7",,,,,,,,,,,,,,,,,,,,,,,,,,,,"2009-06-10"
"72208013880","2020-01-23T14:56:00","FM-15","7",,"SE","0.25","mi","TEMP, PRECIP, SNOW",,,"MMTS, SRG, SNOWBOARD",,,"WFO CHS",,,,,,,,,,,,,,,,,,,,,,,,,,,"30.20","41","53","0.00",,,,"64","30.19","FEW:02 120 OVC:08 200","30.15","10.00","47","050",,"7",,,,,,,,,,,,,,,,,,,,,,,,,,,,,,,,,,,,,"MET10601/23/20 14:56:02 METAR KCHS 231956Z 05006KT 10SM FEW120 OVC200 12/05 A3020 RMK AO2 SLP224 T01170050 (JMB)","FM-15","7",,,,,,,,,,,,,,,,,,,,,,,,,,,,"2009-06-10"
"72208013880","2020-01-23T15:56:00","FM-15","7",,"SE","0.25","mi","TEMP, PRECIP, SNOW",,,"MMTS, SRG, SNOWBOARD",,,"WFO CHS",,,,,,,,,,,,,,,,,,,,,,,,,,,"30.18","43","55","0.00",,"+0.05","6","64","30.18","FEW:02 120 BKN:07 200","30.13","10.00","49","070",,"8",,,,,,,,,,,,,,,,,,,,,,,,,,,,,,,,,,,,,"MET11201/23/20 15:56:02 METAR KCHS 232056Z 07007KT 10SM FEW120 BKN200 13/06 A3018 RMK AO2 SLP219 T01280061 56016 (BBE)","FM-15","7",,,,,,,,,,,,,,,,,,,,,,,,,,,,"2009-06-10"
"72208013880","2020-01-23T16:00:00","FM-12","4",,"SE","0.25","mi","TEMP, PRECIP, SNOW",,,"MMTS, SRG, SNOWBOARD",,,"WFO CHS",,,,,,,,,,,,,,,,,,,,,,,,,,,"30.18","43","55",,,"+0.05","6","64","30.18",,"30.13","9.94","49","070",,"8",,,,,,,,,,,,,,,,,,,,,,,,,,,,,,,,,,,,,"SYN06472208 32966 60707 10128 20061 30204 40219 56016 92056 555 92321=","FM-12","4",,,,,,,,,,,,,,,,,,,,,,,,,,,,"2009-06-10"
"72208013880","2020-01-23T16:56:00","FM-15","7",,"SE","0.25","mi","TEMP, PRECIP, SNOW",,,"MMTS, SRG, SNOWBOARD",,,"WFO CHS",,,,,,,,,,,,,,,,,,,,,,,,,,,"30.17","43","54","0.00",,,,"67","30.16","BKN:07 110 BKN:07 200","30.12","10.00","49","060",,"9",,,,,,,,,,,,,,,,,,,,,,,,,,,,,,,,,,,,,"MET10601/23/20 16:56:02 METAR KCHS 232156Z 06008KT 10SM BKN110 BKN200 12/06 A3017 RMK AO2 SLP215 T01220061 (BBE)","FM-15","7",,,,,,,,,,,,,,,,,,,,,,,,,,,,"2009-06-10"
"72208013880","2020-01-23T17:56:00","FM-15","7",,"SE","0.25","mi","TEMP, PRECIP, SNOW",,,"MMTS, SRG, SNOWBOARD",,,"WFO CHS",,,,,,,,,,,,,,,,,,,,,,,,,,,"30.18","44","53","0.00",,,,"72","30.17","OVC:08 110","30.13","10.00","49","040",,"6",,,,,,,,,,,,,,,,,,,,,,,,,,,,,,,,,,,,,"MET09901/23/20 17:56:02 METAR KCHS 232256Z 04005KT 10SM OVC110 12/07 A3018 RMK AO2 SLP218 T01170067 (BBE)","FM-15","7",,,,,,,,,,,,,,,,,,,,,,,,,,,,"2009-06-10"
"72208013880","2020-01-23T18:56:00","FM-15","7",,"SE","0.25","mi","TEMP, PRECIP, SNOW",,,"MMTS, SRG, SNOWBOARD",,,"WFO CHS",,,,,,,,,,,,,,,,,,,,,,,,,,,"30.17","44","52","0.00",,"+0.01","6","75","30.17","SCT:04 60 BKN:07 100","30.12","10.00","48","030",,"7",,,,,,,,,,,,,,,,,,,,,,,,,,,,,,,,,,,,,"MET12401/23/20 18:56:02 METAR KCHS 232356Z 03006KT 10SM SCT060 BKN100 11/07 A3017 RMK AO2 SLP217 T01110067 10133 20106 56002 (BBE)","FM-15","7",,,,,,,,,,,,,,,,,,,,,,,,,,,,"2009-06-10"
"72208013880","2020-01-23T19:00:00","FM-12","4",,"SE","0.25","mi","TEMP, PRECIP, SNOW",,,"MMTS, SRG, SNOWBOARD",,,"WFO CHS",,,,,,,,,,,,,,,,,,,,,,,,,,,"30.17","44","52",,,"+0.01","6","75","30.17","57","30.12","9.94","48","030",,"7",,,,,,,,,,,,,,,,,,,,,,,,,,,,,,,,,,,,,"SYN08072208 32766 60306 10111 20067 30201 40217 56002 92356 333 10133 20028 555 92400=","FM-12","4",,,,,,,,,,,,,,,,,,,,,,,,,,,,"2009-06-10"
"72208013880","2020-01-23T19:56:00","FM-15","7",,"SE","0.25","mi","TEMP, PRECIP, SNOW",,,"MMTS, SRG, SNOWBOARD",,,"WFO CHS",,,,,,,,,,,,,,,,,,,,,,,,,,,"30.18","44","51","0.00",,,,"77","30.18","BKN:07 33 BKN:07 45 BKN:07 95","30.13","10.00","48","030",,"5",,,,,,,,,,,,,,,,,,,,,,,,,,,,,,,,,,,,,"MET10701/23/20 19:56:01 METAR KCHS 240056Z 03004KT 10SM BKN033 BKN045 BKN095 11/07 A3018 RMK AO2 SLP219 T01060067","FM-15","7",,,,,,,,,,,,,,,,,,,,,,,,,,,,"2009-06-10"
"72208013880","2020-01-23T20:56:00","FM-15","7",,"SE","0.25","mi","TEMP, PRECIP, SNOW",,,"MMTS, SRG, SNOWBOARD",,,"WFO CHS",,,,,,,,,,,,,,,,,,,,,,,,,,,"30.18","44","51","0.00",,,,"77","30.18","BKN:07 36 OVC:08 50","30.13","10.00","48","010",,"6",,,,,,,,,,,,,,,,,,,,,,,,,,,,,,,,,,,,,"MET10001/23/20 20:56:01 METAR KCHS 240156Z 01005KT 10SM BKN036 OVC050 11/07 A3018 RMK AO2 SLP219 T01060067","FM-15","7",,,,,,,,,,,,,,,,,,,,,,,,,,,,"2009-06-10"
"72208013880","2020-01-23T21:56:00","FM-15","7",,"SE","0.25","mi","TEMP, PRECIP, SNOW",,,"MMTS, SRG, SNOWBOARD",,,"WFO CHS",,,,,,,,,,,,,,,,,,,,,,,,,,,"30.17","45","51","0.00",,"+0.00","8","80","30.17","SCT:04 35 OVC:08 43","30.12","10.00","48","030",,"7",,,,,,,,,,,,,,,,,,,,,,,,,,,,,,,,,,,,,"MET10601/23/20 21:56:01 METAR KCHS 240256Z 03006KT 10SM SCT035 OVC043 11/07 A3017 RMK AO2 SLP216 T01060072 58001","FM-15","7",,,,,,,,,,,,,,,,,,,,,,,,,,,,"2009-06-10"
"72208013880","2020-01-23T22:00:00","FM-12","4",,"SE","0.25","mi","TEMP, PRECIP, SNOW",,,"MMTS, SRG, SNOWBOARD",,,"WFO CHS",,,,,,,,,,,,,,,,,,,,,,,,,,,"30.17","45","51",,,"+0.00","8","80","30.17","41","30.12","9.94","48","030",,"7",,,,,,,,,,,,,,,,,,,,,,,,,,,,,,,,,,,,,"SYN06472208 32666 80306 10106 20072 30201 40216 58001 90256 555 92403=","FM-12","4",,,,,,,,,,,,,,,,,,,,,,,,,,,,"2009-06-10"
"72208013880","2020-01-23T22:56:00","FM-15","7",,"SE","0.25","mi","TEMP, PRECIP, SNOW",,,"MMTS, SRG, SNOWBOARD",,,"WFO CHS",,,,,,,,,,,,,,,,,,,,,,,,,,,"30.16","45","50","0.00",,,,"83","30.15","SCT:04 35 BKN:07 50 OVC:08 70","30.11","10.00","48","030",,"6",,,,,,,,,,,,,,,,,,,,,,,,,,,,,,,,,,,,,"MET10701/23/20 22:56:01 METAR KCHS 240356Z 03005KT 10SM SCT035 BKN050 OVC070 10/07 A3016 RMK AO2 SLP211 T01000072","FM-15","7",,,,,,,,,,,,,,,,,,,,,,,,,,,,"2009-06-10"
"72208013880","2020-01-23T23:56:00","FM-15","7",,"SE","0.25","mi","TEMP, PRECIP, SNOW",,,"MMTS, SRG, SNOWBOARD",,,"WFO CHS",,,,,,,,,,,,,,,,,,,,,,,,,,,"30.14","47","51","T","-RA:02 |RA |RA",,,"86","30.14","FEW:02 44 BKN:07 55 OVC:08 70","30.09","10.00","49","050",,"7",,,,,,,,,,,,,,,,,,,,,,,,,,,,,,,,,,,,,"MET13301/23/20 23:56:01 METAR KCHS 240456Z 05006KT 10SM -RA FEW044 BKN055 OVC070 11/08 A3014 RMK AO2 RAB35 SLP205 P0000 T01060083 401330028","FM-15","7",,,,,,,,,,,,,,,,,,,,,,,,,,,,"2009-06-10"
"72208013880","2020-01-23T23:59:00","SOD  ","6",,"SE","0.25","mi","TEMP, PRECIP, SNOW",,,"MMTS, SRG, SNOWBOARD",,,"WFO CHS",,,,"37","47","71","30.22","30.19","42","8.6","0","-1.4","18","56","37","020","18","T","0","0.0","360","14","RA",,,,,,,,,,,,,,,,,,,,,,,,,,,,,,,,,,,,,,,,,,,,,,,,,,,,,,,,"SOD73624 HR PRECIPITATION (IN):    T SNOW DEPTH (IN):0     24 HR SNOWFALL (IN):0.0  24 HR MAX TEMP (F): 5624 HR MIN TEMP (F): 37AVERAGE STATION PRESSURE:30.185 MINIMUM SEA LEVEL PRESSURE:30.13 TIME OF OCCURRENCE:2359 PEAK WIND SPEED (MPH): 18 PEAK WIND DIR (DEG): 20 PEAK WIND TIME (LST):      FASTEST 2MIN SPEED (MPH): 14FASTEST 2MIN DIR (DEG):360 FASTEST 2MIN TIME (LST):     AVERAGE WIND SPEED (MPH): 8.6 24 HR AVG TEMP (F): 47DEPART FROM NORMAL: -1  HEATING DEGREE DAYS: 18 COOLING DEGREE DAYS:  0 LATEST DAY MAX TEMP (0700-1900 LST):56  LATEST NIGHT MIN TEMP(1900-0800 LST):37 HOURLY INCREMENTAL PRECIPITATION VALUES (IN):.00 0.00 0.00 0.00 0.00 0.00 0.00 0.00 0.00 0.00 0.00 0.00 0.00 0.00 0.00 0.00 0.00 0.00 0.00 0.00 0.00 0.00 0.00 T","SOD  ","6",,,,,,,,,,,,,,,,,,,,,,,,,"0721","1744",,"2009-06-10"
"72208013880","2020-01-24T00:56:00","FM-15","7",,"SE","0.25","mi","TEMP, PRECIP, SNOW",,,"MMTS, SRG, SNOWBOARD",,,"WFO CHS",,,,,,,,,,,,,,,,,,,,,,,,,,,"30.12","50","52","T",,"+0.05","8","93","30.12","FEW:02 48 SCT:04 85","30.07","10.00","51","050",,"7",,,,,,,,,,,,,,,,,,,,,,,,,,,,,,,,,,,,,"MET14201/24/20 00:56:02 METAR KCHS 240556Z 05006KT 10SM FEW048 SCT085 11/10 A3012 RMK AO2 RAE22 SLP200 P0000 60000 T01110100 10111 20100 58016 (KLJ)","FM-15","7",,,,,,,,,,,,,,,,,,,,,,,,,,,,"2009-06-10"
"72208013880","2020-01-24T01:00:00","FM-12","4",,"SE","0.25","mi","TEMP, PRECIP, SNOW",,,"MMTS, SRG, SNOWBOARD",,,"WFO CHS",,,,,,,,,,,,,,,,,,,,,,,,,,,"30.12","50","52",,,"+0.05","8","93","30.12","41","30.07","9.94","51","050",,"7",,,,,,,,,,,,,,,,,,,,,,,,,,,,,,,,,,,,,"SYN08672208 12666 40506 10111 20100 30184 40200 58016 69901 90556 333 10111 20028 555 92406=","FM-12","4",,,,,,,,,,,,,,,,,,,,,,,,,,,,"2009-06-10"
"72208013880","2020-01-24T01:56:00","FM-15","7",,"SE","0.25","mi","TEMP, PRECIP, SNOW",,,"MMTS, SRG, SNOWBOARD",,,"WFO CHS",,,,,,,,,,,,,,,,,,,,,,,,,,,"30.11","50","53","0.00",,,,"89","30.11","FEW:02 30 BKN:07 55","30.06","10.00","51","070",,"10",,,,,,,,,,,,,,,,,,,,,,,,,,,,,,,,,,,,,"MET10601/24/20 01:56:02 METAR KCHS 240656Z 07009KT 10SM FEW030 BKN055 12/10 A3011 RMK AO2 SLP195 T01170100 (KLJ)","FM-15","7",,,,,,,,,,,,,,,,,,,,,,,,,,,,"2009-06-10"
"72208013880","2020-01-24T02:56:00","FM-15","7",,"SE","0.25","mi","TEMP, PRECIP, SNOW",,,"MMTS, SRG, SNOWBOARD",,,"WFO CHS",,,,,,,,,,,,,,,,,,,,,,,,,,,"30.09","50","52","0.00",,,,"93","30.09","FEW:02 30 SCT:04 50 BKN:07 230","30.04","10.00","51","050",,"7",,,,,,,,,,,,,,,,,,,,,,,,,,,,,,,,,,,,,"MET11301/24/20 02:56:02 METAR KCHS 240756Z 05006KT 10SM FEW030 SCT050 BKN230 11/10 A3009 RMK AO2 SLP189 T01110100 (KLJ)","FM-15","7",,,,,,,,,,,,,,,,,,,,,,,,,,,,"2009-06-10"
"72208013880","2020-01-24T03:52:00","FM-16","7",,"SE","0.25","mi","TEMP, PRECIP, SNOW",,,"MMTS, SRG, SNOWBOARD",,,"WFO CHS",,,,,,,,,,,,,,,,,,,,,,,,,,,"30.09","50","52",,,,,"94",,"FEW:02 7 SCT:04 50 BKN:07 200","30.04","10.00","51","050",,"6",,,,,,,,,,,,,,,,,,,,,,,,,,,,,,,,,,,,,"MET09601/24/20 03:52:02 SPECI KCHS 240852Z 05005KT 10SM FEW007 SCT050 BKN200 11/10 A3009 RMK AO2 (KLJ)","FM-16","7",,,,,,,,,,,,,,,,,,,,,,,,,,,,"2009-06-10"
"72208013880","2020-01-24T03:56:00","FM-15","7",,"SE","0.25","mi","TEMP, PRECIP, SNOW",,,"MMTS, SRG, SNOWBOARD",,,"WFO CHS",,,,,,,,,,,,,,,,,,,,,,,,,,,"30.09","50","51","0.00",,"+0.03","6","96","30.09","FEW:02 7 SCT:04 50 BKN:07 200","30.04","10.00","50","040",,"5",,,,,,,,,,,,,,,,,,,,,,,,,,,,,,,,,,,,,"MET11901/24/20 03:56:02 METAR KCHS 240856Z 04004KT 10SM FEW007 SCT050 BKN200 11/10 A3009 RMK AO2 SLP189 T01060100 56010 (KLJ)","FM-15","7",,,,,,,,,,,,,,,,,,,,,,,,,,,,"2009-06-10"
"72208013880","2020-01-24T04:00:00","FM-12","4",,"SE","0.25","mi","TEMP, PRECIP, SNOW",,,"MMTS, SRG, SNOWBOARD",,,"WFO CHS",,,,,,,,,,,,,,,,,,,,,,,,,,,"30.09","50","51",,,"+0.03","6","96","30.09","8","30.04","9.94","50","040",,"5",,,,,,,,,,,,,,,,,,,,,,,,,,,,,,,,,,,,,"SYN06472208 32366 60404 10106 20100 30173 40189 56010 90856 555 92409=","FM-12","4",,,,,,,,,,,,,,,,,,,,,,,,,,,,"2009-06-10"
"72208013880","2020-01-24T04:56:00","FM-15","7",,"SE","0.25","mi","TEMP, PRECIP, SNOW",,,"MMTS, SRG, SNOWBOARD",,,"WFO CHS",,,,,,,,,,,,,,,,,,,,,,,,,,,"30.08","49","51","0.00",,,,"92","30.08","FEW:02 7 SCT:04 50 BKN:07 150","30.03","10.00","50","010",,"3",,,,,,,,,,,,,,,,,,,,,,,,,,,,,,,,,,,,,"MET11301/24/20 04:56:02 METAR KCHS 240956Z 01003KT 10SM FEW007 SCT050 BKN150 11/09 A3008 RMK AO2 SLP186 T01060094 (KLJ)","FM-15","7",,,,,,,,,,,,,,,,,,,,,,,,,,,,"2009-06-10"
"72208013880","2020-01-24T05:56:00","FM-15","7",,"SE","0.25","mi","TEMP, PRECIP, SNOW",,,"MMTS, SRG, SNOWBOARD",,,"WFO CHS",,,,,,,,,,,,,,,,,,,,,,,,,,,"30.09","50","51","0.00",,,,"96","30.08","FEW:02 7 SCT:04 40 OVC:08 120","30.04","10.00","50","020",,"5",,,,,,,,,,,,,,,,,,,,,,,,,,,,,,,,,,,,,"MET11301/24/20 05:56:02 METAR KCHS 241056Z 02004KT 10SM FEW007 SCT040 OVC120 11/10 A3009 RMK AO2 SLP187 T01060100 (KLJ)","FM-15","7",,,,,,,,,,,,,,,,,,,,,,,,,,,,"2009-06-10"
"72208013880","2020-01-24T06:56:00","FM-15","7",,"SE","0.25","mi","TEMP, PRECIP, SNOW",,,"MMTS, SRG, SNOWBOARD",,,"WFO CHS",,,,,,,,,,,,,,,,,,,,,,,,,,,"30.10","50","51","0.00",,"-0.01","3","96","30.10","FEW:02 7 SCT:04 40 OVC:08 110","30.05","10.00","50","000",,"0",,,,,,,,,,,,,,,,,,,,,,,,,,,,,,,,,,,,,"MET13101/24/20 06:56:02 METAR KCHS 241156Z 00000KT 10SM FEW007 SCT040 OVC110 11/10 A3010 RMK AO2 SLP193 T01060100 10117 20106 53004 (KLJ)","FM-15","7",,,,,,,,,,,,,,,,,,,,,,,,,,,,"2009-06-10"
"72208013880","2020-01-24T07:00:00","FM-12","4",,"SE","0.25","mi","TEMP, PRECIP, SNOW",,,"MMTS, SRG, SNOWBOARD",,,"WFO CHS",,,,,,,,,,,,,,,,,,,,,,,,,,,"30.10","50","51",,,"-0.01","3","96","30.10","8","30.05","9.94","50","000",,"0",,,,,,,,,,,,,,,,,,,,,,,,,,,,,,,,,,,,,"SYN08072208 32366 80000 10106 20100 30177 40193 53004 91156 333 10133 20100 555 92412=","FM-12","4",,,,,,,,,,,,,,,,,,,,,,,,,,,,"2009-06-10"
"72208013880","2020-01-24T07:56:00","FM-15","7",,"SE","0.25","mi","TEMP, PRECIP, SNOW",,,"MMTS, SRG, SNOWBOARD",,,"WFO CHS",,,,,,,,,,,,,,,,,,,,,,,,,,,"30.10","51","52","T","-RA:02 |RA |RA",,,"97","30.09","FEW:02 7 SCT:04 55 OVC:08 75","30.05","10.00","51","060",,"5",,,,,,,,,,,,,,,,,,,,,,,,,,,,,,,,,,,,,"MET12901/24/20 07:56:02 METAR KCHS 241256Z 06004KT 10SM -RA FEW007 SCT055 OVC075 11/11 A3010 RMK AO2 RAB22 SLP191 P0000 T01110106 (JMB)","FM-15","7",,,,,,,,,,,,,,,,,,,,,,,,,,,,"2009-06-10"
"72208013880","2020-01-24T08:56:00","FM-15","7",,"SE","0.25","mi","TEMP, PRECIP, SNOW",,,"MMTS, SRG, SNOWBOARD",,,"WFO CHS",,,,,,,,,,,,,,,,,,,,,,,,,,,"30.10","52","53","T",,,,"96","30.10","FEW:02 35 SCT:04 70 OVC:08 120","30.05","10.00","52","040",,"5",,,,,,,,,,,,,,,,,,,,,,,,,,,,,,,,,,,,,"MET12501/24/20 08:56:02 METAR KCHS 241356Z 04004KT 10SM FEW035 SCT070 OVC120 12/11 A3010 RMK AO2 RAE39 SLP193 P0000 T01170111 (JMB)","FM-15","7",,,,,,,,,,,,,,,,,,,,,,,,,,,,"2009-06-10"
"72208013880","2020-01-24T09:56:00","FM-15","7",,"SE","0.25","mi","TEMP, PRECIP, SNOW",,,"MMTS, SRG, SNOWBOARD",,,"WFO CHS",,,,,,,,,,,,,,,,,,,,,,,,,,,"30.11","54","56","T","-RA:02 |RA |RA","-0.00","3","93","30.11","BKN:07 40 BKN:07 85 OVC:08 120","30.06","10.00","55","110",,"7",,,,,,,,,,,,,,,,,,,,,,,,,,,,,,,,,,,,,"MET14101/24/20 09:56:02 METAR KCHS 241456Z 11006KT 10SM -RA BKN040 BKN085 OVC120 13/12 A3011 RMK AO2 RAB41 SLP195 P0000 60000 T01330122 53001 (JMB)","FM-15","7",,,,,,,,,,,,,,,,,,,,,,,,,,,,"2009-06-10"
"72208013880","2020-01-24T10:00:00","FM-12","4",,"SE","0.25","mi","TEMP, PRECIP, SNOW",,,"MMTS, SRG, SNOWBOARD",,,"WFO CHS",,,,,,,,,,,,,,,,,,,,,,,,,,,"30.11","54","56",,"||RA","-0.00","3","93","30.11","41","30.06","9.94","55","110",,"7",,,,,,,,,,,,,,,,,,,,,,,,,,,,,,,,,,,,,"SYN07672208 11666 81106 10133 20122 30180 40195 53001 69907 761// 91456 555 92415=","FM-12","4",,,,,,,,,,,,,,,,,,,,,,,,,,,,"2009-06-10"
"72208013880","2020-01-24T10:56:00","FM-15","7",,"SE","0.25","mi","TEMP, PRECIP, SNOW",,,"MMTS, SRG, SNOWBOARD",,,"WFO CHS",,,,,,,,,,,,,,,,,,,,,,,,,,,"30.10","56","59","0.01","-RA:02 |RA |RA",,,"90","30.10","SCT:04 35 BKN:07 70 OVC:08 90","30.05","10.00","57","110",,"5",,,,,,,,,,,,,,,,,,,,,,,,,,,,,,,,,,,,,"MET12301/24/20 10:56:02 METAR KCHS 241556Z 11004KT 10SM -RA SCT035 BKN070 OVC090 15/13 A3010 RMK AO2 SLP192 P0001 T01500133 (JMB)","FM-15","7",,,,,,,,,,,,,,,,,,,,,,,,,,,,"2009-06-10"
"72208013880","2020-01-24T11:56:00","FM-15","7",,"SE","0.25","mi","TEMP, PRECIP, SNOW",,,"MMTS, SRG, SNOWBOARD",,,"WFO CHS",,,,,,,,,,,,,,,,,,,,,,,,,,,"30.08","59","63","0.01","-RA:02 |RA |RA",,,"87","30.08","SCT:04 35 BKN:07 50 BKN:07 120","30.03","10.00","61","150",,"13",,,,,,,,,,,,,,,,,,,,,,,,,,,,,,,,,,,,,"MET12301/24/20 11:56:02 METAR KCHS 241656Z 15011KT 10SM -RA SCT035 BKN050 BKN120 17/15 A3008 RMK AO2 SLP185 P0001 T01720150 (JMB)","FM-15","7",,,,,,,,,,,,,,,,,,,,,,,,,,,,"2009-06-10"
"72208013880","2020-01-24T12:56:00","FM-15","7",,"SE","0.25","mi","TEMP, PRECIP, SNOW",,,"MMTS, SRG, SNOWBOARD",,,"WFO CHS",,,,,,,,,,,,,,,,,,,,,,,,,,,"30.02","59","65","T","-RA:02 |RA |RA","+0.09","8","81","30.02","BKN:07 45 BKN:07 120 BKN:07 200","29.97","10.00","61","130",,"8",,,,,,,,,,,,,,,,,,,,,,,,,,,,,,,,,,,,,"MET15601/24/20 12:56:02 METAR KCHS 241756Z 13007KT 10SM -RA BKN045 BKN120 BKN200 18/15 A3002 RMK AO2 RAE12B56 SLP165 P0000 60002 T01830150 10189 20111 58029 (JMB)","FM-15","7",,,,,,,,,,,,,,,,,,,,,,,,,,,,"2009-06-10"
"72208013880","2020-01-24T13:00:00","FM-12","4",,"SE","0.25","mi","TEMP, PRECIP, SNOW",,,"MMTS, SRG, SNOWBOARD",,,"WFO CHS",,,,,,,,,,,,,,,,,,,,,,,,,,,"30.02","59","65",,"||RA","+0.09","8","81","30.02","41","29.97","9.94","61","130",,"8",,,,,,,,,,,,,,,,,,,,,,,,,,,,,,,,,,,,,"SYN09272208 11666 61307 10183 20150 30150 40165 58029 69951 761// 91756 333 10189 20106 555 92418=","FM-12","4",,,,,,,,,,,,,,,,,,,,,,,,,,,,"2009-06-10"
"72208013880","2020-01-24T13:56:00","FM-15","7",,"SE","0.25","mi","TEMP, PRECIP, SNOW",,,"MMTS, SRG, SNOWBOARD",,,"WFO CHS",,,,,,,,,,,,,,,,,,,,,,,,,,,"30.00","61","64","0.03","-RA:02 BR:1 |RA |RA",,,"90","30.00","SCT:04 30 BKN:07 45 OVC:08 65","29.95","3.00","62","150",,"13",,,,,,,,,,,,,,,,,,,,,,,,,,,,,,,,,,,,,"MET12501/24/20 13:56:02 METAR KCHS 241856Z 15011KT 3SM -RA BR SCT030 BKN045 OVC065 18/16 A3000 RMK AO2 SLP158 P0003 T01780161 (JMB)","FM-15","7",,,,,,,,,,,,,,,,,,,,,,,,,,,,"2009-06-10"
"72208013880","2020-01-24T14:56:00","FM-15","7",,"SE","0.25","mi","TEMP, PRECIP, SNOW",,,"MMTS, SRG, SNOWBOARD",,,"WFO CHS",,,,,,,,,,,,,,,,,,,,,,,,,,,"29.99","60","64","0.01","-RA:02 |RA |RA",,,"87","29.99","BKN:07 32 BKN:07 45 OVC:08 55","29.94","9.00","62","150",,"11",,,,,,,,,,,,,,,,,,,,,,,,,,,,,,,,,,,,,"MET13101/24/20 14:56:02 METAR KCHS 241956Z 15010KT 9SM -RA BKN032 BKN045 OVC055 18/16 A2999 RMK AO2 RAE11B48 SLP156 P0001 T01780156 (JMB)","FM-15","7",,,,,,,,,,,,,,,,,,,,,,,,,,,,"2009-06-10"
"72208013880","2020-01-24T15:56:00","FM-15","7",,"SE","0.25","mi","TEMP, PRECIP, SNOW",,,"MMTS, SRG, SNOWBOARD",,,"WFO CHS",,,,,,,,,,,,,,,,,,,,,,,,,,,"29.99","61","63","0.01","-RA:02 |RA |RA","+0.04","6","93","29.98","SCT:04 20 BKN:07 40 OVC:08 50","29.94","10.00","62","150",,"9",,,,,,,,,,,,,,,,,,,,,,,,,,,,,,,,,,,,,"MET14401/24/20 15:56:02 METAR KCHS 242056Z 15008KT 10SM -RA SCT020 BKN040 OVC050 17/16 A2999 RMK AO2 RAE13B49 SLP154 P0001 60005 T01720161 56012 (BBE)","FM-15","7",,,,,,,,,,,,,,,,,,,,,,,,,,,,"2009-06-10"
"72208013880","2020-01-24T16:00:00","FM-12","4",,"SE","0.25","mi","TEMP, PRECIP, SNOW",,,"MMTS, SRG, SNOWBOARD",,,"WFO CHS",,,,,,,,,,,,,,,,,,,,,,,,,,,"29.99","61","63",,"||RA","+0.04","6","93","29.98","26","29.94","9.94","62","150",,"9",,,,,,,,,,,,,,,,,,,,,,,,,,,,,,,,,,,,,"SYN07672208 11566 81508 10172 20161 30140 40154 56012 60017 761// 92056 555 92421=","FM-12","4",,,,,,,,,,,,,,,,,,,,,,,,,,,,"2009-06-10"
"72208013880","2020-01-24T16:10:00","FM-16","7",,"SE","0.25","mi","TEMP, PRECIP, SNOW",,,"MMTS, SRG, SNOWBOARD",,,"WFO CHS",,,,,,,,,,,,,,,,,,,,,,,,,,,"29.98","61","63","T","-RA:02 |RA |RA",,,"93",,"SCT:04 10 BKN:07 20 OVC:08 75","29.93","10.00","62","150",,"7",,,,,,,,,,,,,,,,,,,,,,,,,,,,,,,,,,,,,"MET11601/24/20 16:10:02 SPECI KCHS 242110Z 15006KT 10SM -RA SCT010 BKN020 OVC075 17/16 A2998 RMK AO2 P0000 T01720161 (BBE)","FM-16","7",,,,,,,,,,,,,,,,,,,,,,,,,,,,"2009-06-10"
"72208013880","2020-01-24T16:20:00","FM-16","7",,"SE","0.25","mi","TEMP, PRECIP, SNOW",,,"MMTS, SRG, SNOWBOARD",,,"WFO CHS",,,,,,,,,,,,,,,,,,,,,,,,,,,"29.98","62","63","T","-RA:02 |RA |RA",,,"97",,"BKN:07 10 BKN:07 20 BKN:07 75","29.93","10.00","62","150",,"8",,,,,,,,,,,,,,,,,,,,,,,,,,,,,,,,,,,,,"MET11601/24/20 16:20:02 SPECI KCHS 242120Z 15007KT 10SM -RA BKN010 BKN020 BKN075 17/17 A2998 RMK AO2 P0000 T01720167 (BBE)","FM-16","7",,,,,,,,,,,,,,,,,,,,,,,,,,,,"2009-06-10"
"72208013880","2020-01-24T16:43:00","FM-16","7",,"SE","0.25","mi","TEMP, PRECIP, SNOW",,,"MMTS, SRG, SNOWBOARD",,,"WFO CHS",,,,,,,,,,,,,,,,,,,,,,,,,,,"29.97","61","63","T",,,,"93",,"SCT:04 9 BKN:07 25 BKN:07 40","29.92","10.00","62","160",,"8",,,,,,,,,,,,,,,,,,,,,,,,,,,,,,,,,,,,,"MET11801/24/20 16:43:02 SPECI KCHS 242143Z 16007KT 10SM SCT009 BKN025 BKN040 17/16 A2997 RMK AO2 RAE29 P0000 T01720161 (BBE)","FM-16","7",,,,,,,,,,,,,,,,,,,,,,,,,,,,"2009-06-10"
"72208013880","2020-01-24T16:54:00","FM-16","6",,"SE","0.25","mi","TEMP, PRECIP, SNOW",,,"MMTS, SRG, SNOWBOARD",,,"WFO CHS",,,,,,,,,,,,,,,,,,,,,,,,,,,"29.96","63","63",,,,,"100",,"FEW:02 9 SCT:04 25 BKN:07 40","29.91","10.00","63","150",,"8",,,,,,,,,,,,,,,,,,,,,,,,,,,,,,,,,,,,,"MET11301/24/20 16:54:02 SPECI KCHS 242154Z 15007KT 10SM FEW009 SCT025 BKN040 17/17 A2996 RMK AO2 RAE29 P0000 FIBI (BBE)","FM-16","6",,,,,,,,,,,,,,,,,,,,,,,,,,,,"2009-06-10"
"72208013880","2020-01-24T16:56:00","FM-15","7",,"SE","0.25","mi","TEMP, PRECIP, SNOW",,,"MMTS, SRG, SNOWBOARD",,,"WFO CHS",,,,,,,,,,,,,,,,,,,,,,,,,,,"29.96","62","63","T",,,,"97","29.96","FEW:02 9 SCT:04 25 BKN:07 40","29.91","10.00","62","150",,"8",,,,,,,,,,,,,,,,,,,,,,,,,,,,,,,,,,,,,"MET12501/24/20 16:56:02 METAR KCHS 242156Z 15007KT 10SM FEW009 SCT025 BKN040 17/17 A2996 RMK AO2 RAE29 SLP146 P0000 T01720167 (BBE)","FM-15","7",,,,,,,,,,,,,,,,,,,,,,,,,,,,"2009-06-10"
"72208013880","2020-01-24T17:56:00","FM-15","7",,"SE","0.25","mi","TEMP, PRECIP, SNOW",,,"MMTS, SRG, SNOWBOARD",,,"WFO CHS",,,,,,,,,,,,,,,,,,,,,,,,,,,"29.96","60","62","0.00",,,,"93","29.96","FEW:02 9 SCT:04 35 BKN:07 50","29.91","10.00","61","160",,"7",,,,,,,,,,,,,,,,,,,,,,,,,,,,,,,,,,,,,"MET11301/24/20 17:56:02 METAR KCHS 242256Z 16006KT 10SM FEW009 SCT035 BKN050 17/16 A2996 RMK AO2 SLP144 T01670156 (BBE)","FM-15","7",,,,,,,,,,,,,,,,,,,,,,,,,,,,"2009-06-10"
"72208013880","2020-01-24T18:56:00","FM-15","7",,"SE","0.25","mi","TEMP, PRECIP, SNOW",,,"MMTS, SRG, SNOWBOARD",,,"WFO CHS",,,,,,,,,,,,,,,,,,,,,,,,,,,"29.95","60","61","0.00",,"+0.04","6","97","29.95","FEW:02 35 SCT:04 45 BKN:07 65","29.90","10.00","60","160",,"10",,,,,,,,,,,,,,,,,,,,,,,,,,,,,,,,,,,,,"MET13701/24/20 18:56:02 METAR KCHS 242356Z 16009KT 10SM FEW035 SCT045 BKN065 16/16 A2995 RMK AO2 SLP142 60005 T01610156 10183 20161 56012 (BBE)","FM-15","7",,,,,,,,,,,,,,,,,,,,,,,,,,,,"2009-06-10"
"72208013880","2020-01-24T19:00:00","FM-12","4",,"SE","0.25","mi","TEMP, PRECIP, SNOW",,,"MMTS, SRG, SNOWBOARD",,,"WFO CHS",,,,,,,,,,,,,,,,,,,,,,,,,,,"29.95","60","61",,,"+0.04","6","97","29.95","41","29.90","9.94","60","160",,"10",,,,,,,,,,,,,,,,,,,,,,,,,,,,,,,,,,,,,"SYN08672208 12666 61609 10161 20156 30126 40142 56012 60011 92356 333 10189 20106 555 92500=","FM-12","4",,,,,,,,,,,,,,,,,,,,,,,,,,,,"2009-06-10"
"72208013880","2020-01-24T19:22:00","FM-16","7",,"SE","0.25","mi","TEMP, PRECIP, SNOW",,,"MMTS, SRG, SNOWBOARD",,,"WFO CHS",,,,,,,,,,,,,,,,,,,,,,,,,,,"29.97","61","61",,,,,"100",,"FEW:02 8 SCT:04 25 BKN:07 65","29.92","10.00","61","160",,"7",,,,,,,,,,,,,,,,,,,,,,,,,,,,,,,,,,,,,"MET10001/24/20 19:22:01 SPECI KCHS 250022Z 16006KT 10SM FEW008 SCT025 BKN065 16/16 A2997 RMK AO2 T01610161","FM-16","7",,,,,,,,,,,,,,,,,,,,,,,,,,,,"2009-06-10"
"72208013880","2020-01-24T19:29:00","FM-16","7",,"SE","0.25","mi","TEMP, PRECIP, SNOW",,,"MMTS, SRG, SNOWBOARD",,,"WFO CHS",,,,,,,,,,,,,,,,,,,,,,,,,,,"29.97","61","61",,,,,"100",,"FEW:02 8 BKN:07 20 BKN:07 30","29.92","10.00","61","160",,"8",,,,,,,,,,,,,,,,,,,,,,,,,,,,,,,,,,,,,"MET10001/24/20 19:29:01 SPECI KCHS 250029Z 16007KT 10SM FEW008 BKN020 BKN030 16/16 A2997 RMK AO2 T01610161","FM-16","7",,,,,,,,,,,,,,,,,,,,,,,,,,,,"2009-06-10"
"72208013880","2020-01-24T19:44:00","FM-16","7",,"SE","0.25","mi","TEMP, PRECIP, SNOW",,,"MMTS, SRG, SNOWBOARD",,,"WFO CHS",,,,,,,,,,,,,,,,,,,,,,,,,,,"29.96","60","61",,,,,"97",,"SCT:04 6 BKN:07 20 BKN:07 30","29.91","10.00","60","140",,"8",,,,,,,,,,,,,,,,,,,,,,,,,,,,,,,,,,,,,"MET10001/24/20 19:44:01 SPECI KCHS 250044Z 14007KT 10SM SCT006 BKN020 BKN030 16/16 A2996 RMK AO2 T01610156","FM-16","7",,,,,,,,,,,,,,,,,,,,,,,,,,,,"2009-06-10"
"72208013880","2020-01-24T19:56:00","FM-15","7",,"SE","0.25","mi","TEMP, PRECIP, SNOW",,,"MMTS, SRG, SNOWBOARD",,,"WFO CHS",,,,,,,,,,,,,,,,,,,,,,,,,,,"29.96","60","61","0.00",,,,"97","29.96","SCT:04 6 BKN:07 20 BKN:07 70","29.91","10.00","60","150",,"8",,,,,,,,,,,,,,,,,,,,,,,,,,,,,,,,,,,,,"MET10701/24/20 19:56:01 METAR KCHS 250056Z 15007KT 10SM SCT006 BKN020 BKN070 16/16 A2996 RMK AO2 SLP146 T01610156","FM-15","7",,,,,,,,,,,,,,,,,,,,,,,,,,,,"2009-06-10"
"72208013880","2020-01-24T20:56:00","FM-15","7",,"SE","0.25","mi","TEMP, PRECIP, SNOW",,,"MMTS, SRG, SNOWBOARD",,,"WFO CHS",,,,,,,,,,,,,,,,,,,,,,,,,,,"29.96","61","61","0.00",,,,"100","29.95","SCT:04 6 SCT:04 15 BKN:07 20","29.91","10.00","61","170",,"5",,,,,,,,,,,,,,,,,,,,,,,,,,,,,,,,,,,,,"MET10701/24/20 20:56:01 METAR KCHS 250156Z 17004KT 10SM SCT006 SCT015 BKN020 16/16 A2996 RMK AO2 SLP143 T01610161","FM-15","7",,,,,,,,,,,,,,,,,,,,,,,,,,,,"2009-06-10"
"72208013880","2020-01-24T21:12:00","FM-16","7",,"SE","0.25","mi","TEMP, PRECIP, SNOW",,,"MMTS, SRG, SNOWBOARD",,,"WFO CHS",,,,,,,,,,,,,,,,,,,,,,,,,,,"29.96","61","61",,,,,"100",,"BKN:07 6 BKN:07 15 OVC:08 80","29.91","10.00","61","000",,"0",,,,,,,,,,,,,,,,,,,,,,,,,,,,,,,,,,,,,"MET10001/24/20 21:12:01 SPECI KCHS 250212Z 00000KT 10SM BKN006 BKN015 OVC080 16/16 A2996 RMK AO2 T01610161","FM-16","7",,,,,,,,,,,,,,,,,,,,,,,,,,,,"2009-06-10"
"72208013880","2020-01-24T21:54:00","FM-16","6",,"SE","0.25","mi","TEMP, PRECIP, SNOW",,,"MMTS, SRG, SNOWBOARD",,,"WFO CHS",,,,,,,,,,,,,,,,,,,,,,,,,,,"29.94","63","63",,,,,"100",,"SCT:04 6 SCT:04 15 BKN:07 55","29.89","10.00","63","180",,"8",,,,,,,,,,,,,,,,,,,,,,,,,,,,,,,,,,,,,"MET10101/24/20 21:54:03 SPECI KCHS 250254Z 18007KT 10SM SCT006 SCT015 BKN055 17/17 A2994 RMK AO2 FIBI (BBE)","FM-16","6",,,,,,,,,,,,,,,,,,,,,,,,,,,,"2009-06-10"
"72208013880","2020-01-24T21:56:00","FM-15","7",,"SE","0.25","mi","TEMP, PRECIP, SNOW",,,"MMTS, SRG, SNOWBOARD",,,"WFO CHS",,,,,,,,,,,,,,,,,,,,,,,,,,,"29.94","62","62","0.00",,"+0.01","8","100","29.94","SCT:04 6 SCT:04 15 BKN:07 55","29.89","10.00","62","180",,"8",,,,,,,,,,,,,,,,,,,,,,,,,,,,,,,,,,,,,"MET11301/24/20 21:56:01 METAR KCHS 250256Z 18007KT 10SM SCT006 SCT015 BKN055 17/17 A2994 RMK AO2 SLP139 T01670167 58003","FM-15","7",,,,,,,,,,,,,,,,,,,,,,,,,,,,"2009-06-10"
"72208013880","2020-01-24T22:00:00","FM-12","4",,"SE","0.25","mi","TEMP, PRECIP, SNOW",,,"MMTS, SRG, SNOWBOARD",,,"WFO CHS",,,,,,,,,,,,,,,,,,,,,,,,,,,"29.94","62","62",,,"+0.01","8","100","29.94","5","29.89","9.94","62","180",,"8",,,,,,,,,,,,,,,,,,,,,,,,,,,,,,,,,,,,,"SYN06472208 32266 61807 10167 20167 30123 40139 58003 90256 555 92503=","FM-12","4",,,,,,,,,,,,,,,,,,,,,,,,,,,,"2009-06-10"
"72208013880","2020-01-24T22:54:00","FM-16","6",,"SE","0.25","mi","TEMP, PRECIP, SNOW",,,"MMTS, SRG, SNOWBOARD",,,"WFO CHS",,,,,,,,,,,,,,,,,,,,,,,,,,,"29.95","63","63",,,,,"100",,"BKN:07 11 OVC:08 42","29.90","10.00","63","230",,"11",,,,,,,,,,,,,,,,,,,,,,,,,,,,,,,,,,,,,"MET09401/24/20 22:54:03 SPECI KCHS 250354Z 23010KT 10SM BKN011 OVC042 17/17 A2995 RMK AO2 FIBI (ARB)","FM-16","6",,,,,,,,,,,,,,,,,,,,,,,,,,,,"2009-06-10"
"72208013880","2020-01-24T22:56:00","FM-15","7",,"SE","0.25","mi","TEMP, PRECIP, SNOW",,,"MMTS, SRG, SNOWBOARD",,,"WFO CHS",,,,,,,,,,,,,,,,,,,,,,,,,,,"29.95","62","64","0.00",,,,"93","29.94","BKN:07 11 OVC:08 42","29.90","10.00","63","230","21","13",,,,,,,,,,,,,,,,,,,,,,,,,,,,,,,,,,,,,"MET10301/24/20 22:56:01 METAR KCHS 250356Z 23011G18KT 10SM BKN011 OVC042 18/17 A2995 RMK AO2 SLP140 T01780167","FM-15","7",,,,,,,,,,,,,,,,,,,,,,,,,,,,"2009-06-10"
"72208013880","2020-01-24T23:54:00","FM-16","6",,"SE","0.25","mi","TEMP, PRECIP, SNOW",,,"MMTS, SRG, SNOWBOARD",,,"WFO CHS",,,,,,,,,,,,,,,,,,,,,,,,,,,"29.95","61","63",,,,,"94",,"BKN:07 9 OVC:08 22","29.90","10.00","62","260",,"7",,,,,,,,,,,,,,,,,,,,,,,,,,,,,,,,,,,,,"MET09401/24/20 23:54:03 SPECI KCHS 250454Z 26006KT 10SM BKN009 OVC022 17/16 A2995 RMK AO2 FIBI (ARB)","FM-16","6",,,,,,,,,,,,,,,,,,,,,,,,,,,,"2009-06-10"
"72208013880","2020-01-24T23:56:00","FM-15","7",,"SE","0.25","mi","TEMP, PRECIP, SNOW",,,"MMTS, SRG, SNOWBOARD",,,"WFO CHS",,,,,,,,,,,,,,,,,,,,,,,,,,,"29.95","60","62","0.00",,,,"93","29.94","BKN:07 9 OVC:08 22","29.90","10.00","61","260",,"6",,,,,,,,,,,,,,,,,,,,,,,,,,,,,,,,,,,,,"MET11001/24/20 23:56:02 METAR KCHS 250456Z 26005KT 10SM BKN009 OVC022 17/16 A2995 RMK AO2 SLP140 T01670156 401890106","FM-15","7",,,,,,,,,,,,,,,,,,,,,,,,,,,,"2009-06-10"
"72208013880","2020-01-24T23:59:00","SOD  ","6",,"SE","0.25","mi","TEMP, PRECIP, SNOW",,,"MMTS, SRG, SNOWBOARD",,,"WFO CHS",,,,"56","59","93","30.03","29.99","57","7.3","0","10.5","6","66","51","110","21","0.07","0","0.0","220","16","RA BR",,,,,,,,,,,,,,,,,,,,,,,,,,,,,,,,,,,,,,,,,,,,,,,,,,,,,,,,"SOD75624 HR PRECIPITATION (IN): 0.07 SNOW DEPTH (IN):0     24 HR SNOWFALL (IN):0.0  WEATHER(CODE):1  24 HR MAX TEMP (F): 6624 HR MIN TEMP (F): 51AVERAGE STATION PRESSURE:29.995 MINIMUM SEA LEVEL PRESSURE:29.94 TIME OF OCCURRENCE:2359 PEAK WIND SPEED (MPH): 21 PEAK WIND DIR (DEG):110 PEAK WIND TIME (LST):      FASTEST 2MIN SPEED (MPH): 16FASTEST 2MIN DIR (DEG):220 FASTEST 2MIN TIME (LST):     AVERAGE WIND SPEED (MPH): 7.3 24 HR AVG TEMP (F): 59DEPART FROM NORMAL: 11  HEATING DEGREE DAYS:  6 COOLING DEGREE DAYS:  0 LATEST DAY MAX TEMP (0700-1900 LST):66  LATEST NIGHT MIN TEMP(1900-0800 LST):50 HOURLY INCREMENTAL PRECIPITATION VALUES (IN):    0.00 0.00 0.00 0.00 0.00 0.00 T    T    T    0.01 0.01 T    0.03 0.01 0.01 T    0.00 0.00 0.00 0.00 0.00 0.00 0.00","SOD  ","6",,,,,,,,,,,,,,,,,,,,,,,,,"0720","1745",,"2009-06-10"
"72208013880","2020-01-25T00:54:00","FM-16","6",,"SE","0.25","mi","TEMP, PRECIP, SNOW",,,"MMTS, SRG, SNOWBOARD",,,"WFO CHS",,,,,,,,,,,,,,,,,,,,,,,,,,,"29.93","59","61",,,,,"94",,"SCT:04 43 BKN:07 50","29.88","10.00","60","210",,"5",,,,,,,,,,,,,,,,,,,,,,,,,,,,,,,,,,,,,"MET10901/25/20 00:54:02 SPECI KCHS 250554Z 21004KT 10SM SCT043 BKN050 16/15 A2993 RMK AO2 RAB02E38 P0000 FIBI (ARB)","FM-16","6",,,,,,,,,,,,,,,,,,,,,,,,,,,,"2009-06-10"
"72208013880","2020-01-25T00:56:00","FM-15","7",,"SE","0.25","mi","TEMP, PRECIP, SNOW",,,"MMTS, SRG, SNOWBOARD",,,"WFO CHS",,,,,,,,,,,,,,,,,,,,,,,,,,,"29.93","59","60","T",,"+0.02","8","96","29.92","SCT:04 43 BKN:07 50","29.88","10.00","59","210",,"5",,,,,,,,,,,,,,,,,,,,,,,,,,,,,,,,,,,,,"MET14501/25/20 00:56:02 METAR KCHS 250556Z 21004KT 10SM SCT043 BKN050 16/15 A2993 RMK AO2 RAB02E38 SLP133 P0000 60000 T01560150 10178 20156 58006 (ARB)","FM-15","7",,,,,,,,,,,,,,,,,,,,,,,,,,,,"2009-06-10"
"72208013880","2020-01-25T01:00:00","FM-12","4",,"SE","0.25","mi","TEMP, PRECIP, SNOW",,,"MMTS, SRG, SNOWBOARD",,,"WFO CHS",,,,,,,,,,,,,,,,,,,,,,,,,,,"29.93","59","60",,,"+0.02","8","96","29.92","41","29.88","9.94","59","210",,"5",,,,,,,,,,,,,,,,,,,,,,,,,,,,,,,,,,,,,"SYN08672208 12666 62104 10156 20150 30119 40133 58006 69901 90556 333 10178 20106 555 92506=","FM-12","4",,,,,,,,,,,,,,,,,,,,,,,,,,,,"2009-06-10"
"72208013880","2020-01-25T01:56:00","FM-15","7",,"SE","0.25","mi","TEMP, PRECIP, SNOW",,,"MMTS, SRG, SNOWBOARD",,,"WFO CHS",,,,,,,,,,,,,,,,,,,,,,,,,,,"29.93","59","60","0.00",,,,"96","29.92","FEW:02 15 SCT:04 22 BKN:07 33","29.88","10.00","59","240",,"7",,,,,,,,,,,,,,,,,,,,,,,,,,,,,,,,,,,,,"MET11301/25/20 01:56:02 METAR KCHS 250656Z 24006KT 10SM FEW015 SCT022 BKN033 16/15 A2993 RMK AO2 SLP133 T01560150 (ARB)","FM-15","7",,,,,,,,,,,,,,,,,,,,,,,,,,,,"2009-06-10"
"72208013880","2020-01-25T02:56:00","FM-15","7",,"SE","0.25","mi","TEMP, PRECIP, SNOW",,,"MMTS, SRG, SNOWBOARD",,,"WFO CHS",,,,,,,,,,,,,,,,,,,,,,,,,,,"29.93","56","59","0.00",,,,"90","29.93","FEW:02 12 SCT:04 17 BKN:07 49","29.88","10.00","57","280",,"9",,,,,,,,,,,,,,,,,,,,,,,,,,,,,,,,,,,,,"MET11301/25/20 02:56:02 METAR KCHS 250756Z 28008KT 10SM FEW012 SCT017 BKN049 15/13 A2993 RMK AO2 SLP134 T01500133 (ARB)","FM-15","7",,,,,,,,,,,,,,,,,,,,,,,,,,,,"2009-06-10"
"72208013880","2020-01-25T03:26:00","FM-16","7",,"SE","0.25","mi","TEMP, PRECIP, SNOW",,,"MMTS, SRG, SNOWBOARD",,,"WFO CHS",,,,,,,,,,,,,,,,,,,,,,,,,,,"29.93","56","58",,,,,"93",,"BKN:07 15","29.88","10.00","57","300",,"10",,,,,,,,,,,,,,,,,,,,,,,,,,,,,,,,,,,,,"MET09201/25/20 03:26:02 SPECI KCHS 250826Z 30009KT 10SM BKN015 14/13 A2993 RMK AO2 T01440133 (ARB)","FM-16","7",,,,,,,,,,,,,,,,,,,,,,,,,,,,"2009-06-10"
"72208013880","2020-01-25T03:56:00","FM-15","7",,"SE","0.25","mi","TEMP, PRECIP, SNOW",,,"MMTS, SRG, SNOWBOARD",,,"WFO CHS",,,,,,,,,,,,,,,,,,,,,,,,,,,"29.94","55","58","0.00",,"-0.01","3","90","29.93","BKN:07 15","29.89","10.00","56","290",,"9",,,,,,,,,,,,,,,,,,,,,,,,,,,,,,,,,,,,,"MET10501/25/20 03:56:02 METAR KCHS 250856Z 29008KT 10SM BKN015 14/13 A2994 RMK AO2 SLP136 T01440128 53003 (ARB)","FM-15","7",,,,,,,,,,,,,,,,,,,,,,,,,,,,"2009-06-10"
"72208013880","2020-01-25T04:00:00","FM-12","4",,"SE","0.25","mi","TEMP, PRECIP, SNOW",,,"MMTS, SRG, SNOWBOARD",,,"WFO CHS",,,,,,,,,,,,,,,,,,,,,,,,,,,"29.94","55","58",,,"-0.01","3","90","29.93","15","29.89","9.94","56","290",,"9",,,,,,,,,,,,,,,,,,,,,,,,,,,,,,,,,,,,,"SYN06472208 32466 62908 10144 20128 30123 40136 53003 90856 555 92509=","FM-12","4",,,,,,,,,,,,,,,,,,,,,,,,,,,,"2009-06-10"
"72208013880","2020-01-25T04:06:00","FM-16","7",,"SE","0.25","mi","TEMP, PRECIP, SNOW",,,"MMTS, SRG, SNOWBOARD",,,"WFO CHS",,,,,,,,,,,,,,,,,,,,,,,,,,,"29.93","55","58",,,,,"90",,"BKN:07 13 BKN:07 19","29.88","10.00","56","290",,"9",,,,,,,,,,,,,,,,,,,,,,,,,,,,,,,,,,,,,"MET09901/25/20 04:06:02 SPECI KCHS 250906Z 29008KT 10SM BKN013 BKN019 14/13 A2993 RMK AO2 T01440128 (ARB)","FM-16","7",,,,,,,,,,,,,,,,,,,,,,,,,,,,"2009-06-10"
"72208013880","2020-01-25T04:56:00","FM-15","7",,"SE","0.25","mi","TEMP, PRECIP, SNOW",,,"MMTS, SRG, SNOWBOARD",,,"WFO CHS",,,,,,,,,,,,,,,,,,,,,,,,,,,"29.95","55","57","0.00",,,,"93","29.94","BKN:07 11 BKN:07 20","29.90","10.00","56","320",,"8",,,,,,,,,,,,,,,,,,,,,,,,,,,,,,,,,,,,,"MET10601/25/20 04:56:02 METAR KCHS 250956Z 32007KT 10SM BKN011 BKN020 14/13 A2995 RMK AO2 SLP140 T01390128 (ARB)","FM-15","7",,,,,,,,,,,,,,,,,,,,,,,,,,,,"2009-06-10"
"72208013880","2020-01-25T05:13:00","FM-16","7",,"SE","0.25","mi","TEMP, PRECIP, SNOW",,,"MMTS, SRG, SNOWBOARD",,,"WFO CHS",,,,,,,,,,,,,,,,,,,,,,,,,,,"29.96","49","55",,,,,"80",,"SCT:04 10 BKN:07 17","29.91","10.00","52","300","22","9",,,,,,,,,,,,,,,,,,,,,,,,,,,,,,,,,,,,,"MET10201/25/20 05:13:02 SPECI KCHS 251013Z 30008G19KT 10SM SCT010 BKN017 13/09 A2996 RMK AO2 T01280094 (ARB)","FM-16","7",,,,,,,,,,,,,,,,,,,,,,,,,,,,"2009-06-10"
"72208013880","2020-01-25T05:54:00","FM-16","6",,"SE","0.25","mi","TEMP, PRECIP, SNOW",,,"MMTS, SRG, SNOWBOARD",,,"WFO CHS",,,,,,,,,,,,,,,,,,,,,,,,,,,"29.97","48","54",,,,,"82",,"CLR:00","29.92","10.00","51","310",,"7",,,,,,,,,,,,,,,,,,,,,,,,,,,,,,,,,,,,,"MET08401/25/20 05:54:02 SPECI KCHS 251054Z 31006KT 10SM CLR 12/09 A2997 RMK AO2 FIBI (ARB)","FM-16","6",,,,,,,,,,,,,,,,,,,,,,,,,,,,"2009-06-10"
"72208013880","2020-01-25T05:56:00","FM-15","7",,"SE","0.25","mi","TEMP, PRECIP, SNOW",,,"MMTS, SRG, SNOWBOARD",,,"WFO CHS",,,,,,,,,,,,,,,,,,,,,,,,,,,"29.97","48","53","0.00",,,,"83","29.97","CLR:00","29.92","10.00","50","310",,"7",,,,,,,,,,,,,,,,,,,,,,,,,,,,,,,,,,,,,"MET09601/25/20 05:56:02 METAR KCHS 251056Z 31006KT 10SM CLR 12/09 A2997 RMK AO2 SLP148 T01170089 (ARB)","FM-15","7",,,,,,,,,,,,,,,,,,,,,,,,,,,,"2009-06-10"
"72208013880","2020-01-25T06:56:00","FM-15","7",,"SE","0.25","mi","TEMP, PRECIP, SNOW",,,"MMTS, SRG, SNOWBOARD",,,"WFO CHS",,,,,,,,,,,,,,,,,,,,,,,,,,,"29.99","47","50","0.00",,"-0.04","1","89","29.98","CLR:00","29.94","10.00","48","280",,"5",,,,,,,,,,,,,,,,,,,,,,,,,,,,,,,,,,,,,"MET12001/25/20 06:56:02 METAR KCHS 251156Z 28004KT 10SM CLR 10/08 A2999 RMK AO2 SLP154 70007 T01000083 10156 20100 51014 (WHT)","FM-15","7",,,,,,,,,,,,,,,,,,,,,,,,,,,,"2009-06-10"
"72208013880","2020-01-25T07:00:00","FM-12","4",,"SE","0.25","mi","TEMP, PRECIP, SNOW",,,"MMTS, SRG, SNOWBOARD",,,"WFO CHS",,,,,,,,,,,,,,,,,,,,,,,,,,,"29.99","47","50",,,"-0.04","1","89","29.98",,"29.94","9.94","48","280",,"5",,,,,,,,,,,,,,,,,,,,,,,,,,,,,,,,,,,,,"SYN08672208 32966 02804 10100 20083 30140 40154 51014 91156 333 10189 20100 70018 555 92512=","FM-12","4",,,,,,,,,,,,,,,,,,,,,,,,,,,,"2009-06-10"
"72208013880","2020-01-25T07:56:00","FM-15","7",,"SE","0.25","mi","TEMP, PRECIP, SNOW",,,"MMTS, SRG, SNOWBOARD",,,"WFO CHS",,,,,,,,,,,,,,,,,,,,,,,,,,,"30.01","47","50","0.00",,,,"89","30.01","CLR:00","29.96","10.00","48","250",,"5",,,,,,,,,,,,,,,,,,,,,,,,,,,,,,,,,,,,,"MET09601/25/20 07:56:02 METAR KCHS 251256Z 25004KT 10SM CLR 10/08 A3001 RMK AO2 SLP162 T01000083 (WHT)","FM-15","7",,,,,,,,,,,,,,,,,,,,,,,,,,,,"2009-06-10"
"72208013880","2020-01-25T08:56:00","FM-15","7",,"SE","0.25","mi","TEMP, PRECIP, SNOW",,,"MMTS, SRG, SNOWBOARD",,,"WFO CHS",,,,,,,,,,,,,,,,,,,,,,,,,,,"30.03","48","52","0.00",,,,"86","30.02","CLR:00","29.98","10.00","50","280",,"11",,,,,,,,,,,,,,,,,,,,,,,,,,,,,,,,,,,,,"MET10601/25/20 08:56:02 METAR KCHS 251356Z 28010KT 10SM CLR 11/09 A3003 RMK AO2 SLP167 CIG LWR W T01110089 (WHT)","FM-15","7",,,,,,,,,,,,,,,,,,,,,,,,,,,,"2009-06-10"
"72208013880","2020-01-25T09:22:00","FM-16","7",,"SE","0.25","mi","TEMP, PRECIP, SNOW",,,"MMTS, SRG, SNOWBOARD",,,"WFO CHS",,,,,,,,,,,,,,,,,,,,,,,,,,,"30.04","46","50",,,,,"86",,"SCT:04 9","29.99","10.00","48","290",,"13",,,,,,,,,,,,,,,,,,,,,,,,,,,,,,,,,,,,,"MET09201/25/20 09:22:02 SPECI KCHS 251422Z 29011KT 10SM SCT009 10/08 A3004 RMK AO2 T01000078 (WHT)","FM-16","7",,,,,,,,,,,,,,,,,,,,,,,,,,,,"2009-06-10"
"72208013880","2020-01-25T09:56:00","FM-15","7",,"SE","0.25","mi","TEMP, PRECIP, SNOW",,,"MMTS, SRG, SNOWBOARD",,,"WFO CHS",,,,,,,,,,,,,,,,,,,,,,,,,,,"30.05","47","53","0.00",,"-0.06","1","80","30.04","CLR:00","30.00","10.00","50","270",,"8",,,,,,,,,,,,,,,,,,,,,,,,,,,,,,,,,,,,,"MET10201/25/20 09:56:02 METAR KCHS 251456Z 27007KT 10SM CLR 12/08 A3005 RMK AO2 SLP174 T01170083 51020 (WHT)","FM-15","7",,,,,,,,,,,,,,,,,,,,,,,,,,,,"2009-06-10"
"72208013880","2020-01-25T10:00:00","FM-12","4",,"SE","0.25","mi","TEMP, PRECIP, SNOW",,,"MMTS, SRG, SNOWBOARD",,,"WFO CHS",,,,,,,,,,,,,,,,,,,,,,,,,,,"30.05","47","53",,,"-0.06","1","80","30.04",,"30.00","9.94","50","270",,"8",,,,,,,,,,,,,,,,,,,,,,,,,,,,,,,,,,,,,"SYN06472208 32966 02707 10117 20083 30160 40174 51020 91456 555 92515=","FM-12","4",,,,,,,,,,,,,,,,,,,,,,,,,,,,"2009-06-10"
"72208013880","2020-01-25T10:56:00","FM-15","7",,"SE","0.25","mi","TEMP, PRECIP, SNOW",,,"MMTS, SRG, SNOWBOARD",,,"WFO CHS",,,,,,,,,,,,,,,,,,,,,,,,,,,"30.04","45","56","0.00",,,,"67","30.04","CLR:00","29.99","10.00","50","280","20","14",,,,,,,,,,,,,,,,,,,,,,,,,,,,,,,,,,,,,"MET09901/25/20 10:56:02 METAR KCHS 251556Z 28012G17KT 10SM CLR 13/07 A3004 RMK AO2 SLP172 T01330072 (WHT)","FM-15","7",,,,,,,,,,,,,,,,,,,,,,,,,,,,"2009-06-10"
"72208013880","2020-01-25T11:56:00","FM-15","7",,"SE","0.25","mi","TEMP, PRECIP, SNOW",,,"MMTS, SRG, SNOWBOARD",,,"WFO CHS",,,,,,,,,,,,,,,,,,,,,,,,,,,"30.02","40","59","0.00",,,,"49","30.02","CLR:00","29.97","10.00","50","280","18","11",,,,,,,,,,,,,,,,,,,,,,,,,,,,,,,,,,,,,"MET09901/25/20 11:56:02 METAR KCHS 251656Z 28010G16KT 10SM CLR 15/04 A3002 RMK AO2 SLP166 T01500044 (WHT)","FM-15","7",,,,,,,,,,,,,,,,,,,,,,,,,,,,"2009-06-10"
"72208013880","2020-01-25T12:56:00","FM-15","7",,"SE","0.25","mi","TEMP, PRECIP, SNOW",,,"MMTS, SRG, SNOWBOARD",,,"WFO CHS",,,,,,,,,,,,,,,,,,,,,,,,,,,"29.99","37","59","0.00",,"+0.06","8","44","29.99","CLR:00","29.94","10.00","48","280","23","11",,,,,,,,,,,,,,,,,,,,,,,,,,,,,,,,,,,,,"MET11701/25/20 12:56:02 METAR KCHS 251756Z 28010G20KT 10SM CLR 15/03 A2999 RMK AO2 SLP155 T01500028 10156 20083 58019 (WHT)","FM-15","7",,,,,,,,,,,,,,,,,,,,,,,,,,,,"2009-06-10"
"72208013880","2020-01-25T13:00:00","FM-12","4",,"SE","0.25","mi","TEMP, PRECIP, SNOW",,,"MMTS, SRG, SNOWBOARD",,,"WFO CHS",,,,,,,,,,,,,,,,,,,,,,,,,,,"29.99","37","59",,,"+0.06","8","44","29.99",,"29.94","9.94","48","280",,"11",,,,,,,,,,,,,,,,,,,,,,,,,,,,,,,,,,,,,"SYN08672208 32966 02810 10150 20028 30140 40155 58019 91756 333 10156 20083 91020 555 92518=","FM-12","4",,,,,,,,,,,,,,,,,,,,,,,,,,,,"2009-06-10"
"72208013880","2020-01-25T13:56:00","FM-15","7",,"SE","0.25","mi","TEMP, PRECIP, SNOW",,,"MMTS, SRG, SNOWBOARD",,,"WFO CHS",,,,,,,,,,,,,,,,,,,,,,,,,,,"29.97","35","60","0.00",,,,"39","29.97","CLR:00","29.92","10.00","48","300","25","16",,,,,,,,,,,,,,,,,,,,,,,,,,,,,,,,,,,,,"MET09901/25/20 13:56:02 METAR KCHS 251856Z 30014G22KT 10SM CLR 16/02 A2997 RMK AO2 SLP148 T01560017 (WHT)","FM-15","7",,,,,,,,,,,,,,,,,,,,,,,,,,,,"2009-06-10"
"72208013880","2020-01-25T14:56:00","FM-15","7",,"SE","0.25","mi","TEMP, PRECIP, SNOW",,,"MMTS, SRG, SNOWBOARD",,,"WFO CHS",,,,,,,,,,,,,,,,,,,,,,,,,,,"29.96","36","60","0.00",,,,"41","29.96","CLR:00","29.91","10.00","49","270",,"16",,,,,,,,,,,,,,,,,,,,,,,,,,,,,,,,,,,,,"MET09601/25/20 14:56:02 METAR KCHS 251956Z 27014KT 10SM CLR 16/02 A2996 RMK AO2 SLP144 T01560022 (WHT)","FM-15","7",,,,,,,,,,,,,,,,,,,,,,,,,,,,"2009-06-10"
"72208013880","2020-01-25T15:56:00","FM-15","7",,"SE","0.25","mi","TEMP, PRECIP, SNOW",,,"MMTS, SRG, SNOWBOARD",,,"WFO CHS",,,,,,,,,,,,,,,,,,,,,,,,,,,"29.96","36","60","0.00",,"+0.03","5","41","29.96","CLR:00","29.91","10.00","49","290",,"10",,,,,,,,,,,,,,,,,,,,,,,,,,,,,,,,,,,,,"MET10201/25/20 15:56:02 METAR KCHS 252056Z 29009KT 10SM CLR 16/02 A2996 RMK AO2 SLP144 T01560022 55010 (JRS)","FM-15","7",,,,,,,,,,,,,,,,,,,,,,,,,,,,"2009-06-10"
"72208013880","2020-01-25T16:00:00","FM-12","4",,"SE","0.25","mi","TEMP, PRECIP, SNOW",,,"MMTS, SRG, SNOWBOARD",,,"WFO CHS",,,,,,,,,,,,,,,,,,,,,,,,,,,"29.96","36","60",,,"+0.03","5","41","29.96",,"29.91","9.94","49","290",,"10",,,,,,,,,,,,,,,,,,,,,,,,,,,,,,,,,,,,,"SYN06472208 32966 02909 10156 20022 30129 40144 55010 92056 555 92521=","FM-12","4",,,,,,,,,,,,,,,,,,,,,,,,,,,,"2009-06-10"
"72208013880","2020-01-25T16:56:00","FM-15","7",,"SE","0.25","mi","TEMP, PRECIP, SNOW",,,"MMTS, SRG, SNOWBOARD",,,"WFO CHS",,,,,,,,,,,,,,,,,,,,,,,,,,,"29.97","36","57","0.00",,,,"45","29.96","FEW:02 250","29.92","10.00","47","260",,"14",,,,,,,,,,,,,,,,,,,,,,,,,,,,,,,,,,,,,"MET09901/25/20 16:56:02 METAR KCHS 252156Z 26012KT 10SM FEW250 14/02 A2997 RMK AO2 SLP147 T01390022 (JRS)","FM-15","7",,,,,,,,,,,,,,,,,,,,,,,,,,,,"2009-06-10"
"72208013880","2020-01-25T17:56:00","FM-15","7",,"SE","0.25","mi","TEMP, PRECIP, SNOW",,,"MMTS, SRG, SNOWBOARD",,,"WFO CHS",,,,,,,,,,,,,,,,,,,,,,,,,,,"29.98","36","54","0.00",,,,"51","29.98","FEW:02 250","29.93","10.00","46","280",,"9",,,,,,,,,,,,,,,,,,,,,,,,,,,,,,,,,,,,,"MET09901/25/20 17:56:02 METAR KCHS 252256Z 28008KT 10SM FEW250 12/02 A2998 RMK AO2 SLP152 T01220022 (JRS)","FM-15","7",,,,,,,,,,,,,,,,,,,,,,,,,,,,"2009-06-10"
"72208013880","2020-01-25T18:56:00","FM-15","7",,"SE","0.25","mi","TEMP, PRECIP, SNOW",,,"MMTS, SRG, SNOWBOARD",,,"WFO CHS",,,,,,,,,,,,,,,,,,,,,,,,,,,"30.01","37","52","0.00",,"-0.05","3","57","30.01","FEW:02 250","29.96","10.00","45","270",,"8",,,,,,,,,,,,,,,,,,,,,,,,,,,,,,,,,,,,,"MET11701/25/20 18:56:02 METAR KCHS 252356Z 27007KT 10SM FEW250 11/03 A3001 RMK AO2 SLP161 T01110028 10161 20111 53017 (JRS)","FM-15","7",,,,,,,,,,,,,,,,,,,,,,,,,,,,"2009-06-10"
"72208013880","2020-01-25T19:00:00","FM-12","4",,"SE","0.25","mi","TEMP, PRECIP, SNOW",,,"MMTS, SRG, SNOWBOARD",,,"WFO CHS",,,,,,,,,,,,,,,,,,,,,,,,,,,"30.01","37","52",,,"-0.05","3","57","30.01",,"29.96","9.94","45","270",,"8",,,,,,,,,,,,,,,,,,,,,,,,,,,,,,,,,,,,,"SYN08072208 32966 22707 10111 20028 30146 40161 53017 92356 333 10161 20100 555 92600=","FM-12","4",,,,,,,,,,,,,,,,,,,,,,,,,,,,"2009-06-10"
"72208013880","2020-01-25T19:56:00","FM-15","7",,"SE","0.25","mi","TEMP, PRECIP, SNOW",,,"MMTS, SRG, SNOWBOARD",,,"WFO CHS",,,,,,,,,,,,,,,,,,,,,,,,,,,"30.03","37","50","0.00",,,,"61","30.03","FEW:02 250","29.98","10.00","44","270",,"7",,,,,,,,,,,,,,,,,,,,,,,,,,,,,,,,,,,,,"MET09301/25/20 19:56:01 METAR KCHS 260056Z 27006KT 10SM FEW250 10/03 A3003 RMK AO2 SLP168 T01000028","FM-15","7",,,,,,,,,,,,,,,,,,,,,,,,,,,,"2009-06-10"
"72208013880","2020-01-25T20:56:00","FM-15","7",,"SE","0.25","mi","TEMP, PRECIP, SNOW",,,"MMTS, SRG, SNOWBOARD",,,"WFO CHS",,,,,,,,,,,,,,,,,,,,,,,,,,,"30.04","37","50","0.00",,,,"61","30.03","SCT:04 250","29.99","10.00","44","280",,"8",,,,,,,,,,,,,,,,,,,,,,,,,,,,,,,,,,,,,"MET09301/25/20 20:56:01 METAR KCHS 260156Z 28007KT 10SM SCT250 10/03 A3004 RMK AO2 SLP171 T01000028","FM-15","7",,,,,,,,,,,,,,,,,,,,,,,,,,,,"2009-06-10"
"72208013880","2020-01-25T21:56:00","FM-15","7",,"SE","0.25","mi","TEMP, PRECIP, SNOW",,,"MMTS, SRG, SNOWBOARD",,,"WFO CHS",,,,,,,,,,,,,,,,,,,,,,,,,,,"30.05","37","48","0.00",,"-0.04","1","66","30.05","SCT:04 250","30.00","10.00","43","300",,"8",,,,,,,,,,,,,,,,,,,,,,,,,,,,,,,,,,,,,"MET09901/25/20 21:56:01 METAR KCHS 260256Z 30007KT 10SM SCT250 09/03 A3005 RMK AO2 SLP175 T00890028 51014","FM-15","7",,,,,,,,,,,,,,,,,,,,,,,,,,,,"2009-06-10"
"72208013880","2020-01-25T22:00:00","FM-12","4",,"SE","0.25","mi","TEMP, PRECIP, SNOW",,,"MMTS, SRG, SNOWBOARD",,,"WFO CHS",,,,,,,,,,,,,,,,,,,,,,,,,,,"30.05","37","48",,,"-0.04","1","66","30.05",,"30.00","9.94","43","300",,"8",,,,,,,,,,,,,,,,,,,,,,,,,,,,,,,,,,,,,"SYN06472208 32966 43007 10089 20028 30160 40175 51014 90256 555 92603=","FM-12","4",,,,,,,,,,,,,,,,,,,,,,,,,,,,"2009-06-10"
"72208013880","2020-01-25T22:56:00","FM-15","7",,"SE","0.25","mi","TEMP, PRECIP, SNOW",,,"MMTS, SRG, SNOWBOARD",,,"WFO CHS",,,,,,,,,,,,,,,,,,,,,,,,,,,"30.06","36","47","0.00",,,,"66","30.06","CLR:00","30.01","10.00","42","290",,"6",,,,,,,,,,,,,,,,,,,,,,,,,,,,,,,,,,,,,"MET09001/25/20 22:56:01 METAR KCHS 260356Z 29005KT 10SM CLR 08/02 A3006 RMK AO2 SLP178 T00830022","FM-15","7",,,,,,,,,,,,,,,,,,,,,,,,,,,,"2009-06-10"
"72208013880","2020-01-25T23:56:00","FM-15","7",,"SE","0.25","mi","TEMP, PRECIP, SNOW",,,"MMTS, SRG, SNOWBOARD",,,"WFO CHS",,,,,,,,,,,,,,,,,,,,,,,,,,,"30.06","36","46","0.00",,,,"68","30.06","CLR:00","30.01","10.00","42","270",,"6",,,,,,,,,,,,,,,,,,,,,,,,,,,,,,,,,,,,,"MET10001/25/20 23:56:02 METAR KCHS 260456Z 27005KT 10SM CLR 08/02 A3006 RMK AO2 SLP179 T00780022 401670078","FM-15","7",,,,,,,,,,,,,,,,,,,,,,,,,,,,"2009-06-10"
"72208013880","2020-01-25T23:59:00","SOD  ","6",,"SE","0.25","mi","TEMP, PRECIP, SNOW",,,"MMTS, SRG, SNOWBOARD",,,"WFO CHS",,,,"43","54","67","29.99","29.92","49","9.1","0","5.4","11","62","46","290","25","T","0","0.0","290","18",,,,,,,,,,,,,,,,,,,,,,,,,,,,,,,,,,,,,,,,,,,,,,,,,,,,,,,,,"SOD73924 HR PRECIPITATION (IN):    T SNOW DEPTH (IN):0     24 HR SNOWFALL (IN):0.0  24 HR MAX TEMP (F): 6224 HR MIN TEMP (F): 46AVERAGE STATION PRESSURE:29.920 MINIMUM SEA LEVEL PRESSURE:29.92 TIME OF OCCURRENCE:0253 PEAK WIND SPEED (MPH): 25 PEAK WIND DIR (DEG):290 PEAK WIND TIME (LST):      FASTEST 2MIN SPEED (MPH): 18FASTEST 2MIN DIR (DEG):290 FASTEST 2MIN TIME (LST):     AVERAGE WIND SPEED (MPH): 9.1 24 HR AVG TEMP (F): 54DEPART FROM NORMAL:  5  HEATING DEGREE DAYS: 11 COOLING DEGREE DAYS:  0 LATEST DAY MAX TEMP (0700-1900 LST):61  LATEST NIGHT MIN TEMP(1900-0800 LST):47 HOURLY INCREMENTAL PRECIPITATION VALUES (IN):    0.00 0.00 0.00 0.00 0.00 0.00 0.00 0.00 0.00 0.00 0.00 0.00 0.00 0.00 0.00 0.00 0.00 0.00 0.00 0.00 0.00 0.00 0.00","SOD  ","6",,,,,,,,,,,,,,,,,,,,,,,,,"0720","1746",,"2009-06-10"
"72208013880","2020-01-26T00:56:00","FM-15","7",,"SE","0.25","mi","TEMP, PRECIP, SNOW",,,"MMTS, SRG, SNOWBOARD",,,"WFO CHS",,,,,,,,,,,,,,,,,,,,,,,,,,,"30.06","36","45","0.00",,"-0.01","0","71","30.05","CLR:00","30.01","10.00","41","270",,"6",,,,,,,,,,,,,,,,,,,,,,,,,,,,,,,,,,,,,"MET11401/26/20 00:56:02 METAR KCHS 260556Z 27005KT 10SM CLR 07/02 A3006 RMK AO2 SLP177 T00720022 10111 20072 50002 (ARB)","FM-15","7",,,,,,,,,,,,,,,,,,,,,,,,,,,,"2009-06-10"
"72208013880","2020-01-26T01:00:00","FM-12","4",,"SE","0.25","mi","TEMP, PRECIP, SNOW",,,"MMTS, SRG, SNOWBOARD",,,"WFO CHS",,,,,,,,,,,,,,,,,,,,,,,,,,,"30.06","36","45",,,"0.01","9","71","30.05",,"30.01","9.94","41","270",,"6",,,,,,,,,,,,,,,,,,,,,,,,,,,,,,,,,,,,,"SYN08072208 32966 02705 10072 20022 30163 40177 50002 90556 333 10156 20072 555 92606=","FM-12","4",,,,,,,,,,,,,,,,,,,,,,,,,,,,"2009-06-10"
"72208013880","2020-01-26T01:56:00","FM-15","7",,"SE","0.25","mi","TEMP, PRECIP, SNOW",,,"MMTS, SRG, SNOWBOARD",,,"WFO CHS",,,,,,,,,,,,,,,,,,,,,,,,,,,"30.05","36","44","0.00",,,,"73","30.05","CLR:00","30.00","10.00","41","290",,"7",,,,,,,,,,,,,,,,,,,,,,,,,,,,,,,,,,,,,"MET09601/26/20 01:56:02 METAR KCHS 260656Z 29006KT 10SM CLR 07/02 A3005 RMK AO2 SLP175 T00670022 (ARB)","FM-15","7",,,,,,,,,,,,,,,,,,,,,,,,,,,,"2009-06-10"
"72208013880","2020-01-26T02:56:00","FM-15","7",,"SE","0.25","mi","TEMP, PRECIP, SNOW",,,"MMTS, SRG, SNOWBOARD",,,"WFO CHS",,,,,,,,,,,,,,,,,,,,,,,,,,,"30.05","36","43","0.00",,,,"76","30.05","CLR:00","30.00","10.00","40","280",,"7",,,,,,,,,,,,,,,,,,,,,,,,,,,,,,,,,,,,,"MET09601/26/20 02:56:02 METAR KCHS 260756Z 28006KT 10SM CLR 06/02 A3005 RMK AO2 SLP175 T00610022 (ARB)","FM-15","7",,,,,,,,,,,,,,,,,,,,,,,,,,,,"2009-06-10"
"72208013880","2020-01-26T03:56:00","FM-15","7",,"SE","0.25","mi","TEMP, PRECIP, SNOW",,,"MMTS, SRG, SNOWBOARD",,,"WFO CHS",,,,,,,,,,,,,,,,,,,,,,,,,,,"30.05","35","42","0.00",,"+0.01","6","76","30.04","CLR:00","30.00","10.00","39","280",,"7",,,,,,,,,,,,,,,,,,,,,,,,,,,,,,,,,,,,,"MET10201/26/20 03:56:02 METAR KCHS 260856Z 28006KT 10SM CLR 06/02 A3005 RMK AO2 SLP174 T00560017 56003 (ARB)","FM-15","7",,,,,,,,,,,,,,,,,,,,,,,,,,,,"2009-06-10"
"72208013880","2020-01-26T04:00:00","FM-12","4",,"SE","0.25","mi","TEMP, PRECIP, SNOW",,,"MMTS, SRG, SNOWBOARD",,,"WFO CHS",,,,,,,,,,,,,,,,,,,,,,,,,,,"30.05","35","42",,,"+0.01","6","76","30.04",,"30.00","9.94","39","280",,"7",,,,,,,,,,,,,,,,,,,,,,,,,,,,,,,,,,,,,"SYN06472208 32966 02806 10056 20017 30160 40174 56003 90856 555 92609=","FM-12","4",,,,,,,,,,,,,,,,,,,,,,,,,,,,"2009-06-10"
"72208013880","2020-01-26T04:56:00","FM-15","7",,"SE","0.25","mi","TEMP, PRECIP, SNOW",,,"MMTS, SRG, SNOWBOARD",,,"WFO CHS",,,,,,,,,,,,,,,,,,,,,,,,,,,"30.03","35","42","0.00",,,,"76","30.03","CLR:00","29.98","10.00","39","270",,"5",,,,,,,,,,,,,,,,,,,,,,,,,,,,,,,,,,,,,"MET09601/26/20 04:56:02 METAR KCHS 260956Z 27004KT 10SM CLR 06/02 A3003 RMK AO2 SLP168 T00560017 (ARB)","FM-15","7",,,,,,,,,,,,,,,,,,,,,,,,,,,,"2009-06-10"
"72208013880","2020-01-26T05:56:00","FM-15","7",,"SE","0.25","mi","TEMP, PRECIP, SNOW",,,"MMTS, SRG, SNOWBOARD",,,"WFO CHS",,,,,,,,,,,,,,,,,,,,,,,,,,,"30.05","35","41","0.00",,,,"79","30.04","CLR:00","30.00","10.00","38","270",,"6",,,,,,,,,,,,,,,,,,,,,,,,,,,,,,,,,,,,,"MET09601/26/20 05:56:02 METAR KCHS 261056Z 27005KT 10SM CLR 05/02 A3005 RMK AO2 SLP174 T00500017 (ARB)","FM-15","7",,,,,,,,,,,,,,,,,,,,,,,,,,,,"2009-06-10"
"72208013880","2020-01-26T06:56:00","FM-15","7",,"SE","0.25","mi","TEMP, PRECIP, SNOW",,,"MMTS, SRG, SNOWBOARD",,,"WFO CHS",,,,,,,,,,,,,,,,,,,,,,,,,,,"30.05","35","39","0.00",,"-0.00","3","86","30.05","CLR:00","30.00","10.00","37","260",,"7",,,,,,,,,,,,,,,,,,,,,,,,,,,,,,,,,,,,,"MET11401/26/20 06:56:02 METAR KCHS 261156Z 26006KT 10SM CLR 04/02 A3005 RMK AO2 SLP176 T00390017 10072 20033 53001 (WHT)","FM-15","7",,,,,,,,,,,,,,,,,,,,,,,,,,,,"2009-06-10"
"72208013880","2020-01-26T07:00:00","FM-12","4",,"SE","0.25","mi","TEMP, PRECIP, SNOW",,,"MMTS, SRG, SNOWBOARD",,,"WFO CHS",,,,,,,,,,,,,,,,,,,,,,,,,,,"30.05","35","39",,,"-0.00","3","86","30.05",,"30.00","9.94","37","260",,"7",,,,,,,,,,,,,,,,,,,,,,,,,,,,,,,,,,,,,"SYN08072208 32966 02606 10039 20017 30160 40176 53001 91156 333 10167 20033 555 92612=","FM-12","4",,,,,,,,,,,,,,,,,,,,,,,,,,,,"2009-06-10"
"72208013880","2020-01-26T07:56:00","FM-15","7",,"SE","0.25","mi","TEMP, PRECIP, SNOW",,,"MMTS, SRG, SNOWBOARD",,,"WFO CHS",,,,,,,,,,,,,,,,,,,,,,,,,,,"30.05","36","39","0.00",,,,"89","30.04","CLR:00","30.00","10.00","38","VRB",,"3",,,,,,,,,,,,,,,,,,,,,,,,,,,,,,,,,,,,,"MET09601/26/20 07:56:02 METAR KCHS 261256Z VRB03KT 10SM CLR 04/02 A3005 RMK AO2 SLP174 T00390022 (WHT)","FM-15","7",,,,,,,,,,,,,,,,,,,,,,,,,,,,"2009-06-10"
"72208013880","2020-01-26T08:56:00","FM-15","7",,"SE","0.25","mi","TEMP, PRECIP, SNOW",,,"MMTS, SRG, SNOWBOARD",,,"WFO CHS",,,,,,,,,,,,,,,,,,,,,,,,,,,"30.06","36","43","0.00",,,,"76","30.06","CLR:00","30.01","10.00","40","290",,"9",,,,,,,,,,,,,,,,,,,,,,,,,,,,,,,,,,,,,"MET09601/26/20 08:56:02 METAR KCHS 261356Z 29008KT 10SM CLR 06/02 A3006 RMK AO2 SLP178 T00610022 (WHT)","FM-15","7",,,,,,,,,,,,,,,,,,,,,,,,,,,,"2009-06-10"
"72208013880","2020-01-26T09:56:00","FM-15","7",,"SE","0.25","mi","TEMP, PRECIP, SNOW",,,"MMTS, SRG, SNOWBOARD",,,"WFO CHS",,,,,,,,,,,,,,,,,,,,,,,,,,,"30.09","35","46","0.00",,"-0.04","3","66","30.08","CLR:00","30.04","10.00","41","300","18","10",,,,,,,,,,,,,,,,,,,,,,,,,,,,,,,,,,,,,"MET10501/26/20 09:56:02 METAR KCHS 261456Z 30009G16KT 10SM CLR 08/02 A3009 RMK AO2 SLP187 T00780017 53012 (WHT)","FM-15","7",,,,,,,,,,,,,,,,,,,,,,,,,,,,"2009-06-10"
"72208013880","2020-01-26T10:00:00","FM-12","4",,"SE","0.25","mi","TEMP, PRECIP, SNOW",,,"MMTS, SRG, SNOWBOARD",,,"WFO CHS",,,,,,,,,,,,,,,,,,,,,,,,,,,"30.09","35","46",,,"-0.04","3","66","30.08",,"30.04","9.94","41","300",,"10",,,,,,,,,,,,,,,,,,,,,,,,,,,,,,,,,,,,,"SYN07472208 32966 03009 10078 20017 30173 40187 53012 91456 333 91016 555 92615=","FM-12","4",,,,,,,,,,,,,,,,,,,,,,,,,,,,"2009-06-10"
"72208013880","2020-01-26T10:56:00","FM-15","7",,"SE","0.25","mi","TEMP, PRECIP, SNOW",,,"MMTS, SRG, SNOWBOARD",,,"WFO CHS",,,,,,,,,,,,,,,,,,,,,,,,,,,"30.07","35","51","0.00",,,,"54","30.07","CLR:00","30.02","10.00","44","VRB",,"5",,,,,,,,,,,,,,,,,,,,,,,,,,,,,,,,,,,,,"MET09601/26/20 10:56:02 METAR KCHS 261556Z VRB04KT 10SM CLR 11/02 A3007 RMK AO2 SLP182 T01060017 (WHT)","FM-15","7",,,,,,,,,,,,,,,,,,,,,,,,,,,,"2009-06-10"
"72208013880","2020-01-26T11:56:00","FM-15","7",,"SE","0.25","mi","TEMP, PRECIP, SNOW",,,"MMTS, SRG, SNOWBOARD",,,"WFO CHS",,,,,,,,,,,,,,,,,,,,,,,,,,,"30.05","34","53","0.00",,,,"48","30.05","CLR:00","30.00","10.00","44","290",,"10",,,,,,,,,,,,,,,,,,,,,,,,,,,,,,,,,,,,,"MET09601/26/20 11:56:02 METAR KCHS 261656Z 29009KT 10SM CLR 12/01 A3005 RMK AO2 SLP175 T01170011 (WHT)","FM-15","7",,,,,,,,,,,,,,,,,,,,,,,,,,,,"2009-06-10"
"72208013880","2020-01-26T12:56:00","FM-15","7",,"SE","0.25","mi","TEMP, PRECIP, SNOW",,,"MMTS, SRG, SNOWBOARD",,,"WFO CHS",,,,,,,,,,,,,,,,,,,,,,,,,,,"30.02","34","56","0.00",,"+0.07","8","44","30.01","CLR:00","29.97","10.00","46","310",,"8",,,,,,,,,,,,,,,,,,,,,,,,,,,,,,,,,,,,,"MET11401/26/20 12:56:02 METAR KCHS 261756Z 31007KT 10SM CLR 13/01 A3002 RMK AO2 SLP163 T01330011 10133 20033 58024 (WHT)","FM-15","7",,,,,,,,,,,,,,,,,,,,,,,,,,,,"2009-06-10"
"72208013880","2020-01-26T13:00:00","FM-12","4",,"SE","0.25","mi","TEMP, PRECIP, SNOW",,,"MMTS, SRG, SNOWBOARD",,,"WFO CHS",,,,,,,,,,,,,,,,,,,,,,,,,,,"30.02","34","56",,,"+0.07","8","44","30.01",,"29.97","9.94","46","310",,"8",,,,,,,,,,,,,,,,,,,,,,,,,,,,,,,,,,,,,"SYN08072208 32966 03107 10133 20011 30150 40163 58024 91756 333 10133 20033 555 92618=","FM-12","4",,,,,,,,,,,,,,,,,,,,,,,,,,,,"2009-06-10"
"72208013880","2020-01-26T13:56:00","FM-15","7",,"SE","0.25","mi","TEMP, PRECIP, SNOW",,,"MMTS, SRG, SNOWBOARD",,,"WFO CHS",,,,,,,,,,,,,,,,,,,,,,,,,,,"30.00","32","58","0.00",,,,"38","29.99","CLR:00","29.95","10.00","46","280",,"9",,,,,,,,,,,,,,,,,,,,,,,,,,,,,,,,,,,,,"MET09601/26/20 13:56:02 METAR KCHS 261856Z 28008KT 10SM CLR 14/00 A3000 RMK AO2 SLP157 T01440000 (WHT)","FM-15","7",,,,,,,,,,,,,,,,,,,,,,,,,,,,"2009-06-10"
"72208013880","2020-01-26T14:56:00","FM-15","7",,"SE","0.25","mi","TEMP, PRECIP, SNOW",,,"MMTS, SRG, SNOWBOARD",,,"WFO CHS",,,,,,,,,,,,,,,,,,,,,,,,,,,"29.98","32","60","0.00",,,,"35","29.98","SCT:04 250","29.93","10.00","47","290",,"13",,,,,,,,,,,,,,,,,,,,,,,,,,,,,,,,,,,,,"MET09901/26/20 14:56:02 METAR KCHS 261956Z 29011KT 10SM SCT250 16/00 A2998 RMK AO2 SLP152 T01560000 (WHT)","FM-15","7",,,,,,,,,,,,,,,,,,,,,,,,,,,,"2009-06-10"
"72208013880","2020-01-26T15:56:00","FM-15","7",,"SE","0.25","mi","TEMP, PRECIP, SNOW",,,"MMTS, SRG, SNOWBOARD",,,"WFO CHS",,,,,,,,,,,,,,,,,,,,,,,,,,,"29.98","31","59","0.00",,"+0.04","6","35","29.98","BKN:07 250","29.93","10.00","46","310",,"6",,,,,,,,,,,,,,,,,,,,,,,,,,,,,,,,,,,,,"MET10601/26/20 15:56:02 METAR KCHS 262056Z 31005KT 10SM BKN250 15/M01 A2998 RMK AO2 SLP151 T01501006 56012 (JRS)","FM-15","7",,,,,,,,,,,,,,,,,,,,,,,,,,,,"2009-06-10"
"72208013880","2020-01-26T16:00:00","FM-12","4",,"SE","0.25","mi","TEMP, PRECIP, SNOW",,,"MMTS, SRG, SNOWBOARD",,,"WFO CHS",,,,,,,,,,,,,,,,,,,,,,,,,,,"29.98","31","59",,,"+0.04","6","35","29.98",,"29.93","9.94","46","310",,"6",,,,,,,,,,,,,,,,,,,,,,,,,,,,,,,,,,,,,"SYN06472208 32966 63105 10150 21006 30136 40151 56012 92056 555 92621=","FM-12","4",,,,,,,,,,,,,,,,,,,,,,,,,,,,"2009-06-10"
"72208013880","2020-01-26T16:56:00","FM-15","7",,"SE","0.25","mi","TEMP, PRECIP, SNOW",,,"MMTS, SRG, SNOWBOARD",,,"WFO CHS",,,,,,,,,,,,,,,,,,,,,,,,,,,"30.00","32","56","0.00",,,,"40","30.00","BKN:07 250","29.95","10.00","45","260",,"8",,,,,,,,,,,,,,,,,,,,,,,,,,,,,,,,,,,,,"MET09901/26/20 16:56:02 METAR KCHS 262156Z 26007KT 10SM BKN250 13/00 A3000 RMK AO2 SLP158 T01330000 (JRS)","FM-15","7",,,,,,,,,,,,,,,,,,,,,,,,,,,,"2009-06-10"
"72208013880","2020-01-26T17:56:00","FM-15","7",,"SE","0.25","mi","TEMP, PRECIP, SNOW",,,"MMTS, SRG, SNOWBOARD",,,"WFO CHS",,,,,,,,,,,,,,,,,,,,,,,,,,,"30.01","33","54","0.00",,,,"45","30.01","FEW:02 150 BKN:07 250","29.96","10.00","45","260",,"7",,,,,,,,,,,,,,,,,,,,,,,,,,,,,,,,,,,,,"MET10601/26/20 17:56:02 METAR KCHS 262256Z 26006KT 10SM FEW150 BKN250 12/01 A3001 RMK AO2 SLP161 T01220006 (JRS)","FM-15","7",,,,,,,,,,,,,,,,,,,,,,,,,,,,"2009-06-10"
"72208013880","2020-01-26T18:56:00","FM-15","7",,"SE","0.25","mi","TEMP, PRECIP, SNOW",,,"MMTS, SRG, SNOWBOARD",,,"WFO CHS",,,,,,,,,,,,,,,,,,,,,,,,,,,"30.01","34","52","0.00",,"-0.04","1","50","30.01","SCT:04 140 BKN:07 220","29.96","10.00","44","260",,"3",,,,,,,,,,,,,,,,,,,,,,,,,,,,,,,,,,,,,"MET12401/26/20 18:56:02 METAR KCHS 262356Z 26003KT 10SM SCT140 BKN220 11/01 A3001 RMK AO2 SLP163 T01110011 10156 20111 51012 (JRS)","FM-15","7",,,,,,,,,,,,,,,,,,,,,,,,,,,,"2009-06-10"
"72208013880","2020-01-26T19:00:00","FM-12","4",,"SE","0.25","mi","TEMP, PRECIP, SNOW",,,"MMTS, SRG, SNOWBOARD",,,"WFO CHS",,,,,,,,,,,,,,,,,,,,,,,,,,,"30.01","34","52",,,"-0.04","1","50","30.01",,"29.96","9.94","44","260",,"3",,,,,,,,,,,,,,,,,,,,,,,,,,,,,,,,,,,,,"SYN08072208 32966 62603 10111 20011 30146 40163 51012 92356 333 10156 20033 555 92700=","FM-12","4",,,,,,,,,,,,,,,,,,,,,,,,,,,,"2009-06-10"
"72208013880","2020-01-26T19:56:00","FM-15","7",,"SE","0.25","mi","TEMP, PRECIP, SNOW",,,"MMTS, SRG, SNOWBOARD",,,"WFO CHS",,,,,,,,,,,,,,,,,,,,,,,,,,,"30.01","35","52","0.00",,,,"53","30.01","OVC:08 110","29.96","10.00","44","280",,"3",,,,,,,,,,,,,,,,,,,,,,,,,,,,,,,,,,,,,"MET09301/26/20 19:56:01 METAR KCHS 270056Z 28003KT 10SM OVC110 11/02 A3001 RMK AO2 SLP161 T01110017","FM-15","7",,,,,,,,,,,,,,,,,,,,,,,,,,,,"2009-06-10"
"72208013880","2020-01-26T20:56:00","FM-15","7",,"SE","0.25","mi","TEMP, PRECIP, SNOW",,,"MMTS, SRG, SNOWBOARD",,,"WFO CHS",,,,,,,,,,,,,,,,,,,,,,,,,,,"30.01","39","49","0.00",,,,"69","30.00","OVC:08 110","29.96","10.00","44","190",,"3",,,,,,,,,,,,,,,,,,,,,,,,,,,,,,,,,,,,,"MET09301/26/20 20:56:01 METAR KCHS 270156Z 19003KT 10SM OVC110 09/04 A3001 RMK AO2 SLP160 T00940039","FM-15","7",,,,,,,,,,,,,,,,,,,,,,,,,,,,"2009-06-10"
"72208013880","2020-01-26T21:56:00","FM-15","7",,"SE","0.25","mi","TEMP, PRECIP, SNOW",,,"MMTS, SRG, SNOWBOARD",,,"WFO CHS",,,,,,,,,,,,,,,,,,,,,,,,,,,"30.01","37","50","0.00",,"+0.01","6","61","30.00","OVC:08 100","29.96","10.00","44","000",,"0",,,,,,,,,,,,,,,,,,,,,,,,,,,,,,,,,,,,,"MET09901/26/20 21:56:01 METAR KCHS 270256Z 00000KT 10SM OVC100 10/03 A3001 RMK AO2 SLP160 T01000028 56002","FM-15","7",,,,,,,,,,,,,,,,,,,,,,,,,,,,"2009-06-10"
"72208013880","2020-01-26T22:00:00","FM-12","4",,"SE","0.25","mi","TEMP, PRECIP, SNOW",,,"MMTS, SRG, SNOWBOARD",,,"WFO CHS",,,,,,,,,,,,,,,,,,,,,,,,,,,"30.01","37","50",,,"+0.01","6","61","30.00",,"29.96","9.94","44","000",,"0",,,,,,,,,,,,,,,,,,,,,,,,,,,,,,,,,,,,,"SYN06472208 32966 80000 10100 20028 30146 40160 56002 90256 555 92703=","FM-12","4",,,,,,,,,,,,,,,,,,,,,,,,,,,,"2009-06-10"
"72208013880","2020-01-26T22:56:00","FM-15","7",,"SE","0.25","mi","TEMP, PRECIP, SNOW",,,"MMTS, SRG, SNOWBOARD",,,"WFO CHS",,,,,,,,,,,,,,,,,,,,,,,,,,,"30.00","40","49","0.00",,,,"71","29.99","OVC:08 90","29.95","10.00","45","000",,"0",,,,,,,,,,,,,,,,,,,,,,,,,,,,,,,,,,,,,"MET09301/26/20 22:56:01 METAR KCHS 270356Z 00000KT 10SM OVC090 09/04 A3000 RMK AO2 SLP157 T00940044","FM-15","7",,,,,,,,,,,,,,,,,,,,,,,,,,,,"2009-06-10"
"72208013880","2020-01-26T23:56:00","FM-15","7",,"SE","0.25","mi","TEMP, PRECIP, SNOW",,,"MMTS, SRG, SNOWBOARD",,,"WFO CHS",,,,,,,,,,,,,,,,,,,,,,,,,,,"30.00","37","51","0.00",,,,"59","29.99","OVC:08 85","29.95","10.00","45","000",,"0",,,,,,,,,,,,,,,,,,,,,,,,,,,,,,,,,,,,,"MET10301/26/20 23:56:02 METAR KCHS 270456Z 00000KT 10SM OVC085 11/03 A3000 RMK AO2 SLP157 T01060028 401560033","FM-15","7",,,,,,,,,,,,,,,,,,,,,,,,,,,,"2009-06-10"
"72208013880","2020-01-26T23:59:00","SOD  ","6",,"SE","0.25","mi","TEMP, PRECIP, SNOW",,,"MMTS, SRG, SNOWBOARD",,,"WFO CHS",,,,"35","49","61","30.02","29.98","43","5.8","0","0.3","16","60","38","310","19","0.00","0","0.0","310","14",,,,,,,,,,,,,,,,,,,,,,,,,,,,,,,,,,,,,,,,,,,,,,,,,,,,,,,,,"SOD73924 HR PRECIPITATION (IN): 0.00 SNOW DEPTH (IN):0     24 HR SNOWFALL (IN):0.0  24 HR MAX TEMP (F): 6024 HR MIN TEMP (F): 38AVERAGE STATION PRESSURE:29.980 MINIMUM SEA LEVEL PRESSURE:29.97 TIME OF OCCURRENCE:1553 PEAK WIND SPEED (MPH): 19 PEAK WIND DIR (DEG):310 PEAK WIND TIME (LST):      FASTEST 2MIN SPEED (MPH): 14FASTEST 2MIN DIR (DEG):310 FASTEST 2MIN TIME (LST):     AVERAGE WIND SPEED (MPH): 5.8 24 HR AVG TEMP (F): 49DEPART FROM NORMAL:  0  HEATING DEGREE DAYS: 16 COOLING DEGREE DAYS:  0 LATEST DAY MAX TEMP (0700-1900 LST):60  LATEST NIGHT MIN TEMP(1900-0800 LST):38 HOURLY INCREMENTAL PRECIPITATION VALUES (IN):.00 0.00 0.00 0.00 0.00 0.00 0.00 0.00 0.00 0.00 0.00 0.00 0.00 0.00 0.00 0.00 0.00 0.00 0.00 0.00 0.00 0.00 0.00 0.00","SOD  ","6",,,,,,,,,,,,,,,,,,,,,,,,,"0719","1747",,"2009-06-10"
"72208013880","2020-01-27T00:56:00","FM-15","7",,"SE","0.25","mi","TEMP, PRECIP, SNOW",,,"MMTS, SRG, SNOWBOARD",,,"WFO CHS",,,,,,,,,,,,,,,,,,,,,,,,,,,"29.98","40","50","T","-RA:02 |RA |RA","+0.03","8","68","29.98","FEW:02 65 OVC:08 80","29.93","10.00","45","270",,"5",,,,,,,,,,,,,,,,,,,,,,,,,,,,,,,,,,,,,"MET14601/27/20 00:56:02 METAR KCHS 270556Z 27004KT 10SM -RA FEW065 OVC080 10/04 A2998 RMK AO2 RAB16 SLP151 P0000 60000 T01000044 10111 20094 58009 (KLJ)","FM-15","7",,,,,,,,,,,,,,,,,,,,,,,,,,,,"2009-06-10"
"72208013880","2020-01-27T01:00:00","FM-12","4",,"SE","0.25","mi","TEMP, PRECIP, SNOW",,,"MMTS, SRG, SNOWBOARD",,,"WFO CHS",,,,,,,,,,,,,,,,,,,,,,,,,,,"29.98","40","50",,"||RA","+0.03","8","68","29.98","57","29.93","9.94","45","270",,"5",,,,,,,,,,,,,,,,,,,,,,,,,,,,,,,,,,,,,"SYN09272208 11766 82704 10100 20044 30136 40151 58009 69901 761// 90556 333 10111 20033 555 92706=","FM-12","4",,,,,,,,,,,,,,,,,,,,,,,,,,,,"2009-06-10"
"72208013880","2020-01-27T01:56:00","FM-15","7",,"SE","0.25","mi","TEMP, PRECIP, SNOW",,,"MMTS, SRG, SNOWBOARD",,,"WFO CHS",,,,,,,,,,,,,,,,,,,,,,,,,,,"29.97","41","49","T",,,,"74","29.97","OVC:08 70","29.92","10.00","45","220",,"6",,,,,,,,,,,,,,,,,,,,,,,,,,,,,,,,,,,,,"MET11701/27/20 01:56:02 METAR KCHS 270656Z 22005KT 10SM OVC070 09/05 A2997 RMK AO2 RAE15B31E45 SLP149 P0000 T00940050 (KLJ)","FM-15","7",,,,,,,,,,,,,,,,,,,,,,,,,,,,"2009-06-10"
"72208013880","2020-01-27T02:56:00","FM-15","7",,"SE","0.25","mi","TEMP, PRECIP, SNOW",,,"MMTS, SRG, SNOWBOARD",,,"WFO CHS",,,,,,,,,,,,,,,,,,,,,,,,,,,"29.97","41","49","T","-RA:02 |RA |RA",,,"74","29.96","BKN:07 60 OVC:08 75","29.92","10.00","45","260",,"5",,,,,,,,,,,,,,,,,,,,,,,,,,,,,,,,,,,,,"MET12201/27/20 02:56:02 METAR KCHS 270756Z 26004KT 10SM -RA BKN060 OVC075 09/05 A2997 RMK AO2 RAB30 SLP146 P0000 T00940050 (KLJ)","FM-15","7",,,,,,,,,,,,,,,,,,,,,,,,,,,,"2009-06-10"
"72208013880","2020-01-27T03:56:00","FM-15","7",,"SE","0.25","mi","TEMP, PRECIP, SNOW",,,"MMTS, SRG, SNOWBOARD",,,"WFO CHS",,,,,,,,,,,,,,,,,,,,,,,,,,,"29.96","42","48","0.02s","RA:02 |RA |RA","+0.02","6","80","29.96","OVC:08 55","29.91","8.00","45","260",,"6",,,,,,,,,,,,,,,,,,,,,,,,,,,,,,,,,,,,,"MET11901/27/20 03:56:02 METAR KCHS 270856Z 26005KT 8SM RA OVC055 09/06 A2996 RMK AO2 SLP145 P0001 60001 T00890056 56006 (KLJ)","FM-15","7",,,,,,,,,,,,,,,,,,,,,,,,,,,,"2009-06-10"
"72208013880","2020-01-27T04:00:00","FM-12","4",,"SE","0.25","mi","TEMP, PRECIP, SNOW",,,"MMTS, SRG, SNOWBOARD",,,"WFO CHS",,,,,,,,,,,,,,,,,,,,,,,,,,,"29.96","42","48",,"||RA","+0.02","6","80","29.96","57","29.91","7.46","45","260",,"6",,,,,,,,,,,,,,,,,,,,,,,,,,,,,,,,,,,,,"SYN07672208 11762 82605 10089 20056 30129 40145 56006 69937 763// 90856 555 92709=","FM-12","4",,,,,,,,,,,,,,,,,,,,,,,,,,,,"2009-06-10"
"72208013880","2020-01-27T04:56:00","FM-15","7",,"SE","0.25","mi","TEMP, PRECIP, SNOW",,,"MMTS, SRG, SNOWBOARD",,,"WFO CHS",,,,,,,,,,,,,,,,,,,,,,,,,,,"29.96","46","47","0.02","RA:02 |RA |RA",,,"97","29.96","OVC:08 55","29.91","8.00","47","280",,"9",,,,,,,,,,,,,,,,,,,,,,,,,,,,,,,,,,,,,"MET10701/27/20 04:56:02 METAR KCHS 270956Z 28008KT 8SM RA OVC055 08/08 A2996 RMK AO2 SLP146 P0003 T00830078 (KLJ)","FM-15","7",,,,,,,,,,,,,,,,,,,,,,,,,,,,"2009-06-10"
"72208013880","2020-01-27T05:56:00","FM-15","7",,"SE","0.25","mi","TEMP, PRECIP, SNOW",,,"MMTS, SRG, SNOWBOARD",,,"WFO CHS",,,,,,,,,,,,,,,,,,,,,,,,,,,"29.96","46","47","0.02","-RA:02 |RA |RA",,,"97","29.96","BKN:07 55 BKN:07 70","29.91","8.00","47","260",,"5",,,,,,,,,,,,,,,,,,,,,,,,,,,,,,,,,,,,,"MET11701/27/20 05:56:02 METAR KCHS 271056Z 26004KT 8SM -RA BKN055 BKN070 08/08 A2996 RMK AO2 SLP145 P0002 T00830078 $ (KLJ)","FM-15","7",,,,,,,,,,,,,,,,,,,,,,,,,,,,"2009-06-10"
"72208013880","2020-01-27T06:56:00","FM-15","7",,"SE","0.25","mi","TEMP, PRECIP, SNOW",,,"MMTS, SRG, SNOWBOARD",,,"WFO CHS",,,,,,,,,,,,,,,,,,,,,,,,,,,"29.98","45","46","0.02","-RA:02 BR:1 |RA |RA","-0.02","3","96","29.98","OVC:08 55","29.93","6.00","46","260",,"6",,,,,,,,,,,,,,,,,,,,,,,,,,,,,,,,,,,,,"MET14301/27/20 06:56:02 METAR KCHS 271156Z 26005KT 6SM -RA BR OVC055 08/07 A2998 RMK AO2 SLP152 P0002 60008 70008 T00780072 10100 20078 53007 $ (KLJ)","FM-15","7",,,,,,,,,,,,,,,,,,,,,,,,,,,,"2009-06-10"
"72208013880","2020-01-27T07:00:00","FM-12","4",,"SE","0.25","mi","TEMP, PRECIP, SNOW",,,"MMTS, SRG, SNOWBOARD",,,"WFO CHS",,,,,,,,,,,,,,,,,,,,,,,,,,,"29.98","45","46",,"||RA","-0.02","3","96","29.98","57","29.93","5.59","46","260",,"6",,,,,,,,,,,,,,,,,,,,,,,,,,,,,,,,,,,,,"SYN10472208 11759 82605 10078 20072 30136 40152 53007 60021 761// 91156 333 10156 20078 70020 96010 555 92712=","FM-12","4",,,,,,,,,,,,,,,,,,,,,,,,,,,,"2009-06-10"
"72208013880","2020-01-27T07:56:00","FM-15","7",,"SE","0.25","mi","TEMP, PRECIP, SNOW",,,"MMTS, SRG, SNOWBOARD",,,"WFO CHS",,,,,,,,,,,,,,,,,,,,,,,,,,,"29.99","45","46","T","-RA:02 |RA |RA",,,"96","29.99","BKN:07 50 BKN:07 60","29.94","10.00","46","260",,"7",,,,,,,,,,,,,,,,,,,,,,,,,,,,,,,,,,,,,"MET12701/27/20 07:56:02 METAR KCHS 271256Z 26006KT 10SM -RA BKN050 BKN060 08/07 A2999 RMK AO2 RAE19B35 SLP156 P0000 T00780072 $ (JMB)","FM-15","7",,,,,,,,,,,,,,,,,,,,,,,,,,,,"2009-06-10"
"72208013880","2020-01-27T08:56:00","FM-15","7",,"SE","0.25","mi","TEMP, PRECIP, SNOW",,,"MMTS, SRG, SNOWBOARD",,,"WFO CHS",,,,,,,,,,,,,,,,,,,,,,,,,,,"29.99","45","47","T",,,,"93","29.98","BKN:07 40","29.94","10.00","46","230",,"5",,,,,,,,,,,,,,,,,,,,,,,,,,,,,,,,,,,,,"MET11301/27/20 08:56:02 METAR KCHS 271356Z 23004KT 10SM BKN040 08/07 A2999 RMK AO2 RAE01 SLP153 P0000 T00830072 $ (JMB)","FM-15","7",,,,,,,,,,,,,,,,,,,,,,,,,,,,"2009-06-10"
"72208013880","2020-01-27T09:56:00","FM-15","7",,"SE","0.25","mi","TEMP, PRECIP, SNOW",,,"MMTS, SRG, SNOWBOARD",,,"WFO CHS",,,,,,,,,,,,,,,,,,,,,,,,,,,"29.98","46","49","0.00",,"+0.00","8","90","29.98","BKN:07 40","29.93","10.00","48","250",,"6",,,,,,,,,,,,,,,,,,,,,,,,,,,,,,,,,,,,,"MET11301/27/20 09:56:02 METAR KCHS 271456Z 25005KT 10SM BKN040 09/08 A2998 RMK AO2 SLP151 60000 T00940078 58001 $ (JMB)","FM-15","7",,,,,,,,,,,,,,,,,,,,,,,,,,,,"2009-06-10"
"72208013880","2020-01-27T10:00:00","FM-12","4",,"SE","0.25","mi","TEMP, PRECIP, SNOW",,,"MMTS, SRG, SNOWBOARD",,,"WFO CHS",,,,,,,,,,,,,,,,,,,,,,,,,,,"29.98","46","49",,,"+0.00","8","90","29.98","41","29.93","9.94","48","250",,"6",,,,,,,,,,,,,,,,,,,,,,,,,,,,,,,,,,,,,"SYN07072208 12666 62505 10094 20078 30136 40151 58001 69907 91456 555 92715=","FM-12","4",,,,,,,,,,,,,,,,,,,,,,,,,,,,"2009-06-10"
"72208013880","2020-01-27T10:56:00","FM-15","7",,"SE","0.25","mi","TEMP, PRECIP, SNOW",,,"MMTS, SRG, SNOWBOARD",,,"WFO CHS",,,,,,,,,,,,,,,,,,,,,,,,,,,"29.98","48","53","0.00",,,,"83","29.98","BKN:07 44","29.93","10.00","50","260",,"5",,,,,,,,,,,,,,,,,,,,,,,,,,,,,,,,,,,,,"MET10101/27/20 10:56:02 METAR KCHS 271556Z 26004KT 10SM BKN044 12/09 A2998 RMK AO2 SLP151 T01170089 $ (JMB)","FM-15","7",,,,,,,,,,,,,,,,,,,,,,,,,,,,"2009-06-10"
"72208013880","2020-01-27T11:56:00","FM-15","7",,"SE","0.25","mi","TEMP, PRECIP, SNOW",,,"MMTS, SRG, SNOWBOARD",,,"WFO CHS",,,,,,,,,,,,,,,,,,,,,,,,,,,"29.94","47","56","0.00",,,,"72","29.94","SCT:04 45 BKN:07 90","29.89","10.00","51","240",,"9",,,,,,,,,,,,,,,,,,,,,,,,,,,,,,,,,,,,,"MET10801/27/20 11:56:02 METAR KCHS 271656Z 24008KT 10SM SCT045 BKN090 13/08 A2994 RMK AO2 SLP138 T01330083 $ (JMB)","FM-15","7",,,,,,,,,,,,,,,,,,,,,,,,,,,,"2009-06-10"
"72208013880","2020-01-27T12:41:00","FM-16","6",,"SE","0.25","mi","TEMP, PRECIP, SNOW",,,"MMTS, SRG, SNOWBOARD",,,"WFO CHS",,,,,,,,,,,,,,,,,,,,,,,,,,,"29.91","47","57",,,,,"69",,"BKN:07 25","29.86","10.00","52","250",,"5",,,,,,,,,,,,,,,,,,,,,,,,,,,,,,,,,,,,,"MET09401/27/20 12:41:02 SPECI KCHS 271741Z 25004KT 10SM BKN025 14/08 A2991 RMK AO2 T01390083 $ (JMB)","FM-16","6",,,,,,,,,,,,,,,,,,,,,,,,,,,,"2009-06-10"
"72208013880","2020-01-27T12:56:00","FM-15","7",,"SE","0.25","mi","TEMP, PRECIP, SNOW",,,"MMTS, SRG, SNOWBOARD",,,"WFO CHS",,,,,,,,,,,,,,,,,,,,,,,,,,,"29.89","47","57","0.00",,"+0.09","8","69","29.89","BKN:07 25","29.84","10.00","52","280",,"7",,,,,,,,,,,,,,,,,,,,,,,,,,,,,,,,,,,,,"MET12501/27/20 12:56:02 METAR KCHS 271756Z 28006KT 10SM BKN025 14/08 A2989 RMK AO2 SLP122 60000 T01390083 10150 20078 58029 $ (JMB)","FM-15","7",,,,,,,,,,,,,,,,,,,,,,,,,,,,"2009-06-10"
"72208013880","2020-01-27T13:00:00","FM-12","4",,"SE","0.25","mi","TEMP, PRECIP, SNOW",,,"MMTS, SRG, SNOWBOARD",,,"WFO CHS",,,,,,,,,,,,,,,,,,,,,,,,,,,"29.89","47","57",,,"+0.09","8","69","29.89","26","29.84","9.94","52","280",,"7",,,,,,,,,,,,,,,,,,,,,,,,,,,,,,,,,,,,,"SYN08672208 12566 62806 10139 20083 30106 40122 58029 69901 91756 333 10150 20078 555 92718=","FM-12","4",,,,,,,,,,,,,,,,,,,,,,,,,,,,"2009-06-10"
"72208013880","2020-01-27T13:56:00","FM-15","7",,"SE","0.25","mi","TEMP, PRECIP, SNOW",,,"MMTS, SRG, SNOWBOARD",,,"WFO CHS",,,,,,,,,,,,,,,,,,,,,,,,,,,"29.87","45","56","0.00",,,,"67","29.87","BKN:07 28","29.82","10.00","50","270",,"9",,,,,,,,,,,,,,,,,,,,,,,,,,,,,,,,,,,,,"MET10101/27/20 13:56:02 METAR KCHS 271856Z 27008KT 10SM BKN028 13/07 A2987 RMK AO2 SLP115 T01330072 $ (JMB)","FM-15","7",,,,,,,,,,,,,,,,,,,,,,,,,,,,"2009-06-10"
"72208013880","2020-01-27T14:06:00","FM-16","7",,"SE","0.25","mi","TEMP, PRECIP, SNOW",,,"MMTS, SRG, SNOWBOARD",,,"WFO CHS",,,,,,,,,,,,,,,,,,,,,,,,,,,"29.87","45","56",,,,,"67",,"BKN:07 30","29.82","10.00","50","270",,"9",,,,,,,,,,,,,,,,,,,,,,,,,,,,,,,,,,,,,"MET09401/27/20 14:06:02 SPECI KCHS 271906Z 27008KT 10SM BKN030 13/07 A2987 RMK AO2 T01330072 $ (JMB)","FM-16","7",,,,,,,,,,,,,,,,,,,,,,,,,,,,"2009-06-10"
"72208013880","2020-01-27T14:54:00","FM-16","6",,"SE","0.25","mi","TEMP, PRECIP, SNOW",,,"MMTS, SRG, SNOWBOARD",,,"WFO CHS",,,,,,,,,,,,,,,,,,,,,,,,,,,"29.86","46","57",,,,,"67",,"BKN:07 25 OVC:08 35","29.81","10.00","51","250",,"13",,,,,,,,,,,,,,,,,,,,,,,,,,,,,,,,,,,,,"MET09601/27/20 14:54:02 SPECI KCHS 271954Z 25011KT 10SM BKN025 OVC035 14/08 A2986 RMK AO2 $ FIBI (JMB)","FM-16","6",,,,,,,,,,,,,,,,,,,,,,,,,,,,"2009-06-10"
"72208013880","2020-01-27T14:56:00","FM-15","7",,"SE","0.25","mi","TEMP, PRECIP, SNOW",,,"MMTS, SRG, SNOWBOARD",,,"WFO CHS",,,,,,,,,,,,,,,,,,,,,,,,,,,"29.86","46","57","0.00",,,,"67","29.85","BKN:07 25 OVC:08 35","29.81","10.00","51","240",,"9",,,,,,,,,,,,,,,,,,,,,,,,,,,,,,,,,,,,,"MET10801/27/20 14:56:02 METAR KCHS 271956Z 24008KT 10SM BKN025 OVC035 14/08 A2986 RMK AO2 SLP109 T01390078 $ (JMB)","FM-15","7",,,,,,,,,,,,,,,,,,,,,,,,,,,,"2009-06-10"
"72208013880","2020-01-27T15:56:00","FM-15","7",,"SE","0.25","mi","TEMP, PRECIP, SNOW",,,"MMTS, SRG, SNOWBOARD",,,"WFO CHS",,,,,,,,,,,,,,,,,,,,,,,,,,,"29.87","46","56","0.00",,"+0.03","5","70","29.86","BKN:07 25 OVC:08 35","29.82","10.00","51","270",,"8",,,,,,,,,,,,,,,,,,,,,,,,,,,,,,,,,,,,,"MET11201/27/20 15:56:02 METAR KCHS 272056Z 27007KT 10SM BKN025 OVC035 13/08 A2987 RMK AO2 SLP112 T01330078 55010 (BBE)","FM-15","7",,,,,,,,,,,,,,,,,,,,,,,,,,,,"2009-06-10"
"72208013880","2020-01-27T16:00:00","FM-12","4",,"SE","0.25","mi","TEMP, PRECIP, SNOW",,,"MMTS, SRG, SNOWBOARD",,,"WFO CHS",,,,,,,,,,,,,,,,,,,,,,,,,,,"29.87","46","56",,,"+0.03","5","70","29.86","26","29.82","9.94","51","270",,"8",,,,,,,,,,,,,,,,,,,,,,,,,,,,,,,,,,,,,"SYN06472208 32566 82707 10133 20078 30099 40112 55010 92056 555 92721=","FM-12","4",,,,,,,,,,,,,,,,,,,,,,,,,,,,"2009-06-10"
"72208013880","2020-01-27T16:25:00","FM-16","7",,"SE","0.25","mi","TEMP, PRECIP, SNOW",,,"MMTS, SRG, SNOWBOARD",,,"WFO CHS",,,,,,,,,,,,,,,,,,,,,,,,,,,"29.87","46","56",,,,,"70",,"BKN:07 32 OVC:08 40","29.82","10.00","51","280",,"7",,,,,,,,,,,,,,,,,,,,,,,,,,,,,,,,,,,,,"MET09901/27/20 16:25:02 SPECI KCHS 272125Z 28006KT 10SM BKN032 OVC040 13/08 A2987 RMK AO2 T01330078 (BBE)","FM-16","7",,,,,,,,,,,,,,,,,,,,,,,,,,,,"2009-06-10"
"72208013880","2020-01-27T16:56:00","FM-15","7",,"SE","0.25","mi","TEMP, PRECIP, SNOW",,,"MMTS, SRG, SNOWBOARD",,,"WFO CHS",,,,,,,,,,,,,,,,,,,,,,,,,,,"29.88","45","55","0.00",,,,"69","29.87","BKN:07 30 OVC:08 40","29.83","10.00","50","280",,"11",,,,,,,,,,,,,,,,,,,,,,,,,,,,,,,,,,,,,"MET10601/27/20 16:56:02 METAR KCHS 272156Z 28010KT 10SM BKN030 OVC040 13/07 A2988 RMK AO2 SLP116 T01280072 (BBE)","FM-15","7",,,,,,,,,,,,,,,,,,,,,,,,,,,,"2009-06-10"
"72208013880","2020-01-27T17:56:00","FM-15","7",,"SE","0.25","mi","TEMP, PRECIP, SNOW",,,"MMTS, SRG, SNOWBOARD",,,"WFO CHS",,,,,,,,,,,,,,,,,,,,,,,,,,,"29.87","45","54","0.00",,,,"72","29.87","FEW:02 50","29.82","10.00","49","260",,"8",,,,,,,,,,,,,,,,,,,,,,,,,,,,,,,,,,,,,"MET09901/27/20 17:56:02 METAR KCHS 272256Z 26007KT 10SM FEW050 12/07 A2987 RMK AO2 SLP115 T01220072 (BBE)","FM-15","7",,,,,,,,,,,,,,,,,,,,,,,,,,,,"2009-06-10"
"72208013880","2020-01-27T18:56:00","FM-15","7",,"SE","0.25","mi","TEMP, PRECIP, SNOW",,,"MMTS, SRG, SNOWBOARD",,,"WFO CHS",,,,,,,,,,,,,,,,,,,,,,,,,,,"29.89","45","51","0.00",,"-0.03","3","80","29.89","CLR:00","29.84","10.00","48","250",,"7",,,,,,,,,,,,,,,,,,,,,,,,,,,,,,,,,,,,,"MET11401/27/20 18:56:02 METAR KCHS 272356Z 25006KT 10SM CLR 11/07 A2989 RMK AO2 SLP122 T01060072 10144 20106 53009 (BBE)","FM-15","7",,,,,,,,,,,,,,,,,,,,,,,,,,,,"2009-06-10"
"72208013880","2020-01-27T19:00:00","FM-12","4",,"SE","0.25","mi","TEMP, PRECIP, SNOW",,,"MMTS, SRG, SNOWBOARD",,,"WFO CHS",,,,,,,,,,,,,,,,,,,,,,,,,,,"29.89","45","51",,,"-0.03","3","80","29.89",,"29.84","9.94","48","250",,"7",,,,,,,,,,,,,,,,,,,,,,,,,,,,,,,,,,,,,"SYN08072208 32966 02506 10106 20072 30106 40122 53009 92356 333 10150 20078 555 92800=","FM-12","4",,,,,,,,,,,,,,,,,,,,,,,,,,,,"2009-06-10"
"72208013880","2020-01-27T19:56:00","FM-15","6",,"SE","0.25","mi","TEMP, PRECIP, SNOW",,,"MMTS, SRG, SNOWBOARD",,,"WFO CHS",,,,,,,,,,,,,,,,,,,,,,,,,,,"29.90","45","50","0.00",,,,"83","29.90","CLR:00","29.85","10.00","48","260",,"8",,,,,,,,,,,,,,,,,,,,,,,,,,,,,,,,,,,,,"MET09601/27/20 19:56:03 METAR KCHS 280056Z 26007KT 10SM CLR 10/07 A2990 RMK AO2 SLP124 T01000072 (BBE)","FM-15","6",,,,,,,,,,,,,,,,,,,,,,,,,,,,"2009-06-10"
"72208013880","2020-01-27T20:56:00","FM-15","7",,"SE","0.25","mi","TEMP, PRECIP, SNOW",,,"MMTS, SRG, SNOWBOARD",,,"WFO CHS",,,,,,,,,,,,,,,,,,,,,,,,,,,"29.90","45","50","0.00",,,,"83","29.90","CLR:00","29.85","10.00","48","260",,"8",,,,,,,,,,,,,,,,,,,,,,,,,,,,,,,,,,,,,"MET09201/27/20 20:56:01 METAR KCHS 280156Z 26007KT 10SM CLR 10/07 A2990 RMK AO2 SLP125 T01000072 $","FM-15","7",,,,,,,,,,,,,,,,,,,,,,,,,,,,"2009-06-10"
"72208013880","2020-01-27T21:56:00","FM-15","7",,"SE","0.25","mi","TEMP, PRECIP, SNOW",,,"MMTS, SRG, SNOWBOARD",,,"WFO CHS",,,,,,,,,,,,,,,,,,,,,,,,,,,"29.91","45","49","0.00",,"-0.01","1","86","29.91","CLR:00","29.86","10.00","47","260",,"8",,,,,,,,,,,,,,,,,,,,,,,,,,,,,,,,,,,,,"MET09801/27/20 21:56:01 METAR KCHS 280256Z 26007KT 10SM CLR 09/07 A2991 RMK AO2 SLP127 T00940072 51005 $","FM-15","7",,,,,,,,,,,,,,,,,,,,,,,,,,,,"2009-06-10"
"72208013880","2020-01-27T22:00:00","FM-12","4",,"SE","0.25","mi","TEMP, PRECIP, SNOW",,,"MMTS, SRG, SNOWBOARD",,,"WFO CHS",,,,,,,,,,,,,,,,,,,,,,,,,,,"29.91","45","49",,,"-0.01","1","86","29.91",,"29.86","9.94","47","260",,"8",,,,,,,,,,,,,,,,,,,,,,,,,,,,,,,,,,,,,"SYN06472208 32966 02607 10094 20072 30113 40127 51005 90256 555 92803=","FM-12","4",,,,,,,,,,,,,,,,,,,,,,,,,,,,"2009-06-10"
"72208013880","2020-01-27T22:56:00","FM-15","7",,"SE","0.25","mi","TEMP, PRECIP, SNOW",,,"MMTS, SRG, SNOWBOARD",,,"WFO CHS",,,,,,,,,,,,,,,,,,,,,,,,,,,"29.92","44","49","0.00",,,,"83","29.91","CLR:00","29.87","10.00","47","280",,"9",,,,,,,,,,,,,,,,,,,,,,,,,,,,,,,,,,,,,"MET09201/27/20 22:56:01 METAR KCHS 280356Z 28008KT 10SM CLR 09/07 A2992 RMK AO2 SLP129 T00940067 $","FM-15","7",,,,,,,,,,,,,,,,,,,,,,,,,,,,"2009-06-10"
"72208013880","2020-01-27T23:56:00","FM-15","7",,"SE","0.25","mi","TEMP, PRECIP, SNOW",,,"MMTS, SRG, SNOWBOARD",,,"WFO CHS",,,,,,,,,,,,,,,,,,,,,,,,,,,"29.92","44","48","0.00",,,,"86","29.92","CLR:00","29.87","10.00","46","300",,"9",,,,,,,,,,,,,,,,,,,,,,,,,,,,,,,,,,,,,"MET10201/27/20 23:56:02 METAR KCHS 280456Z 30008KT 10SM CLR 09/07 A2992 RMK AO2 SLP131 T00890067 401500078 $","FM-15","7",,,,,,,,,,,,,,,,,,,,,,,,,,,,"2009-06-10"
"72208013880","2020-01-27T23:59:00","SOD  ","6",,"SE","0.25","mi","TEMP, PRECIP, SNOW",,,"MMTS, SRG, SNOWBOARD",,,"WFO CHS",,,,"45","53","81","29.93","29.88","48","7.2","0","4.2","12","59","46","280","23","0.08","0","0.0","280","16","RA BR",,,,,,,,,,,,,,,,,,,,,,,,,,,,,,,,,,,,,,,,,,,,,,,,,,,,,,,,"SOD75624 HR PRECIPITATION (IN): 0.08 SNOW DEPTH (IN):0     24 HR SNOWFALL (IN):0.0  WEATHER(CODE):1  24 HR MAX TEMP (F): 5924 HR MIN TEMP (F): 46AVERAGE STATION PRESSURE:29.880 MINIMUM SEA LEVEL PRESSURE:29.85 TIME OF OCCURRENCE:1535 PEAK WIND SPEED (MPH): 23 PEAK WIND DIR (DEG):280 PEAK WIND TIME (LST):      FASTEST 2MIN SPEED (MPH): 16FASTEST 2MIN DIR (DEG):280 FASTEST 2MIN TIME (LST):     AVERAGE WIND SPEED (MPH): 7.2 24 HR AVG TEMP (F): 53DEPART FROM NORMAL:  4  HEATING DEGREE DAYS: 12 COOLING DEGREE DAYS:  0 LATEST DAY MAX TEMP (0700-1900 LST):59  LATEST NIGHT MIN TEMP(1900-0800 LST):46 HOURLY INCREMENTAL PRECIPITATION VALUES (IN):    T    T    0.02 0.02 0.02 0.02 T    T    0.00 0.00 0.00 0.00 0.00 0.00 0.00 0.00 0.00 0.00 0.00 0.00 0.00 0.00 0.00","SOD  ","6",,,,,,,,,,,,,,,,,,,,,,,,,"0719","1748",,"2009-06-10"
"72208013880","2020-01-28T00:56:00","FM-15","7",,"SE","0.25","mi","TEMP, PRECIP, SNOW",,,"MMTS, SRG, SNOWBOARD",,,"WFO CHS",,,,,,,,,,,,,,,,,,,,,,,,,,,"29.92","43","47","0.00",,"-0.01","0","86","29.91","CLR:00","29.87","10.00","45","300",,"8",,,,,,,,,,,,,,,,,,,,,,,,,,,,,,,,,,,,,"MET11601/28/20 00:56:02 METAR KCHS 280556Z 30007KT 10SM CLR 08/06 A2992 RMK AO2 SLP130 T00830061 10106 20083 50003 $ (KLJ)","FM-15","7",,,,,,,,,,,,,,,,,,,,,,,,,,,,"2009-06-10"
"72208013880","2020-01-28T01:00:00","FM-12","4",,"SE","0.25","mi","TEMP, PRECIP, SNOW",,,"MMTS, SRG, SNOWBOARD",,,"WFO CHS",,,,,,,,,,,,,,,,,,,,,,,,,,,"29.92","43","47",,,"0.01","9","86","29.91",,"29.87","9.94","45","300",,"8",,,,,,,,,,,,,,,,,,,,,,,,,,,,,,,,,,,,,"SYN08072208 32966 03007 10083 20061 30116 40130 50003 90556 333 10106 20078 555 92806=","FM-12","4",,,,,,,,,,,,,,,,,,,,,,,,,,,,"2009-06-10"
"72208013880","2020-01-28T01:56:00","FM-15","7",,"SE","0.25","mi","TEMP, PRECIP, SNOW",,,"MMTS, SRG, SNOWBOARD",,,"WFO CHS",,,,,,,,,,,,,,,,,,,,,,,,,,,"29.92","43","45","0.00",,,,"93","29.91","CLR:00","29.87","10.00","44","300",,"6",,,,,,,,,,,,,,,,,,,,,,,,,,,,,,,,,,,,,"MET09801/28/20 01:56:02 METAR KCHS 280656Z 30005KT 10SM CLR 07/06 A2992 RMK AO2 SLP130 T00720061 $ (KLJ)","FM-15","7",,,,,,,,,,,,,,,,,,,,,,,,,,,,"2009-06-10"
"72208013880","2020-01-28T02:56:00","FM-15","7",,"SE","0.25","mi","TEMP, PRECIP, SNOW",,,"MMTS, SRG, SNOWBOARD",,,"WFO CHS",,,,,,,,,,,,,,,,,,,,,,,,,,,"29.92","42","44","0.00",,,,"93","29.92","CLR:00","29.87","10.00","43","310",,"6",,,,,,,,,,,,,,,,,,,,,,,,,,,,,,,,,,,,,"MET09801/28/20 02:56:02 METAR KCHS 280756Z 31005KT 10SM CLR 07/06 A2992 RMK AO2 SLP131 T00670056 $ (KLJ)","FM-15","7",,,,,,,,,,,,,,,,,,,,,,,,,,,,"2009-06-10"
"72208013880","2020-01-28T03:56:00","FM-15","7",,"SE","0.25","mi","TEMP, PRECIP, SNOW",,,"MMTS, SRG, SNOWBOARD",,,"WFO CHS",,,,,,,,,,,,,,,,,,,,,,,,,,,"29.93","41","43","0.00",,"-0.01","3","93","29.93","CLR:00","29.88","10.00","42","300",,"7",,,,,,,,,,,,,,,,,,,,,,,,,,,,,,,,,,,,,"MET10401/28/20 03:56:02 METAR KCHS 280856Z 30006KT 10SM CLR 06/05 A2993 RMK AO2 SLP134 T00610050 53004 $ (KLJ)","FM-15","7",,,,,,,,,,,,,,,,,,,,,,,,,,,,"2009-06-10"
"72208013880","2020-01-28T04:00:00","FM-12","4",,"SE","0.25","mi","TEMP, PRECIP, SNOW",,,"MMTS, SRG, SNOWBOARD",,,"WFO CHS",,,,,,,,,,,,,,,,,,,,,,,,,,,"29.93","41","43",,,"-0.01","3","93","29.93",,"29.88","9.94","42","300",,"7",,,,,,,,,,,,,,,,,,,,,,,,,,,,,,,,,,,,,"SYN06472208 32966 03006 10061 20050 30119 40134 53004 90856 555 92809=","FM-12","4",,,,,,,,,,,,,,,,,,,,,,,,,,,,"2009-06-10"
"72208013880","2020-01-28T04:56:00","FM-15","7",,"SE","0.25","mi","TEMP, PRECIP, SNOW",,,"MMTS, SRG, SNOWBOARD",,,"WFO CHS",,,,,,,,,,,,,,,,,,,,,,,,,,,"29.94","38","39","0.00",,,,"96","29.93","CLR:00","29.89","10.00","39","330",,"6",,,,,,,,,,,,,,,,,,,,,,,,,,,,,,,,,,,,,"MET09801/28/20 04:56:02 METAR KCHS 280956Z 33005KT 10SM CLR 04/03 A2994 RMK AO2 SLP136 T00390033 $ (KLJ)","FM-15","7",,,,,,,,,,,,,,,,,,,,,,,,,,,,"2009-06-10"
"72208013880","2020-01-28T05:56:00","FM-15","7",,"SE","0.25","mi","TEMP, PRECIP, SNOW",,,"MMTS, SRG, SNOWBOARD",,,"WFO CHS",,,,,,,,,,,,,,,,,,,,,,,,,,,"29.96","38","39","0.00",,,,"96","29.95","CLR:00","29.91","8.00","39","320",,"5",,,,,,,,,,,,,,,,,,,,,,,,,,,,,,,,,,,,,"MET09701/28/20 05:56:02 METAR KCHS 281056Z 32004KT 8SM CLR 04/03 A2996 RMK AO2 SLP143 T00390033 $ (KLJ)","FM-15","7",,,,,,,,,,,,,,,,,,,,,,,,,,,,"2009-06-10"
"72208013880","2020-01-28T06:56:00","FM-15","7",,"SE","0.25","mi","TEMP, PRECIP, SNOW",,,"MMTS, SRG, SNOWBOARD",,,"WFO CHS",,,,,,,,,,,,,,,,,,,,,,,,,,,"29.98","36","37","0.00",,"-0.05","3","96","29.98","CLR:00","29.93","8.00","37","330",,"7",,,,,,,,,,,,,,,,,,,,,,,,,,,,,,,,,,,,,"MET11501/28/20 06:56:02 METAR KCHS 281156Z 33006KT 8SM CLR 03/02 A2998 RMK AO2 SLP151 T00280022 10083 20028 53018 $ (KLJ)","FM-15","7",,,,,,,,,,,,,,,,,,,,,,,,,,,,"2009-06-10"
"72208013880","2020-01-28T07:00:00","FM-12","4",,"SE","0.25","mi","TEMP, PRECIP, SNOW",,,"MMTS, SRG, SNOWBOARD",,,"WFO CHS",,,,,,,,,,,,,,,,,,,,,,,,,,,"29.98","36","37",,,"-0.05","3","96","29.98",,"29.93","7.46","37","330",,"7",,,,,,,,,,,,,,,,,,,,,,,,,,,,,,,,,,,,,"SYN08072208 32962 03306 10028 20022 30136 40151 53018 91156 333 10150 20028 555 92812=","FM-12","4",,,,,,,,,,,,,,,,,,,,,,,,,,,,"2009-06-10"
"72208013880","2020-01-28T07:56:00","FM-15","7",,"SE","0.25","mi","TEMP, PRECIP, SNOW",,,"MMTS, SRG, SNOWBOARD",,,"WFO CHS",,,,,,,,,,,,,,,,,,,,,,,,,,,"30.00","37","39","0.00",,,,"93","30.00","CLR:00","29.95","9.00","38","330",,"7",,,,,,,,,,,,,,,,,,,,,,,,,,,,,,,,,,,,,"MET09701/28/20 07:56:02 METAR KCHS 281256Z 33006KT 9SM CLR 04/03 A3000 RMK AO2 SLP159 T00390028 $ (JMB)","FM-15","7",,,,,,,,,,,,,,,,,,,,,,,,,,,,"2009-06-10"
"72208013880","2020-01-28T08:56:00","FM-15","7",,"SE","0.25","mi","TEMP, PRECIP, SNOW",,,"MMTS, SRG, SNOWBOARD",,,"WFO CHS",,,,,,,,,,,,,,,,,,,,,,,,,,,"30.02","43","48","0.00",,,,"83","30.01","CLR:00","29.97","10.00","46","360",,"6",,,,,,,,,,,,,,,,,,,,,,,,,,,,,,,,,,,,,"MET09801/28/20 08:56:02 METAR KCHS 281356Z 36005KT 10SM CLR 09/06 A3002 RMK AO2 SLP163 T00890061 $ (JMB)","FM-15","7",,,,,,,,,,,,,,,,,,,,,,,,,,,,"2009-06-10"
"72208013880","2020-01-28T09:56:00","FM-15","7",,"SE","0.25","mi","TEMP, PRECIP, SNOW",,,"MMTS, SRG, SNOWBOARD",,,"WFO CHS",,,,,,,,,,,,,,,,,,,,,,,,,,,"30.03","40","51","0.00",,"-0.05","1","66","30.02","CLR:00","29.98","10.00","46","020",,"8",,,,,,,,,,,,,,,,,,,,,,,,,,,,,,,,,,,,,"MET10401/28/20 09:56:02 METAR KCHS 281456Z 02007KT 10SM CLR 11/04 A3003 RMK AO2 SLP167 T01060044 51016 $ (JMB)","FM-15","7",,,,,,,,,,,,,,,,,,,,,,,,,,,,"2009-06-10"
"72208013880","2020-01-28T10:00:00","FM-12","4",,"SE","0.25","mi","TEMP, PRECIP, SNOW",,,"MMTS, SRG, SNOWBOARD",,,"WFO CHS",,,,,,,,,,,,,,,,,,,,,,,,,,,"30.03","40","51",,,"-0.05","1","66","30.02",,"29.98","9.94","46","020",,"8",,,,,,,,,,,,,,,,,,,,,,,,,,,,,,,,,,,,,"SYN06472208 32966 00207 10106 20044 30153 40167 51016 91456 555 92815=","FM-12","4",,,,,,,,,,,,,,,,,,,,,,,,,,,,"2009-06-10"
"72208013880","2020-01-28T10:56:00","FM-15","7",,"SE","0.25","mi","TEMP, PRECIP, SNOW",,,"MMTS, SRG, SNOWBOARD",,,"WFO CHS",,,,,,,,,,,,,,,,,,,,,,,,,,,"30.03","36","54","0.00",,,,"51","30.03","CLR:00","29.98","10.00","46","050",,"9",,,,,,,,,,,,,,,,,,,,,,,,,,,,,,,,,,,,,"MET09801/28/20 10:56:02 METAR KCHS 281556Z 05008KT 10SM CLR 12/02 A3003 RMK AO2 SLP169 T01220022 $ (JMB)","FM-15","7",,,,,,,,,,,,,,,,,,,,,,,,,,,,"2009-06-10"
"72208013880","2020-01-28T11:56:00","FM-15","7",,"SE","0.25","mi","TEMP, PRECIP, SNOW",,,"MMTS, SRG, SNOWBOARD",,,"WFO CHS",,,,,,,,,,,,,,,,,,,,,,,,,,,"30.02","35","56","0.00",,,,"46","30.01","FEW:02 45","29.97","10.00","46","360",,"8",,,,,,,,,,,,,,,,,,,,,,,,,,,,,,,,,,,,,"MET10101/28/20 11:56:02 METAR KCHS 281656Z 36007KT 10SM FEW045 13/02 A3002 RMK AO2 SLP163 T01330017 $ (JMB)","FM-15","7",,,,,,,,,,,,,,,,,,,,,,,,,,,,"2009-06-10"
"72208013880","2020-01-28T12:56:00","FM-15","7",,"SE","0.25","mi","TEMP, PRECIP, SNOW",,,"MMTS, SRG, SNOWBOARD",,,"WFO CHS",,,,,,,,,,,,,,,,,,,,,,,,,,,"29.98","35","58","0.00",,"+0.04","8","42","29.98","FEW:02 50","29.93","10.00","47","VRB",,"7",,,,,,,,,,,,,,,,,,,,,,,,,,,,,,,,,,,,,"MET11901/28/20 12:56:02 METAR KCHS 281756Z VRB06KT 10SM FEW050 14/02 A2998 RMK AO2 SLP152 T01440017 10144 20028 58015 $ (JMB)","FM-15","7",,,,,,,,,,,,,,,,,,,,,,,,,,,,"2009-06-10"
"72208013880","2020-01-28T13:00:00","FM-12","4",,"SE","0.25","mi","TEMP, PRECIP, SNOW",,,"MMTS, SRG, SNOWBOARD",,,"WFO CHS",,,,,,,,,,,,,,,,,,,,,,,,,,,"29.98","35","58",,,"+0.04","8","42","29.98","57","29.93","9.94","47",,,"7",,,,,,,,,,,,,,,,,,,,,,,,,,,,,,,,,,,,,"SYN08072208 32766 2//06 10144 20017 30136 40152 58015 91756 333 10144 20028 555 92818=","FM-12","4",,,,,,,,,,,,,,,,,,,,,,,,,,,,"2009-06-10"
"72208013880","2020-01-28T13:56:00","FM-15","7",,"SE","0.25","mi","TEMP, PRECIP, SNOW",,,"MMTS, SRG, SNOWBOARD",,,"WFO CHS",,,,,,,,,,,,,,,,,,,,,,,,,,,"29.97","34","59","0.00",,,,"39","29.96","FEW:02 55","29.92","10.00","47","000",,"0",,,,,,,,,,,,,,,,,,,,,,,,,,,,,,,,,,,,,"MET10101/28/20 13:56:02 METAR KCHS 281856Z 00000KT 10SM FEW055 15/01 A2997 RMK AO2 SLP147 T01500011 $ (JMB)","FM-15","7",,,,,,,,,,,,,,,,,,,,,,,,,,,,"2009-06-10"
"72208013880","2020-01-28T14:56:00","FM-15","7",,"SE","0.25","mi","TEMP, PRECIP, SNOW",,,"MMTS, SRG, SNOWBOARD",,,"WFO CHS",,,,,,,,,,,,,,,,,,,,,,,,,,,"29.96","35","60","0.00",,,,"39","29.96","FEW:02 55","29.91","10.00","48","290",,"7",,,,,,,,,,,,,,,,,,,,,,,,,,,,,,,,,,,,,"MET09901/28/20 14:56:02 METAR KCHS 281956Z 29006KT 10SM FEW055 16/02 A2996 RMK AO2 SLP144 T01560017 (JMB)","FM-15","7",,,,,,,,,,,,,,,,,,,,,,,,,,,,"2009-06-10"
"72208013880","2020-01-28T15:56:00","FM-15","7",,"SE","0.25","mi","TEMP, PRECIP, SNOW",,,"MMTS, SRG, SNOWBOARD",,,"WFO CHS",,,,,,,,,,,,,,,,,,,,,,,,,,,"29.96","34","59","0.00",,"+0.02","5","39","29.96","FEW:02 60","29.91","10.00","47","290",,"6",,,,,,,,,,,,,,,,,,,,,,,,,,,,,,,,,,,,,"MET10501/28/20 15:56:02 METAR KCHS 282056Z 29005KT 10SM FEW060 15/01 A2996 RMK AO2 SLP145 T01500011 55007 (BBE)","FM-15","7",,,,,,,,,,,,,,,,,,,,,,,,,,,,"2009-06-10"
"72208013880","2020-01-28T16:00:00","FM-12","4",,"SE","0.25","mi","TEMP, PRECIP, SNOW",,,"MMTS, SRG, SNOWBOARD",,,"WFO CHS",,,,,,,,,,,,,,,,,,,,,,,,,,,"29.96","34","59",,,"+0.02","5","39","29.96","57","29.91","9.94","47","290",,"6",,,,,,,,,,,,,,,,,,,,,,,,,,,,,,,,,,,,,"SYN06472208 32766 22905 10150 20011 30129 40145 55007 92056 555 92821=","FM-12","4",,,,,,,,,,,,,,,,,,,,,,,,,,,,"2009-06-10"
"72208013880","2020-01-28T16:56:00","FM-15","7",,"SE","0.25","mi","TEMP, PRECIP, SNOW",,,"MMTS, SRG, SNOWBOARD",,,"WFO CHS",,,,,,,,,,,,,,,,,,,,,,,,,,,"29.97","34","58","0.00",,,,"41","29.96","FEW:02 60","29.92","10.00","47","360",,"8",,,,,,,,,,,,,,,,,,,,,,,,,,,,,,,,,,,,,"MET09901/28/20 16:56:02 METAR KCHS 282156Z 36007KT 10SM FEW060 14/01 A2997 RMK AO2 SLP147 T01440011 (BBE)","FM-15","7",,,,,,,,,,,,,,,,,,,,,,,,,,,,"2009-06-10"
"72208013880","2020-01-28T17:56:00","FM-15","7",,"SE","0.25","mi","TEMP, PRECIP, SNOW",,,"MMTS, SRG, SNOWBOARD",,,"WFO CHS",,,,,,,,,,,,,,,,,,,,,,,,,,,"29.99","38","51","0.00",,,,"61","29.99","CLR:00","29.94","10.00","45","150",,"3",,,,,,,,,,,,,,,,,,,,,,,,,,,,,,,,,,,,,"MET09601/28/20 17:56:02 METAR KCHS 282256Z 15003KT 10SM CLR 11/03 A2999 RMK AO2 SLP155 T01060033 (BBE)","FM-15","7",,,,,,,,,,,,,,,,,,,,,,,,,,,,"2009-06-10"
"72208013880","2020-01-28T18:56:00","FM-15","7",,"SE","0.25","mi","TEMP, PRECIP, SNOW",,,"MMTS, SRG, SNOWBOARD",,,"WFO CHS",,,,,,,,,,,,,,,,,,,,,,,,,,,"30.01","39","48","0.00",,"-0.05","3","71","30.01","CLR:00","29.96","10.00","44","180",,"7",,,,,,,,,,,,,,,,,,,,,,,,,,,,,,,,,,,,,"MET11601/28/20 18:56:02 METAR KCHS 282356Z 18006KT 10SM CLR 09/04 A3001 RMK AO2 SLP161 T00890039 10156 20078 53016 $ (BBE)","FM-15","7",,,,,,,,,,,,,,,,,,,,,,,,,,,,"2009-06-10"
"72208013880","2020-01-28T19:00:00","FM-12","4",,"SE","0.25","mi","TEMP, PRECIP, SNOW",,,"MMTS, SRG, SNOWBOARD",,,"WFO CHS",,,,,,,,,,,,,,,,,,,,,,,,,,,"30.01","39","48",,,"-0.05","3","71","30.01",,"29.96","9.94","44","180",,"7",,,,,,,,,,,,,,,,,,,,,,,,,,,,,,,,,,,,,"SYN08072208 32966 01806 10089 20039 30146 40161 53016 92356 333 10156 20028 555 92900=","FM-12","4",,,,,,,,,,,,,,,,,,,,,,,,,,,,"2009-06-10"
"72208013880","2020-01-28T19:56:00","FM-15","7",,"SE","0.25","mi","TEMP, PRECIP, SNOW",,,"MMTS, SRG, SNOWBOARD",,,"WFO CHS",,,,,,,,,,,,,,,,,,,,,,,,,,,"30.02","39","48","0.00",,,,"71","30.01","CLR:00","29.97","10.00","44","200",,"5",,,,,,,,,,,,,,,,,,,,,,,,,,,,,,,,,,,,,"MET09201/28/20 19:56:01 METAR KCHS 290056Z 20004KT 10SM CLR 09/04 A3002 RMK AO2 SLP164 T00890039 $","FM-15","7",,,,,,,,,,,,,,,,,,,,,,,,,,,,"2009-06-10"
"72208013880","2020-01-28T20:56:00","FM-15","7",,"SE","0.25","mi","TEMP, PRECIP, SNOW",,,"MMTS, SRG, SNOWBOARD",,,"WFO CHS",,,,,,,,,,,,,,,,,,,,,,,,,,,"30.03","39","48","0.00",,,,"71","30.03","CLR:00","29.98","10.00","44","210",,"3",,,,,,,,,,,,,,,,,,,,,,,,,,,,,,,,,,,,,"MET09201/28/20 20:56:01 METAR KCHS 290156Z 21003KT 10SM CLR 09/04 A3003 RMK AO2 SLP169 T00890039 $","FM-15","7",,,,,,,,,,,,,,,,,,,,,,,,,,,,"2009-06-10"
"72208013880","2020-01-28T21:56:00","FM-15","7",,"SE","0.25","mi","TEMP, PRECIP, SNOW",,,"MMTS, SRG, SNOWBOARD",,,"WFO CHS",,,,,,,,,,,,,,,,,,,,,,,,,,,"30.04","39","46","0.00",,"-0.03","1","77","30.03","CLR:00","29.99","10.00","43","000",,"0",,,,,,,,,,,,,,,,,,,,,,,,,,,,,,,,,,,,,"MET09801/28/20 21:56:01 METAR KCHS 290256Z 00000KT 10SM CLR 08/04 A3004 RMK AO2 SLP171 T00780039 51010 $","FM-15","7",,,,,,,,,,,,,,,,,,,,,,,,,,,,"2009-06-10"
"72208013880","2020-01-28T22:00:00","FM-12","4",,"SE","0.25","mi","TEMP, PRECIP, SNOW",,,"MMTS, SRG, SNOWBOARD",,,"WFO CHS",,,,,,,,,,,,,,,,,,,,,,,,,,,"30.04","39","46",,,"-0.03","1","77","30.03",,"29.99","9.94","43","000",,"0",,,,,,,,,,,,,,,,,,,,,,,,,,,,,,,,,,,,,"SYN06472208 32966 00000 10078 20039 30157 40171 51010 90256 555 92903=","FM-12","4",,,,,,,,,,,,,,,,,,,,,,,,,,,,"2009-06-10"
"72208013880","2020-01-28T22:56:00","FM-15","7",,"SE","0.25","mi","TEMP, PRECIP, SNOW",,,"MMTS, SRG, SNOWBOARD",,,"WFO CHS",,,,,,,,,,,,,,,,,,,,,,,,,,,"30.04","38","43","0.00",,,,"82","30.04","CLR:00","29.99","10.00","41","000",,"0",,,,,,,,,,,,,,,,,,,,,,,,,,,,,,,,,,,,,"MET09201/28/20 22:56:01 METAR KCHS 290356Z 00000KT 10SM CLR 06/03 A3004 RMK AO2 SLP173 T00610033 $","FM-15","7",,,,,,,,,,,,,,,,,,,,,,,,,,,,"2009-06-10"
"72208013880","2020-01-28T23:56:00","FM-15","7",,"SE","0.25","mi","TEMP, PRECIP, SNOW",,,"MMTS, SRG, SNOWBOARD",,,"WFO CHS",,,,,,,,,,,,,,,,,,,,,,,,,,,"30.04","38","41","0.00",,,,"89","30.04","CLR:00","29.99","10.00","40","000",,"0",,,,,,,,,,,,,,,,,,,,,,,,,,,,,,,,,,,,,"MET10201/28/20 23:56:02 METAR KCHS 290456Z 00000KT 10SM CLR 05/03 A3004 RMK AO2 SLP172 T00500033 401560028 $","FM-15","7",,,,,,,,,,,,,,,,,,,,,,,,,,,,"2009-06-10"
"72208013880","2020-01-28T23:59:00","SOD  ","6",,"SE","0.25","mi","TEMP, PRECIP, SNOW",,,"MMTS, SRG, SNOWBOARD",,,"WFO CHS",,,,"38","49","71","29.98","29.91","44","5.3","0","0.1","16","60","37","080","18","0.00","0","0.0","060","14",,,,,,,,,,,,,,,,,,,,,,,,,,,,,,,,,,,,,,,,,,,,,,,,,,,,,,,,,"SOD73924 HR PRECIPITATION (IN): 0.00 SNOW DEPTH (IN):0     24 HR SNOWFALL (IN):0.0  24 HR MAX TEMP (F): 6024 HR MIN TEMP (F): 37AVERAGE STATION PRESSURE:29.915 MINIMUM SEA LEVEL PRESSURE:29.91 TIME OF OCCURRENCE:0243 PEAK WIND SPEED (MPH): 18 PEAK WIND DIR (DEG): 80 PEAK WIND TIME (LST):      FASTEST 2MIN SPEED (MPH): 14FASTEST 2MIN DIR (DEG): 60 FASTEST 2MIN TIME (LST):     AVERAGE WIND SPEED (MPH): 5.3 24 HR AVG TEMP (F): 49DEPART FROM NORMAL:  0  HEATING DEGREE DAYS: 16 COOLING DEGREE DAYS:  0 LATEST DAY MAX TEMP (0700-1900 LST):60  LATEST NIGHT MIN TEMP(1900-0800 LST):37 HOURLY INCREMENTAL PRECIPITATION VALUES (IN):.00 0.00 0.00 0.00 0.00 0.00 0.00 0.00 0.00 0.00 0.00 0.00 0.00 0.00 0.00 0.00 0.00 0.00 0.00 0.00 0.00 0.00 0.00 0.00","SOD  ","6",,,,,,,,,,,,,,,,,,,,,,,,,"0718","1749",,"2009-06-10"
"72208013880","2020-01-29T00:56:00","FM-15","7",,"SE","0.25","mi","TEMP, PRECIP, SNOW",,,"MMTS, SRG, SNOWBOARD",,,"WFO CHS",,,,,,,,,,,,,,,,,,,,,,,,,,,"30.04","37","39",,,"-0.00","0","93","30.04","CLR:00","29.99","10.00","38","000",,"0",,,,,,,,,,,,,,,,,,,,,,,,,,,,,,,,,,,,,"MET11601/29/20 00:56:02 METAR KCHS 290556Z 00000KT 10SM CLR 04/03 A3004 RMK AO2 SLP172 T00390028 10094 20039 50001 $ (KLJ)","FM-15","7",,,,,,,,,,,,,,,,,,,,,,,,,,,,"2009-06-10"
"72208013880","2020-01-29T01:00:00","FM-12","4",,"SE","0.25","mi","TEMP, PRECIP, SNOW",,,"MMTS, SRG, SNOWBOARD",,,"WFO CHS",,,,,,,,,,,,,,,,,,,,,,,,,,,"30.04","37","39",,,"0.00","9","93","30.04",,"29.99","9.94","38","000",,"0",,,,,,,,,,,,,,,,,,,,,,,,,,,,,,,,,,,,,"SYN08072208 32966 00000 10039 20028 30157 40172 50001 90556 333 10094 20028 555 92906=","FM-12","4",,,,,,,,,,,,,,,,,,,,,,,,,,,,"2009-06-10"
"72208013880","2020-01-29T01:56:00","FM-15","7",,"SE","0.25","mi","TEMP, PRECIP, SNOW",,,"MMTS, SRG, SNOWBOARD",,,"WFO CHS",,,,,,,,,,,,,,,,,,,,,,,,,,,"30.04","37","39",,"MI:1 FG:2 |FG |",,,"93","30.03","CLR:00","29.99","8.00","38","000",,"0",,,,,,,,,,,,,,,,,,,,,,,,,,,,,,,,,,,,,"MET10201/29/20 01:56:02 METAR KCHS 290656Z 00000KT 8SM MIFG CLR 04/03 A3004 RMK AO2 SLP171 T00390028 $ (KLJ)","FM-15","7",,,,,,,,,,,,,,,,,,,,,,,,,,,,"2009-06-10"
"72208013880","2020-01-29T02:56:00","FM-15","7",,"SE","0.25","mi","TEMP, PRECIP, SNOW",,,"MMTS, SRG, SNOWBOARD",,,"WFO CHS",,,,,,,,,,,,,,,,,,,,,,,,,,,"30.03","36","39",,"MI:1 FG:2 |FG |",,,"89","30.03","FEW:02 10","29.98","8.00","38","000",,"0",,,,,,,,,,,,,,,,,,,,,,,,,,,,,,,,,,,,,"MET10501/29/20 02:56:02 METAR KCHS 290756Z 00000KT 8SM MIFG FEW010 04/02 A3003 RMK AO2 SLP168 T00390022 $ (KLJ)","FM-15","7",,,,,,,,,,,,,,,,,,,,,,,,,,,,"2009-06-10"
"72208013880","2020-01-29T03:56:00","FM-15","7",,"SE","0.25","mi","TEMP, PRECIP, SNOW",,,"MMTS, SRG, SNOWBOARD",,,"WFO CHS",,,,,,,,,,,,,,,,,,,,,,,,,,,"30.03","35","38",,"MI:1 FG:2 |FG |","+0.01","6","89","30.02","FEW:02 10","29.98","8.00","37","000",,"0",,,,,,,,,,,,,,,,,,,,,,,,,,,,,,,,,,,,,"MET11101/29/20 03:56:02 METAR KCHS 290856Z 00000KT 8SM MIFG FEW010 03/02 A3003 RMK AO2 SLP167 T00330017 56004 $ (KLJ)","FM-15","7",,,,,,,,,,,,,,,,,,,,,,,,,,,,"2009-06-10"
"72208013880","2020-01-29T04:00:00","FM-12","4",,"SE","0.25","mi","TEMP, PRECIP, SNOW",,,"MMTS, SRG, SNOWBOARD",,,"WFO CHS",,,,,,,,,,,,,,,,,,,,,,,,,,,"30.03","35","38",,,"+0.01","6","89","30.02","15","29.98","7.46","37","000",,"0",,,,,,,,,,,,,,,,,,,,,,,,,,,,,,,,,,,,,"SYN06472208 31462 20000 10033 20017 30153 40167 56004 90856 555 92909=","FM-12","4",,,,,,,,,,,,,,,,,,,,,,,,,,,,"2009-06-10"
"72208013880","2020-01-29T04:56:00","FM-15","7",,"SE","0.25","mi","TEMP, PRECIP, SNOW",,,"MMTS, SRG, SNOWBOARD",,,"WFO CHS",,,,,,,,,,,,,,,,,,,,,,,,,,,"30.02","36","38",,"MI:1 FG:2 |FG |",,,"93","30.02","CLR:00","29.97","8.00","37","000",,"0",,,,,,,,,,,,,,,,,,,,,,,,,,,,,,,,,,,,,"MET10201/29/20 04:56:02 METAR KCHS 290956Z 00000KT 8SM MIFG CLR 03/02 A3002 RMK AO2 SLP166 T00330022 $ (KLJ)","FM-15","7",,,,,,,,,,,,,,,,,,,,,,,,,,,,"2009-06-10"
"72208013880","2020-01-29T05:56:00","FM-15","7",,"SE","0.25","mi","TEMP, PRECIP, SNOW",,,"MMTS, SRG, SNOWBOARD",,,"WFO CHS",,,,,,,,,,,,,,,,,,,,,,,,,,,"30.05","34","36",,"BR:1 ||",,,"93","30.04","FEW:02 200","30.00","6.00","35","000",,"0",,,,,,,,,,,,,,,,,,,,,,,,,,,,,,,,,,,,,"MET10301/29/20 05:56:02 METAR KCHS 291056Z 00000KT 6SM BR FEW200 02/01 A3005 RMK AO2 SLP174 T00220011 $ (KLJ)","FM-15","7",,,,,,,,,,,,,,,,,,,,,,,,,,,,"2009-06-10"
"72208013880","2020-01-29T06:56:00","FM-15","7",,"SE","0.25","mi","TEMP, PRECIP, SNOW",,,"MMTS, SRG, SNOWBOARD",,,"WFO CHS",,,,,,,,,,,,,,,,,,,,,,,,,,,"30.06","34","35",,"BR:1 ||","-0.03","3","96","30.05","FEW:02 50 FEW:02 200","30.01","6.00","35","000",,"0",,,,,,,,,,,,,,,,,,,,,,,,,,,,,,,,,,,,,"MET12801/29/20 06:56:02 METAR KCHS 291156Z 00000KT 6SM BR FEW050 FEW200 02/01 A3006 RMK AO2 SLP177 T00170011 10050 20017 53009 $ (KLJ)","FM-15","7",,,,,,,,,,,,,,,,,,,,,,,,,,,,"2009-06-10"
"72208013880","2020-01-29T07:00:00","FM-12","4",,"SE","0.25","mi","TEMP, PRECIP, SNOW",,,"MMTS, SRG, SNOWBOARD",,,"WFO CHS",,,,,,,,,,,,,,,,,,,,,,,,,,,"30.06","34","35",,,"-0.03","3","96","30.05","57","30.01","5.59","35","000",,"0",,,,,,,,,,,,,,,,,,,,,,,,,,,,,,,,,,,,,"SYN08672208 31759 20000 10017 20011 30163 40177 53009 710// 91156 333 10156 20017 555 92912=","FM-12","4",,,,,,,,,,,,,,,,,,,,,,,,,,,,"2009-06-10"
"72208013880","2020-01-29T07:56:00","FM-15","7",,"SE","0.25","mi","TEMP, PRECIP, SNOW",,,"MMTS, SRG, SNOWBOARD",,,"WFO CHS",,,,,,,,,,,,,,,,,,,,,,,,,,,"30.06","34","36",,,,,"93","30.06","FEW:02 200","30.01","8.00","35","340",,"3",,,,,,,,,,,,,,,,,,,,,,,,,,,,,,,,,,,,,"MET10001/29/20 07:56:02 METAR KCHS 291256Z 34003KT 8SM FEW200 02/01 A3006 RMK AO2 SLP180 T00220011 $ (JMB)","FM-15","7",,,,,,,,,,,,,,,,,,,,,,,,,,,,"2009-06-10"
"72208013880","2020-01-29T08:56:00","FM-15","7",,"SE","0.25","mi","TEMP, PRECIP, SNOW",,,"MMTS, SRG, SNOWBOARD",,,"WFO CHS",,,,,,,,,,,,,,,,,,,,,,,,,,,"30.07","43","48",,,,,"83","30.07","FEW:02 120 FEW:02 200","30.02","10.00","46","040",,"5",,,,,,,,,,,,,,,,,,,,,,,,,,,,,,,,,,,,,"MET10801/29/20 08:56:02 METAR KCHS 291356Z 04004KT 10SM FEW120 FEW200 09/06 A3007 RMK AO2 SLP183 T00890061 $ (JMB)","FM-15","7",,,,,,,,,,,,,,,,,,,,,,,,,,,,"2009-06-10"
"72208013880","2020-01-29T09:56:00","FM-15","7",,"SE","0.25","mi","TEMP, PRECIP, SNOW",,,"MMTS, SRG, SNOWBOARD",,,"WFO CHS",,,,,,,,,,,,,,,,,,,,,,,,,,,"30.08","43","51",,,"-0.02","1","74","30.07","BKN:07 200","30.03","10.00","47","040",,"6",,,,,,,,,,,,,,,,,,,,,,,,,,,,,,,,,,,,,"MET10701/29/20 09:56:02 METAR KCHS 291456Z 04005KT 10SM BKN200 11/06 A3008 RMK AO2 SLP184 T01060061 51007 $ (JMB)","FM-15","7",,,,,,,,,,,,,,,,,,,,,,,,,,,,"2009-06-10"
"72208013880","2020-01-29T10:00:00","FM-12","4",,"SE","0.25","mi","TEMP, PRECIP, SNOW",,,"MMTS, SRG, SNOWBOARD",,,"WFO CHS",,,,,,,,,,,,,,,,,,,,,,,,,,,"30.08","43","51",,,"-0.02","1","74","30.07",,"30.03","9.94","47","040",,"6",,,,,,,,,,,,,,,,,,,,,,,,,,,,,,,,,,,,,"SYN06472208 32966 60405 10106 20061 30170 40184 51007 91456 555 92915=","FM-12","4",,,,,,,,,,,,,,,,,,,,,,,,,,,,"2009-06-10"
"72208013880","2020-01-29T10:56:00","FM-15","7",,"SE","0.25","mi","TEMP, PRECIP, SNOW",,,"MMTS, SRG, SNOWBOARD",,,"WFO CHS",,,,,,,,,,,,,,,,,,,,,,,,,,,"30.08","43","54",,,,,"67","30.08","FEW:02 120 BKN:07 200","30.03","10.00","49","050",,"6",,,,,,,,,,,,,,,,,,,,,,,,,,,,,,,,,,,,,"MET10601/29/20 10:56:02 METAR KCHS 291556Z 05005KT 10SM FEW120 BKN200 12/06 A3008 RMK AO2 SLP185 T01220061 (JMB)","FM-15","7",,,,,,,,,,,,,,,,,,,,,,,,,,,,"2009-06-10"
"72208013880","2020-01-29T11:56:00","FM-15","7",,"SE","0.25","mi","TEMP, PRECIP, SNOW",,,"MMTS, SRG, SNOWBOARD",,,"WFO CHS",,,,,,,,,,,,,,,,,,,,,,,,,,,"30.06","41","56",,,,,"57","30.06","FEW:02 120 BKN:07 200","30.01","10.00","49","060",,"8",,,,,,,,,,,,,,,,,,,,,,,,,,,,,,,,,,,,,"MET10601/29/20 11:56:02 METAR KCHS 291656Z 06007KT 10SM FEW120 BKN200 13/05 A3006 RMK AO2 SLP178 T01330050 (JMB)","FM-15","7",,,,,,,,,,,,,,,,,,,,,,,,,,,,"2009-06-10"
"72208013880","2020-01-29T12:56:00","FM-15","7",,"SE","0.25","mi","TEMP, PRECIP, SNOW",,,"MMTS, SRG, SNOWBOARD",,,"WFO CHS",,,,,,,,,,,,,,,,,,,,,,,,,,,"30.04","39","57",,,"+0.04","8","51","30.04","SCT:04 120 OVC:08 200","29.99","10.00","48","080",,"5",,,,,,,,,,,,,,,,,,,,,,,,,,,,,,,,,,,,,"MET12401/29/20 12:56:02 METAR KCHS 291756Z 08004KT 10SM SCT120 OVC200 14/04 A3004 RMK AO2 SLP173 T01390039 10150 20017 58012 (JMB)","FM-15","7",,,,,,,,,,,,,,,,,,,,,,,,,,,,"2009-06-10"
"72208013880","2020-01-29T13:00:00","FM-12","4",,"SE","0.25","mi","TEMP, PRECIP, SNOW",,,"MMTS, SRG, SNOWBOARD",,,"WFO CHS",,,,,,,,,,,,,,,,,,,,,,,,,,,"30.04","39","57",,,"+0.04","8","51","30.04",,"29.99","9.94","48","080",,"5",,,,,,,,,,,,,,,,,,,,,,,,,,,,,,,,,,,,,"SYN08072208 32966 80804 10139 20039 30157 40173 58012 91756 333 10150 20017 555 92918=","FM-12","4",,,,,,,,,,,,,,,,,,,,,,,,,,,,"2009-06-10"
"72208013880","2020-01-29T13:56:00","FM-15","7",,"SE","0.25","mi","TEMP, PRECIP, SNOW",,,"MMTS, SRG, SNOWBOARD",,,"WFO CHS",,,,,,,,,,,,,,,,,,,,,,,,,,,"30.01","40","57",,,,,"53","30.01","FEW:02 120 OVC:08 200","29.96","10.00","49","070",,"6",,,,,,,,,,,,,,,,,,,,,,,,,,,,,,,,,,,,,"MET10601/29/20 13:56:02 METAR KCHS 291856Z 07005KT 10SM FEW120 OVC200 14/04 A3001 RMK AO2 SLP163 T01390044 (JMB)","FM-15","7",,,,,,,,,,,,,,,,,,,,,,,,,,,,"2009-06-10"
"72208013880","2020-01-29T14:56:00","FM-15","7",,"SE","0.25","mi","TEMP, PRECIP, SNOW",,,"MMTS, SRG, SNOWBOARD",,,"WFO CHS",,,,,,,,,,,,,,,,,,,,,,,,,,,"30.01","41","55",,,,,"59","30.01","FEW:02 60 SCT:04 90 OVC:08 150","29.96","10.00","48","100",,"9",,,,,,,,,,,,,,,,,,,,,,,,,,,,,,,,,,,,,"MET11301/29/20 14:56:02 METAR KCHS 291956Z 10008KT 10SM FEW060 SCT090 OVC150 13/05 A3001 RMK AO2 SLP162 T01280050 (BBE)","FM-15","7",,,,,,,,,,,,,,,,,,,,,,,,,,,,"2009-06-10"
"72208013880","2020-01-29T15:56:00","FM-15","7",,"SE","0.25","mi","TEMP, PRECIP, SNOW",,,"MMTS, SRG, SNOWBOARD",,,"WFO CHS",,,,,,,,,,,,,,,,,,,,,,,,,,,"30.01","45","52","0.01","-RA:02 |RA |RA",,,"77","30.01","FEW:02 45 OVC:08 60","29.96","10.00","49","090",,"7",,,,,,,,,,,,,,,,,,,,,,,,,,,,,,,,,,,,,"MET12801/29/20 15:56:02 METAR KCHS 292056Z 09006KT 10SM -RA FEW045 OVC060 11/07 A3001 RMK AO2 RAB08 SLP161 P0001 60001 T01110072 (BBE)","FM-15","7",,,,,,,,,,,,,,,,,,,,,,,,,,,,"2009-06-10"
"72208013880","2020-01-29T16:00:00","FM-12","4",,"SE","0.25","mi","TEMP, PRECIP, SNOW",,,"MMTS, SRG, SNOWBOARD",,,"WFO CHS",,,,,,,,,,,,,,,,,,,,,,,,,,,"30.01","45","52",,"||RA",,,"77","30.01","41","29.96","9.94","49","090",,"7",,,,,,,,,,,,,,,,,,,,,,,,,,,,,,,,,,,,,"SYN07072208 11666 80906 10111 20072 30146 40161 69937 761// 92056 555 92921=","FM-12","4",,,,,,,,,,,,,,,,,,,,,,,,,,,,"2009-06-10"
"72208013880","2020-01-29T16:56:00","FM-15","7",,"SE","0.25","mi","TEMP, PRECIP, SNOW",,,"MMTS, SRG, SNOWBOARD",,,"WFO CHS",,,,,,,,,,,,,,,,,,,,,,,,,,,"29.99","45","51","0.01",,,,"80","29.99","FEW:02 35 SCT:04 75 BKN:07 100","29.94","10.00","48","080",,"13",,,,,,,,,,,,,,,,,,,,,,,,,,,,,,,,,,,,,"MET12501/29/20 16:56:02 METAR KCHS 292156Z 08011KT 10SM FEW035 SCT075 BKN100 11/07 A2999 RMK AO2 RAE43 SLP155 P0001 T01060072 (BBE)","FM-15","7",,,,,,,,,,,,,,,,,,,,,,,,,,,,"2009-06-10"
"72208013880","2020-01-29T17:56:00","FM-15","7",,"SE","0.25","mi","TEMP, PRECIP, SNOW",,,"MMTS, SRG, SNOWBOARD",,,"WFO CHS",,,,,,,,,,,,,,,,,,,,,,,,,,,"30.00","46","51","0.00",,,,"83","29.99","SCT:04 60 OVC:08 100","29.95","10.00","49","090",,"11",,,,,,,,,,,,,,,,,,,,,,,,,,,,,,,,,,,,,"MET10601/29/20 17:56:02 METAR KCHS 292256Z 09010KT 10SM SCT060 OVC100 11/08 A3000 RMK AO2 SLP157 T01060078 (BBE)","FM-15","7",,,,,,,,,,,,,,,,,,,,,,,,,,,,"2009-06-10"
"72208013880","2020-01-29T18:56:00","FM-15","7",,"SE","0.25","mi","TEMP, PRECIP, SNOW",,,"MMTS, SRG, SNOWBOARD",,,"WFO CHS",,,,,,,,,,,,,,,,,,,,,,,,,,,"30.00","45","50","T","-RA:02 |RA |RA","+0.01","5","83","30.00","BKN:07 65 OVC:08 90","29.95","10.00","48","020",,"7",,,,,,,,,,,,,,,,,,,,,,,,,,,,,,,,,,,,,"MET14601/29/20 18:56:02 METAR KCHS 292356Z 02006KT 10SM -RA BKN065 OVC090 10/07 A3000 RMK AO2 RAB51 SLP159 P0000 60002 T01000072 10144 20100 55002 (BBE)","FM-15","7",,,,,,,,,,,,,,,,,,,,,,,,,,,,"2009-06-10"
"72208013880","2020-01-29T19:00:00","FM-12","4",,"SE","0.25","mi","TEMP, PRECIP, SNOW",,,"MMTS, SRG, SNOWBOARD",,,"WFO CHS",,,,,,,,,,,,,,,,,,,,,,,,,,,"30.00","45","50",,"||RA","+0.01","5","83","30.00","57","29.95","9.94","48","020",,"7",,,,,,,,,,,,,,,,,,,,,,,,,,,,,,,,,,,,,"SYN09272208 11766 80206 10100 20072 30143 40159 55002 69951 761// 92356 333 10150 20017 555 93000=","FM-12","4",,,,,,,,,,,,,,,,,,,,,,,,,,,,"2009-06-10"
"72208013880","2020-01-29T19:56:00","FM-15","7",,"SE","0.25","mi","TEMP, PRECIP, SNOW",,,"MMTS, SRG, SNOWBOARD",,,"WFO CHS",,,,,,,,,,,,,,,,,,,,,,,,,,,"30.01","45","49","T","-RA:02 |RA |RA",,,"86","30.00","OVC:08 60","29.96","10.00","47","020",,"10",,,,,,,,,,,,,,,,,,,,,,,,,,,,,,,,,,,,,"MET10301/29/20 19:56:01 METAR KCHS 300056Z 02009KT 10SM -RA OVC060 09/07 A3001 RMK AO2 SLP160 P0000 T00940072","FM-15","7",,,,,,,,,,,,,,,,,,,,,,,,,,,,"2009-06-10"
"72208013880","2020-01-29T20:56:00","FM-15","7",,"SE","0.25","mi","TEMP, PRECIP, SNOW",,,"MMTS, SRG, SNOWBOARD",,,"WFO CHS",,,,,,,,,,,,,,,,,,,,,,,,,,,"30.02","45","48","0.03","-RA:02 |RA |RA",,,"89","30.02","OVC:08 55","29.97","9.00","47","030",,"8",,,,,,,,,,,,,,,,,,,,,,,,,,,,,,,,,,,,,"MET10201/29/20 20:56:01 METAR KCHS 300156Z 03007KT 9SM -RA OVC055 09/07 A3002 RMK AO2 SLP165 P0003 T00890072","FM-15","7",,,,,,,,,,,,,,,,,,,,,,,,,,,,"2009-06-10"
"72208013880","2020-01-29T21:56:00","FM-15","7",,"SE","0.25","mi","TEMP, PRECIP, SNOW",,,"MMTS, SRG, SNOWBOARD",,,"WFO CHS",,,,,,,,,,,,,,,,,,,,,,,,,,,"30.02","45","47","0.08","-RA:02 |RA |RA","-0.02","0","93","30.02","SCT:04 45 OVC:08 65","29.97","10.00","46","030",,"10",,,,,,,,,,,,,,,,,,,,,,,,,,,,,,,,,,,,,"MET12201/29/20 21:56:01 METAR KCHS 300256Z 03009KT 10SM -RA SCT045 OVC065 08/07 A3002 RMK AO2 SLP165 P0007 60010 T00830072 50006","FM-15","7",,,,,,,,,,,,,,,,,,,,,,,,,,,,"2009-06-10"
"72208013880","2020-01-29T22:00:00","FM-12","4",,"SE","0.25","mi","TEMP, PRECIP, SNOW",,,"MMTS, SRG, SNOWBOARD",,,"WFO CHS",,,,,,,,,,,,,,,,,,,,,,,,,,,"30.02","45","47",,"||RA","0.02","9","93","30.02","41","29.97","9.94","46","030",,"10",,,,,,,,,,,,,,,,,,,,,,,,,,,,,,,,,,,,,"SYN07672208 11666 80309 10083 20072 30150 40165 50006 60037 761// 90256 555 93003=","FM-12","4",,,,,,,,,,,,,,,,,,,,,,,,,,,,"2009-06-10"
"72208013880","2020-01-29T22:56:00","FM-15","7",,"SE","0.25","mi","TEMP, PRECIP, SNOW",,,"MMTS, SRG, SNOWBOARD",,,"WFO CHS",,,,,,,,,,,,,,,,,,,,,,,,,,,"30.02","44","47","T","-RA:02 |RA |RA",,,"90","30.01","FEW:02 40 BKN:07 60 OVC:08 90","29.97","10.00","46","030",,"9",,,,,,,,,,,,,,,,,,,,,,,,,,,,,,,,,,,,,"MET11701/29/20 22:56:01 METAR KCHS 300356Z 03008KT 10SM -RA FEW040 BKN060 OVC090 08/07 A3002 RMK AO2 SLP164 P0001 T00830067","FM-15","7",,,,,,,,,,,,,,,,,,,,,,,,,,,,"2009-06-10"
"72208013880","2020-01-29T23:56:00","FM-15","7",,"SE","0.25","mi","TEMP, PRECIP, SNOW",,,"MMTS, SRG, SNOWBOARD",,,"WFO CHS",,,,,,,,,,,,,,,,,,,,,,,,,,,"30.01","45","47","0.02","-RA:02 |RA |RA",,,"93","30.01","FEW:02 40 SCT:04 65 OVC:08 80","29.96","8.00","46","030",,"11",,,,,,,,,,,,,,,,,,,,,,,,,,,,,,,,,,,,,"MET12601/29/20 23:56:02 METAR KCHS 300456Z 03010KT 8SM -RA FEW040 SCT065 OVC080 08/07 A3001 RMK AO2 SLP163 P0002 T00830072 401500017","FM-15","7",,,,,,,,,,,,,,,,,,,,,,,,,,,,"2009-06-10"
"72208013880","2020-01-29T23:59:00","SOD  ","6",,"SE","0.25","mi","TEMP, PRECIP, SNOW",,,"MMTS, SRG, SNOWBOARD",,,"WFO CHS",,,,"41","47","81","30.03","29.98","44","5.6","0","-2.0","18","59","35","090","18","0.15","0","0.0","030","14","RA MIFG BR FG",,,,,,,,,,,,,,,,,,,,,,,,,,,,,,,,,,,,,,,,,,,,,,,,,,,,,,,,"SOD75624 HR PRECIPITATION (IN): 0.15 SNOW DEPTH (IN):0     24 HR SNOWFALL (IN):0.0  WEATHER(CODE):1  24 HR MAX TEMP (F): 5924 HR MIN TEMP (F): 35AVERAGE STATION PRESSURE:29.980 MINIMUM SEA LEVEL PRESSURE:29.98 TIME OF OCCURRENCE:1832 PEAK WIND SPEED (MPH): 18 PEAK WIND DIR (DEG): 90 PEAK WIND TIME (LST):      FASTEST 2MIN SPEED (MPH): 14FASTEST 2MIN DIR (DEG): 30 FASTEST 2MIN TIME (LST):     AVERAGE WIND SPEED (MPH): 5.6 24 HR AVG TEMP (F): 47DEPART FROM NORMAL: -2  HEATING DEGREE DAYS: 18 COOLING DEGREE DAYS:  0 LATEST DAY MAX TEMP (0700-1900 LST):59  LATEST NIGHT MIN TEMP(1900-0800 LST):35 HOURLY INCREMENTAL PRECIPITATION VALUES (IN):    M    M    M    M    M    M    M    M    M    M    M    M    M    M    0.01 0.01 0.00 T    T    0.03 0.08 T    0.02","SOD  ","6",,,,,,,,,,,,,,,,,,,,,,,,,"0717","1750",,"2009-06-10"
"72208013880","2020-01-30T00:56:00","FM-15","7",,"SE","0.25","mi","TEMP, PRECIP, SNOW",,,"MMTS, SRG, SNOWBOARD",,,"WFO CHS",,,,,,,,,,,,,,,,,,,,,,,,,,,"30.01","45","47","0.07","-RA:02 |RA |RA","+0.01","6","93","30.01","FEW:02 40 OVC:08 65","29.96","7.00","46","040",,"10",,,,,,,,,,,,,,,,,,,,,,,,,,,,,,,,,,,,,"MET13901/30/20 00:56:02 METAR KCHS 300556Z 04009KT 7SM -RA FEW040 OVC065 08/07 A3001 RMK AO2 SLP162 P0006 60019 T00830072 10100 20083 56003 (KLJ)","FM-15","7",,,,,,,,,,,,,,,,,,,,,,,,,,,,"2009-06-10"
"72208013880","2020-01-30T01:00:00","FM-12","4",,"SE","0.25","mi","TEMP, PRECIP, SNOW",,,"MMTS, SRG, SNOWBOARD",,,"WFO CHS",,,,,,,,,,,,,,,,,,,,,,,,,,,"30.01","45","47",,"||RA","+0.01","6","93","30.01","41","29.96","6.84","46","040",,"10",,,,,,,,,,,,,,,,,,,,,,,,,,,,,,,,,,,,,"SYN09272208 11661 80409 10083 20072 30146 40162 56003 60051 761// 90556 333 10100 20017 555 93006=","FM-12","4",,,,,,,,,,,,,,,,,,,,,,,,,,,,"2009-06-10"
"72208013880","2020-01-30T01:27:00","FM-16","7",,"SE","0.25","mi","TEMP, PRECIP, SNOW",,,"MMTS, SRG, SNOWBOARD",,,"WFO CHS",,,,,,,,,,,,,,,,,,,,,,,,,,,"30.02","45","47","0.04","-RA:02 |RA |RA",,,"93",,"FEW:02 8 BKN:07 55 OVC:08 70","29.97","8.00","46","040",,"10",,,,,,,,,,,,,,,,,,,,,,,,,,,,,,,,,,,,,"MET11501/30/20 01:27:02 SPECI KCHS 300627Z 04009KT 8SM -RA FEW008 BKN055 OVC070 08/07 A3002 RMK AO2 P0004 T00830072 (KLJ)","FM-16","7",,,,,,,,,,,,,,,,,,,,,,,,,,,,"2009-06-10"
"72208013880","2020-01-30T01:45:00","FM-16","7",,"SE","0.25","mi","TEMP, PRECIP, SNOW",,,"MMTS, SRG, SNOWBOARD",,,"WFO CHS",,,,,,,,,,,,,,,,,,,,,,,,,,,"30.02","45","47","0.06","RA:02 BR:1 |RA |RA",,,"93",,"BKN:07 7 BKN:07 25 OVC:08 50","29.97","6.00","46","030",,"8",,,,,,,,,,,,,,,,,,,,,,,,,,,,,,,,,,,,,"MET11701/30/20 01:45:02 SPECI KCHS 300645Z 03007KT 6SM RA BR BKN007 BKN025 OVC050 08/07 A3002 RMK AO2 P0006 T00830072 (KLJ)","FM-16","7",,,,,,,,,,,,,,,,,,,,,,,,,,,,"2009-06-10"
"72208013880","2020-01-30T01:56:00","FM-15","7",,"SE","0.25","mi","TEMP, PRECIP, SNOW",,,"MMTS, SRG, SNOWBOARD",,,"WFO CHS",,,,,,,,,,,,,,,,,,,,,,,,,,,"30.03","45","47","0.07","RA:02 BR:1 |RA |RA",,,"93","30.03","BKN:07 7 BKN:07 25 OVC:08 50","29.98","6.00","46","020",,"10",,,,,,,,,,,,,,,,,,,,,,,,,,,,,,,,,,,,,"MET12401/30/20 01:56:02 METAR KCHS 300656Z 02009KT 6SM RA BR BKN007 BKN025 OVC050 08/07 A3003 RMK AO2 SLP168 P0008 T00830072 (KLJ)","FM-15","7",,,,,,,,,,,,,,,,,,,,,,,,,,,,"2009-06-10"
"72208013880","2020-01-30T02:22:00","FM-16","7",,"SE","0.25","mi","TEMP, PRECIP, SNOW",,,"MMTS, SRG, SNOWBOARD",,,"WFO CHS",,,,,,,,,,,,,,,,,,,,,,,,,,,"30.01","45","47","0.02","-RA:02 BR:1 |RA |RA",,,"93",,"FEW:02 8 BKN:07 49 OVC:08 70","29.96","6.00","46","030",,"13",,,,,,,,,,,,,,,,,,,,,,,,,,,,,,,,,,,,,"MET11801/30/20 02:22:02 SPECI KCHS 300722Z 03011KT 6SM -RA BR FEW008 BKN049 OVC070 08/07 A3001 RMK AO2 P0002 T00830072 (KLJ)","FM-16","7",,,,,,,,,,,,,,,,,,,,,,,,,,,,"2009-06-10"
"72208013880","2020-01-30T02:47:00","FM-16","7",,"SE","0.25","mi","TEMP, PRECIP, SNOW",,,"MMTS, SRG, SNOWBOARD",,,"WFO CHS",,,,,,,,,,,,,,,,,,,,,,,,,,,"30.01","45","47","0.04","-RA:02 |RA |RA",,,"93",,"FEW:02 6 SCT:04 50 OVC:08 70","29.96","7.00","46","040",,"11",,,,,,,,,,,,,,,,,,,,,,,,,,,,,,,,,,,,,"MET11501/30/20 02:47:02 SPECI KCHS 300747Z 04010KT 7SM -RA FEW006 SCT050 OVC070 08/07 A3001 RMK AO2 P0004 T00830072 (KLJ)","FM-16","7",,,,,,,,,,,,,,,,,,,,,,,,,,,,"2009-06-10"
"72208013880","2020-01-30T02:56:00","FM-15","7",,"SE","0.25","mi","TEMP, PRECIP, SNOW",,,"MMTS, SRG, SNOWBOARD",,,"WFO CHS",,,,,,,,,,,,,,,,,,,,,,,,,,,"30.02","45","47","0.05","-RA:02 |RA |RA",,,"93","30.01","FEW:02 6 SCT:04 50 OVC:08 70","29.97","8.00","46","030",,"10",,,,,,,,,,,,,,,,,,,,,,,,,,,,,,,,,,,,,"MET12201/30/20 02:56:02 METAR KCHS 300756Z 03009KT 8SM -RA FEW006 SCT050 OVC070 08/07 A3002 RMK AO2 SLP163 P0005 T00830072 (KLJ)","FM-15","7",,,,,,,,,,,,,,,,,,,,,,,,,,,,"2009-06-10"
"72208013880","2020-01-30T03:56:00","FM-15","7",,"SE","0.25","mi","TEMP, PRECIP, SNOW",,,"MMTS, SRG, SNOWBOARD",,,"WFO CHS",,,,,,,,,,,,,,,,,,,,,,,,,,,"30.01","44","47","0.04","-RA:02 |RA |RA","-0.00","0","90","30.01","FEW:02 7 OVC:08 65","29.96","10.00","46","040",,"9",,,,,,,,,,,,,,,,,,,,,,,,,,,,,,,,,,,,,"MET12801/30/20 03:56:02 METAR KCHS 300856Z 04008KT 10SM -RA FEW007 OVC065 08/07 A3001 RMK AO2 SLP162 P0004 60017 T00830067 50000 (KLJ)","FM-15","7",,,,,,,,,,,,,,,,,,,,,,,,,,,,"2009-06-10"
"72208013880","2020-01-30T04:00:00","FM-12","4",,"SE","0.25","mi","TEMP, PRECIP, SNOW",,,"MMTS, SRG, SNOWBOARD",,,"WFO CHS",,,,,,,,,,,,,,,,,,,,,,,,,,,"30.01","44","47",,"||RA","0.00","9","90","30.01","8","29.96","9.94","46","040",,"9",,,,,,,,,,,,,,,,,,,,,,,,,,,,,,,,,,,,,"SYN07672208 11366 80408 10083 20067 30146 40162 50000 60047 761// 90856 555 93009=","FM-12","4",,,,,,,,,,,,,,,,,,,,,,,,,,,,"2009-06-10"
"72208013880","2020-01-30T04:56:00","FM-15","7",,"SE","0.25","mi","TEMP, PRECIP, SNOW",,,"MMTS, SRG, SNOWBOARD",,,"WFO CHS",,,,,,,,,,,,,,,,,,,,,,,,,,,"30.02","44","47","0.01","-RA:02 |RA |RA",,,"90","30.01","FEW:02 8 FEW:02 50 OVC:08 65","29.97","10.00","46","040",,"10",,,,,,,,,,,,,,,,,,,,,,,,,,,,,,,,,,,,,"MET12501/30/20 04:56:02 METAR KCHS 300956Z 04009KT 10SM -RA FEW008 FEW050 OVC065 08/07 A3002 RMK AO2 SLP164 P0001 T00830067 $ (KLJ)","FM-15","7",,,,,,,,,,,,,,,,,,,,,,,,,,,,"2009-06-10"
"72208013880","2020-01-30T05:56:00","FM-15","7",,"SE","0.25","mi","TEMP, PRECIP, SNOW",,,"MMTS, SRG, SNOWBOARD",,,"WFO CHS",,,,,,,,,,,,,,,,,,,,,,,,,,,"30.05","44","46","T",,,,"93","30.05","FEW:02 8 FEW:02 50 OVC:08 65","30.00","10.00","45","030",,"7",,,,,,,,,,,,,,,,,,,,,,,,,,,,,,,,,,,,,"MET12701/30/20 05:56:02 METAR KCHS 301056Z 03006KT 10SM FEW008 FEW050 OVC065 08/07 A3005 RMK AO2 RAE43 SLP175 P0000 T00780067 $ (KLJ)","FM-15","7",,,,,,,,,,,,,,,,,,,,,,,,,,,,"2009-06-10"
"72208013880","2020-01-30T06:56:00","FM-15","7",,"SE","0.25","mi","TEMP, PRECIP, SNOW",,,"MMTS, SRG, SNOWBOARD",,,"WFO CHS",,,,,,,,,,,,,,,,,,,,,,,,,,,"30.07","44","46","T",,"-0.05","3","93","30.06","SCT:04 7 SCT:04 50 BKN:07 70","30.02","10.00","45","030",,"9",,,,,,,,,,,,,,,,,,,,,,,,,,,,,,,,,,,,,"MET16001/30/20 06:56:02 METAR KCHS 301156Z 03008KT 10SM SCT007 SCT050 BKN070 08/07 A3007 RMK AO2 RAB1057E51 SLP181 60018 70020 P0000 T00780067 10083 20078 53018 (KLJ)","FM-15","7",,,,,,,,,,,,,,,,,,,,,,,,,,,,"2009-06-10"
"72208013880","2020-01-30T07:00:00","FM-12","4",,"SE","0.25","mi","TEMP, PRECIP, SNOW",,,"MMTS, SRG, SNOWBOARD",,,"WFO CHS",,,,,,,,,,,,,,,,,,,,,,,,,,,"30.07","44","46",,,"-0.05","3","93","30.06","8","30.02","9.94","45","030",,"9",,,,,,,,,,,,,,,,,,,,,,,,,,,,,,,,,,,,,"SYN09272208 12366 60308 10078 20067 30167 40181 53018 60051 91156 333 10150 20078 70051 555 93012=","FM-12","4",,,,,,,,,,,,,,,,,,,,,,,,,,,,"2009-06-10"
"72208013880","2020-01-30T07:23:00","FM-16","7",,"SE","0.25","mi","TEMP, PRECIP, SNOW",,,"MMTS, SRG, SNOWBOARD",,,"WFO CHS",,,,,,,,,,,,,,,,,,,,,,,,,,,"30.08","44","46",,,,,"93",,"BKN:07 10 OVC:08 65","30.03","10.00","45","040",,"9",,,,,,,,,,,,,,,,,,,,,,,,,,,,,,,,,,,,,"MET09901/30/20 07:23:02 SPECI KCHS 301223Z 04008KT 10SM BKN010 OVC065 08/07 A3008 RMK AO2 T00780067 (KLJ)","FM-16","7",,,,,,,,,,,,,,,,,,,,,,,,,,,,"2009-06-10"
"72208013880","2020-01-30T07:56:00","FM-15","7",,"SE","0.25","mi","TEMP, PRECIP, SNOW",,,"MMTS, SRG, SNOWBOARD",,,"WFO CHS",,,,,,,,,,,,,,,,,,,,,,,,,,,"30.09","44","46","0.00",,,,"93","30.09","BKN:07 11 BKN:07 60","30.04","10.00","45","040",,"7",,,,,,,,,,,,,,,,,,,,,,,,,,,,,,,,,,,,,"MET10601/30/20 07:56:02 METAR KCHS 301256Z 04006KT 10SM BKN011 BKN060 08/07 A3009 RMK AO2 SLP189 T00780067 (JMB)","FM-15","7",,,,,,,,,,,,,,,,,,,,,,,,,,,,"2009-06-10"
"72208013880","2020-01-30T08:11:00","FM-16","7",,"SE","0.25","mi","TEMP, PRECIP, SNOW",,,"MMTS, SRG, SNOWBOARD",,,"WFO CHS",,,,,,,,,,,,,,,,,,,,,,,,,,,"30.09","44","46",,,,,"93",,"SCT:04 10 BKN:07 60","30.04","10.00","45","030",,"10",,,,,,,,,,,,,,,,,,,,,,,,,,,,,,,,,,,,,"MET09901/30/20 08:11:02 SPECI KCHS 301311Z 03009KT 10SM SCT010 BKN060 08/07 A3009 RMK AO2 T00780067 (JMB)","FM-16","7",,,,,,,,,,,,,,,,,,,,,,,,,,,,"2009-06-10"
"72208013880","2020-01-30T08:56:00","FM-15","7",,"SE","0.25","mi","TEMP, PRECIP, SNOW",,,"MMTS, SRG, SNOWBOARD",,,"WFO CHS",,,,,,,,,,,,,,,,,,,,,,,,,,,"30.10","44","47","0.00",,,,"90","30.10","FEW:02 10 BKN:07 60","30.05","10.00","46","040",,"9",,,,,,,,,,,,,,,,,,,,,,,,,,,,,,,,,,,,,"MET10601/30/20 08:56:02 METAR KCHS 301356Z 04008KT 10SM FEW010 BKN060 08/07 A3010 RMK AO2 SLP193 T00830067 (JMB)","FM-15","7",,,,,,,,,,,,,,,,,,,,,,,,,,,,"2009-06-10"
"72208013880","2020-01-30T09:23:00","FM-16","7",,"SE","0.25","mi","TEMP, PRECIP, SNOW",,,"MMTS, SRG, SNOWBOARD",,,"WFO CHS",,,,,,,,,,,,,,,,,,,,,,,,,,,"30.13","43","47",,,,,"86",,"BKN:07 11 BKN:07 65","30.08","10.00","45","030",,"10",,,,,,,,,,,,,,,,,,,,,,,,,,,,,,,,,,,,,"MET10101/30/20 09:23:02 SPECI KCHS 301423Z 03009KT 10SM BKN011 BKN065 08/06 A3013 RMK AO2 T00830061 $ (JMB)","FM-16","7",,,,,,,,,,,,,,,,,,,,,,,,,,,,"2009-06-10"
"72208013880","2020-01-30T09:56:00","FM-15","7",,"SE","0.25","mi","TEMP, PRECIP, SNOW",,,"MMTS, SRG, SNOWBOARD",,,"WFO CHS",,,,,,,,,,,,,,,,,,,,,,,,,,,"30.14","43","48","0.00",,"-0.07","3","83","30.13","BKN:07 12 BKN:07 60","30.09","10.00","46","030",,"10",,,,,,,,,,,,,,,,,,,,,,,,,,,,,,,,,,,,,"MET11201/30/20 09:56:02 METAR KCHS 301456Z 03009KT 10SM BKN012 BKN060 09/06 A3014 RMK AO2 SLP204 T00890061 53023 (JMB)","FM-15","7",,,,,,,,,,,,,,,,,,,,,,,,,,,,"2009-06-10"
"72208013880","2020-01-30T10:00:00","FM-12","4",,"SE","0.25","mi","TEMP, PRECIP, SNOW",,,"MMTS, SRG, SNOWBOARD",,,"WFO CHS",,,,,,,,,,,,,,,,,,,,,,,,,,,"30.14","43","48",,,"-0.07","3","83","30.13","15","30.09","9.94","46","030",,"10",,,,,,,,,,,,,,,,,,,,,,,,,,,,,,,,,,,,,"SYN06472208 32466 60309 10089 20061 30190 40204 53023 91456 555 93015=","FM-12","4",,,,,,,,,,,,,,,,,,,,,,,,,,,,"2009-06-10"
"72208013880","2020-01-30T10:15:00","FM-16","7",,"SE","0.25","mi","TEMP, PRECIP, SNOW",,,"MMTS, SRG, SNOWBOARD",,,"WFO CHS",,,,,,,,,,,,,,,,,,,,,,,,,,,"30.14","44","49",,,,,"83",,"SCT:04 13 OVC:08 60","30.09","10.00","47","030",,"13",,,,,,,,,,,,,,,,,,,,,,,,,,,,,,,,,,,,,"MET10101/30/20 10:15:02 SPECI KCHS 301515Z 03011KT 10SM SCT013 OVC060 09/07 A3014 RMK AO2 T00940067 $ (JMB)","FM-16","7",,,,,,,,,,,,,,,,,,,,,,,,,,,,"2009-06-10"
"72208013880","2020-01-30T10:56:00","FM-15","7",,"SE","0.25","mi","TEMP, PRECIP, SNOW",,,"MMTS, SRG, SNOWBOARD",,,"WFO CHS",,,,,,,,,,,,,,,,,,,,,,,,,,,"30.15","42","50","0.00",,,,"74","30.15","SCT:04 13 BKN:07 60","30.10","10.00","46","030",,"11",,,,,,,,,,,,,,,,,,,,,,,,,,,,,,,,,,,,,"MET10801/30/20 10:56:02 METAR KCHS 301556Z 03010KT 10SM SCT013 BKN060 10/06 A3015 RMK AO2 SLP210 T01000056 $ (JMB)","FM-15","7",,,,,,,,,,,,,,,,,,,,,,,,,,,,"2009-06-10"
"72208013880","2020-01-30T11:56:00","FM-15","7",,"SE","0.25","mi","TEMP, PRECIP, SNOW",,,"MMTS, SRG, SNOWBOARD",,,"WFO CHS",,,,,,,,,,,,,,,,,,,,,,,,,,,"30.15","41","52","0.00",,,,"66","30.15","FEW:02 20 BKN:07 60","30.10","10.00","47","030",,"11",,,,,,,,,,,,,,,,,,,,,,,,,,,,,,,,,,,,,"MET10601/30/20 11:56:02 METAR KCHS 301656Z 03010KT 10SM FEW020 BKN060 11/05 A3015 RMK AO2 SLP209 T01110050 (JMB)","FM-15","7",,,,,,,,,,,,,,,,,,,,,,,,,,,,"2009-06-10"
"72208013880","2020-01-30T12:56:00","FM-15","7",,"SE","0.25","mi","TEMP, PRECIP, SNOW",,,"MMTS, SRG, SNOWBOARD",,,"WFO CHS",,,,,,,,,,,,,,,,,,,,,,,,,,,"30.13","41","55","0.00",,"+0.00","8","59","30.13","FEW:02 25 BKN:07 45","30.08","10.00","48","050",,"13",,,,,,,,,,,,,,,,,,,,,,,,,,,,,,,,,,,,,"MET12601/30/20 12:56:02 METAR KCHS 301756Z 05011KT 10SM FEW025 BKN045 13/05 A3013 RMK AO2 SLP204 T01280050 10133 20078 58000 $ (JMB)","FM-15","7",,,,,,,,,,,,,,,,,,,,,,,,,,,,"2009-06-10"
"72208013880","2020-01-30T13:00:00","FM-12","4",,"SE","0.25","mi","TEMP, PRECIP, SNOW",,,"MMTS, SRG, SNOWBOARD",,,"WFO CHS",,,,,,,,,,,,,,,,,,,,,,,,,,,"30.13","41","55",,,"0.00","4","59","30.13","26","30.08","9.94","48","050",,"13",,,,,,,,,,,,,,,,,,,,,,,,,,,,,,,,,,,,,"SYN08072208 32566 60511 10128 20050 30187 40204 58000 91756 333 10133 20078 555 93018=","FM-12","4",,,,,,,,,,,,,,,,,,,,,,,,,,,,"2009-06-10"
"72208013880","2020-01-30T13:56:00","FM-15","7",,"SE","0.25","mi","TEMP, PRECIP, SNOW",,,"MMTS, SRG, SNOWBOARD",,,"WFO CHS",,,,,,,,,,,,,,,,,,,,,,,,,,,"30.11","39","55","0.00",,,,"55","30.11","FEW:02 30 BKN:07 55","30.06","10.00","47","030",,"9",,,,,,,,,,,,,,,,,,,,,,,,,,,,,,,,,,,,,"MET10801/30/20 13:56:02 METAR KCHS 301856Z 03008KT 10SM FEW030 BKN055 13/04 A3011 RMK AO2 SLP197 T01280039 $ (JMB)","FM-15","7",,,,,,,,,,,,,,,,,,,,,,,,,,,,"2009-06-10"
"72208013880","2020-01-30T14:56:00","FM-15","7",,"SE","0.25","mi","TEMP, PRECIP, SNOW",,,"MMTS, SRG, SNOWBOARD",,,"WFO CHS",,,,,,,,,,,,,,,,,,,,,,,,,,,"30.11","42","56","0.00",,,,"60","30.11","FEW:02 25 BKN:07 55","30.06","10.00","49","040",,"11",,,,,,,,,,,,,,,,,,,,,,,,,,,,,,,,,,,,,"MET10601/30/20 14:56:02 METAR KCHS 301956Z 04010KT 10SM FEW025 BKN055 13/06 A3011 RMK AO2 SLP195 T01330056 (JMB)","FM-15","7",,,,,,,,,,,,,,,,,,,,,,,,,,,,"2009-06-10"
"72208013880","2020-01-30T15:56:00","FM-15","7",,"SE","0.25","mi","TEMP, PRECIP, SNOW",,,"MMTS, SRG, SNOWBOARD",,,"WFO CHS",,,,,,,,,,,,,,,,,,,,,,,,,,,"30.12","35","54","0.00",,"+0.01","5","49","30.12","SCT:04 55 SCT:04 250","30.07","10.00","45","070",,"11",,,,,,,,,,,,,,,,,,,,,,,,,,,,,,,,,,,,,"MET11401/30/20 15:56:02 METAR KCHS 302056Z 07010KT 10SM SCT055 SCT250 12/02 A3012 RMK AO2 SLP200 T01220017 55004 $ (BBE)","FM-15","7",,,,,,,,,,,,,,,,,,,,,,,,,,,,"2009-06-10"
"72208013880","2020-01-30T16:00:00","FM-12","4",,"SE","0.25","mi","TEMP, PRECIP, SNOW",,,"MMTS, SRG, SNOWBOARD",,,"WFO CHS",,,,,,,,,,,,,,,,,,,,,,,,,,,"30.12","35","54",,,"+0.01","5","49","30.12","57","30.07","9.94","45","070",,"11",,,,,,,,,,,,,,,,,,,,,,,,,,,,,,,,,,,,,"SYN06472208 32766 40710 10122 20017 30184 40200 55004 92056 555 93021=","FM-12","4",,,,,,,,,,,,,,,,,,,,,,,,,,,,"2009-06-10"
"72208013880","2020-01-30T16:56:00","FM-15","7",,"SE","0.25","mi","TEMP, PRECIP, SNOW",,,"MMTS, SRG, SNOWBOARD",,,"WFO CHS",,,,,,,,,,,,,,,,,,,,,,,,,,,"30.13","37","53","0.00",,,,"55","30.12","SCT:04 50","30.08","10.00","46","050",,"10",,,,,,,,,,,,,,,,,,,,,,,,,,,,,,,,,,,,,"MET09901/30/20 16:56:02 METAR KCHS 302156Z 05009KT 10SM SCT050 12/03 A3013 RMK AO2 SLP201 T01170028 (BBE)","FM-15","7",,,,,,,,,,,,,,,,,,,,,,,,,,,,"2009-06-10"
"72208013880","2020-01-30T17:56:00","FM-15","7",,"SE","0.25","mi","TEMP, PRECIP, SNOW",,,"MMTS, SRG, SNOWBOARD",,,"WFO CHS",,,,,,,,,,,,,,,,,,,,,,,,,,,"30.15","38","50","0.00",,,,"63","30.14","SCT:04 50","30.10","10.00","44","030",,"5",,,,,,,,,,,,,,,,,,,,,,,,,,,,,,,,,,,,,"MET09901/30/20 17:56:02 METAR KCHS 302256Z 03004KT 10SM SCT050 10/03 A3015 RMK AO2 SLP208 T01000033 (BBE)","FM-15","7",,,,,,,,,,,,,,,,,,,,,,,,,,,,"2009-06-10"
"72208013880","2020-01-30T18:56:00","FM-15","7",,"SE","0.25","mi","TEMP, PRECIP, SNOW",,,"MMTS, SRG, SNOWBOARD",,,"WFO CHS",,,,,,,,,,,,,,,,,,,,,,,,,,,"30.16","39","48","0.00",,,,"71","30.16","CLR:00","30.11","10.00","44","030",,"5",,,,,,,,,,,,,,,,,,,,,,,,,,,,,,,,,,,,,"MET10801/30/20 18:56:02 METAR KCHS 302356Z 03004KT 10SM CLR 09/04 A3016 RMK AO2 SLP212 T00890039 10133 20089 (BBE)","FM-15","7",,,,,,,,,,,,,,,,,,,,,,,,,,,,"2009-06-10"
"72208013880","2020-01-30T19:00:00","FM-12","4",,"SE","0.25","mi","TEMP, PRECIP, SNOW",,,"MMTS, SRG, SNOWBOARD",,,"WFO CHS",,,,,,,,,,,,,,,,,,,,,,,,,,,"30.16","39","48",,,,,"71","30.16",,"30.11","9.94","44","030",,"5",,,,,,,,,,,,,,,,,,,,,,,,,,,,,,,,,,,,,"SYN07472208 32966 00304 10089 20039 30197 40212 92356 333 10133 20078 555 93100=","FM-12","4",,,,,,,,,,,,,,,,,,,,,,,,,,,,"2009-06-10"
"72208013880","2020-01-30T19:56:00","FM-15","7",,"SE","0.25","mi","TEMP, PRECIP, SNOW",,,"MMTS, SRG, SNOWBOARD",,,"WFO CHS",,,,,,,,,,,,,,,,,,,,,,,,,,,"30.17","39","47","0.00",,,,"74","30.16","CLR:00","30.12","10.00","43","070",,"3",,,,,,,,,,,,,,,,,,,,,,,,,,,,,,,,,,,,,"MET09601/30/20 19:56:03 METAR KCHS 310056Z 07003KT 10SM CLR 08/04 A3017 RMK AO2 SLP215 T00830039 (BBE)","FM-15","7",,,,,,,,,,,,,,,,,,,,,,,,,,,,"2009-06-10"
"72208013880","2020-01-30T20:56:00","FM-15","7",,"SE","0.25","mi","TEMP, PRECIP, SNOW",,,"MMTS, SRG, SNOWBOARD",,,"WFO CHS",,,,,,,,,,,,,,,,,,,,,,,,,,,"30.18","39","45","0.00",,,,"80","30.18","CLR:00","30.13","10.00","42","060",,"5",,,,,,,,,,,,,,,,,,,,,,,,,,,,,,,,,,,,,"MET09601/30/20 20:56:03 METAR KCHS 310156Z 06004KT 10SM CLR 07/04 A3018 RMK AO2 SLP220 T00720039 (BBE)","FM-15","7",,,,,,,,,,,,,,,,,,,,,,,,,,,,"2009-06-10"
"72208013880","2020-01-30T21:56:00","FM-15","7",,"SE","0.25","mi","TEMP, PRECIP, SNOW",,,"MMTS, SRG, SNOWBOARD",,,"WFO CHS",,,,,,,,,,,,,,,,,,,,,,,,,,,"30.18","38","44","0.00",,"-0.02","0","79","30.18","SCT:04 250","30.13","10.00","41","040",,"7",,,,,,,,,,,,,,,,,,,,,,,,,,,,,,,,,,,,,"MET10501/30/20 21:56:03 METAR KCHS 310256Z 04006KT 10SM SCT250 07/03 A3018 RMK AO2 SLP220 T00670033 50008 (BBE)","FM-15","7",,,,,,,,,,,,,,,,,,,,,,,,,,,,"2009-06-10"
"72208013880","2020-01-30T22:00:00","FM-12","4",,"SE","0.25","mi","TEMP, PRECIP, SNOW",,,"MMTS, SRG, SNOWBOARD",,,"WFO CHS",,,,,,,,,,,,,,,,,,,,,,,,,,,"30.18","38","44",,,"0.02","9","79","30.18",,"30.13","9.94","41","040",,"7",,,,,,,,,,,,,,,,,,,,,,,,,,,,,,,,,,,,,"SYN06472208 32966 40406 10067 20033 30204 40220 50008 90256 555 93103=","FM-12","4",,,,,,,,,,,,,,,,,,,,,,,,,,,,"2009-06-10"
"72208013880","2020-01-30T22:56:00","FM-15","7",,"SE","0.25","mi","TEMP, PRECIP, SNOW",,,"MMTS, SRG, SNOWBOARD",,,"WFO CHS",,,,,,,,,,,,,,,,,,,,,,,,,,,"30.20","35","44","0.00",,,,"71","30.20","SCT:04 250","30.15","10.00","40","060",,"7",,,,,,,,,,,,,,,,,,,,,,,,,,,,,,,,,,,,,"MET09901/30/20 22:56:03 METAR KCHS 310356Z 06006KT 10SM SCT250 07/02 A3020 RMK AO2 SLP227 T00670017 (KLJ)","FM-15","7",,,,,,,,,,,,,,,,,,,,,,,,,,,,"2009-06-10"
"72208013880","2020-01-30T23:56:00","FM-15","7",,"SE","0.25","mi","TEMP, PRECIP, SNOW",,,"MMTS, SRG, SNOWBOARD",,,"WFO CHS",,,,,,,,,,,,,,,,,,,,,,,,,,,"30.20","35","43","0.00",,,,"74","30.20","SCT:04 250","30.15","10.00","40","030",,"7",,,,,,,,,,,,,,,,,,,,,,,,,,,,,,,,,,,,,"MET10901/30/20 23:56:03 METAR KCHS 310456Z 03006KT 10SM SCT250 06/02 A3020 RMK AO2 SLP227 T00610017 401330061 (KLJ)","FM-15","7",,,,,,,,,,,,,,,,,,,,,,,,,,,,"2009-06-10"
"72208013880","2020-01-30T23:59:00","SOD  ","6",,"SE","0.25","mi","TEMP, PRECIP, SNOW",,,"MMTS, SRG, SNOWBOARD",,,"WFO CHS",,,,,"50",,,"30.03",,"8.7","0","0.8","15","56","43","030","20","0.24","0","0.0","030","16","RA BR",,,,,,,,,,,,,,,,,,,,,,,,,,,,,,,,,,,,,,,,,,,,,,,,,,,,,,,,"SOD75624 HR PRECIPITATION (IN): 0.24 SNOW DEPTH (IN):0     24 HR SNOWFALL (IN):0.0  WEATHER(CODE):1  24 HR MAX TEMP (F): 5624 HR MIN TEMP (F): 43AVERAGE STATION PRESSURE:30.035 MINIMUM SEA LEVEL PRESSURE:30.00 TIME OF OCCURRENCE:0429 PEAK WIND SPEED (MPH): 20 PEAK WIND DIR (DEG): 30 PEAK WIND TIME (LST):      FASTEST 2MIN SPEED (MPH): 16FASTEST 2MIN DIR (DEG): 30 FASTEST 2MIN TIME (LST):     AVERAGE WIND SPEED (MPH): 8.7 24 HR AVG TEMP (F): 50DEPART FROM NORMAL:  1  HEATING DEGREE DAYS: 15 COOLING DEGREE DAYS:  0 LATEST DAY MAX TEMP (0700-1900 LST):56  LATEST NIGHT MIN TEMP(1900-0800 LST):46 HOURLY INCREMENTAL PRECIPITATION VALUES (IN):.07 0.07 0.05 0.04 0.01 T    T    0.00 0.00 0.00 0.00 0.00 0.00 0.00 0.00 0.00 0.00 0.00 0.00 0.00 0.00 0.00 0.00 0.00","SOD  ","6",,,,,,,,,,,,,,,,,,,,,,,,,"0717","1751",,"2009-06-10"
"72208013880","2020-01-31T00:56:00","FM-15","7",,"SE","0.25","mi","TEMP, PRECIP, SNOW",,,"MMTS, SRG, SNOWBOARD",,,"WFO CHS",,,,,,,,,,,,,,,,,,,,,,,,,,,"30.19","34","44","0.00",,"-0.01","0","68","30.19","BKN:07 250","30.14","10.00","40","050",,"9",,,,,,,,,,,,,,,,,,,,,,,,,,,,,,,,,,,,,"MET11901/31/20 00:56:02 METAR KCHS 310556Z 05008KT 10SM BKN250 07/01 A3019 RMK AO2 SLP222 T00670011 10089 20061 50002 $ (KLJ)","FM-15","7",,,,,,,,,,,,,,,,,,,,,,,,,,,,"2009-06-10"
"72208013880","2020-01-31T01:00:00","FM-12","4",,"SE","0.25","mi","TEMP, PRECIP, SNOW",,,"MMTS, SRG, SNOWBOARD",,,"WFO CHS",,,,,,,,,,,,,,,,,,,,,,,,,,,"30.19","34","44",,,"0.01","9","68","30.19",,"30.14","9.94","40","050",,"9",,,,,,,,,,,,,,,,,,,,,,,,,,,,,,,,,,,,,"SYN08072208 32966 60508 10067 20011 30207 40222 50002 90556 333 10089 20061 555 93106=","FM-12","4",,,,,,,,,,,,,,,,,,,,,,,,,,,,"2009-06-10"
"72208013880","2020-01-31T01:56:00","FM-15","7",,"SE","0.25","mi","TEMP, PRECIP, SNOW",,,"MMTS, SRG, SNOWBOARD",,,"WFO CHS",,,,,,,,,,,,,,,,,,,,,,,,,,,"30.18","34","43","0.00",,,,"71","30.18","SCT:04 70 BKN:07 250","30.13","10.00","39","030",,"9",,,,,,,,,,,,,,,,,,,,,,,,,,,,,,,,,,,,,"MET10801/31/20 01:56:02 METAR KCHS 310656Z 03008KT 10SM SCT070 BKN250 06/01 A3018 RMK AO2 SLP219 T00610011 $ (KLJ)","FM-15","7",,,,,,,,,,,,,,,,,,,,,,,,,,,,"2009-06-10"
"72208013880","2020-01-31T02:56:00","FM-15","7",,"SE","0.25","mi","TEMP, PRECIP, SNOW",,,"MMTS, SRG, SNOWBOARD",,,"WFO CHS",,,,,,,,,,,,,,,,,,,,,,,,,,,"30.17","35","44","0.00",,,,"71","30.17","BKN:07 70","30.12","10.00","40","030",,"9",,,,,,,,,,,,,,,,,,,,,,,,,,,,,,,,,,,,,"MET10101/31/20 02:56:02 METAR KCHS 310756Z 03008KT 10SM BKN070 07/02 A3017 RMK AO2 SLP217 T00670017 $ (KLJ)","FM-15","7",,,,,,,,,,,,,,,,,,,,,,,,,,,,"2009-06-10"
"72208013880","2020-01-31T03:56:00","FM-15","7",,"SE","0.25","mi","TEMP, PRECIP, SNOW",,,"MMTS, SRG, SNOWBOARD",,,"WFO CHS",,,,,,,,,,,,,,,,,,,,,,,,,,,"30.16","35","44","0.00",,"+0.02","8","71","30.16","FEW:02 60 SCT:04 70 BKN:07 250","30.11","10.00","40","060",,"9",,,,,,,,,,,,,,,,,,,,,,,,,,,,,,,,,,,,,"MET12101/31/20 03:56:02 METAR KCHS 310856Z 06008KT 10SM FEW060 SCT070 BKN250 07/02 A3016 RMK AO2 SLP214 T00670017 58008 $ (KLJ)","FM-15","7",,,,,,,,,,,,,,,,,,,,,,,,,,,,"2009-06-10"
"72208013880","2020-01-31T04:00:00","FM-12","4",,"SE","0.25","mi","TEMP, PRECIP, SNOW",,,"MMTS, SRG, SNOWBOARD",,,"WFO CHS",,,,,,,,,,,,,,,,,,,,,,,,,,,"30.16","35","44",,,"+0.02","8","71","30.16","57","30.11","9.94","40","060",,"9",,,,,,,,,,,,,,,,,,,,,,,,,,,,,,,,,,,,,"SYN06472208 32766 60608 10067 20017 30197 40214 58008 90856 555 93109=","FM-12","4",,,,,,,,,,,,,,,,,,,,,,,,,,,,"2009-06-10"
"72208013880","2020-01-31T04:56:00","FM-15","7",,"SE","0.25","mi","TEMP, PRECIP, SNOW",,,"MMTS, SRG, SNOWBOARD",,,"WFO CHS",,,,,,,,,,,,,,,,,,,,,,,,,,,"30.19","36","45","0.00",,,,"71","30.18","BKN:07 55 OVC:08 80","30.14","10.00","41","040",,"5",,,,,,,,,,,,,,,,,,,,,,,,,,,,,,,,,,,,,"MET10801/31/20 04:56:02 METAR KCHS 310956Z 04004KT 10SM BKN055 OVC080 07/02 A3019 RMK AO2 SLP221 T00720022 $ (KLJ)","FM-15","7",,,,,,,,,,,,,,,,,,,,,,,,,,,,"2009-06-10"
"72208013880","2020-01-31T05:56:00","FM-15","7",,"SE","0.25","mi","TEMP, PRECIP, SNOW",,,"MMTS, SRG, SNOWBOARD",,,"WFO CHS",,,,,,,,,,,,,,,,,,,,,,,,,,,"30.19","35","45","0.00",,,,"68","30.19","FEW:02 40 BKN:07 60 OVC:08 80","30.14","10.00","41","050",,"7",,,,,,,,,,,,,,,,,,,,,,,,,,,,,,,,,,,,,"MET11501/31/20 05:56:02 METAR KCHS 311056Z 05006KT 10SM FEW040 BKN060 OVC080 07/02 A3019 RMK AO2 SLP222 T00720017 $ (KLJ)","FM-15","7",,,,,,,,,,,,,,,,,,,,,,,,,,,,"2009-06-10"
"72208013880","2020-01-31T06:56:00","FM-15","7",,"SE","0.25","mi","TEMP, PRECIP, SNOW",,,"MMTS, SRG, SNOWBOARD",,,"WFO CHS",,,,,,,,,,,,,,,,,,,,,,,,,,,"30.18","35","43","0.00",,"-0.01","0","74","30.18","FEW:02 50 SCT:04 80 BKN:07 200","30.13","10.00","40","050",,"8",,,,,,,,,,,,,,,,,,,,,,,,,,,,,,,,,,,,,"MET13301/31/20 06:56:02 METAR KCHS 311156Z 05007KT 10SM FEW050 SCT080 BKN200 06/02 A3018 RMK AO2 SLP219 T00610017 10072 20061 50005 $ (KLJ)","FM-15","7",,,,,,,,,,,,,,,,,,,,,,,,,,,,"2009-06-10"
"72208013880","2020-01-31T07:00:00","FM-12","4",,"SE","0.25","mi","TEMP, PRECIP, SNOW",,,"MMTS, SRG, SNOWBOARD",,,"WFO CHS",,,,,,,,,,,,,,,,,,,,,,,,,,,"30.18","35","43",,,"0.01","9","74","30.18","57","30.13","9.94","40","050",,"8",,,,,,,,,,,,,,,,,,,,,,,,,,,,,,,,,,,,,"SYN08072208 32766 60507 10061 20017 30204 40219 50005 91156 333 10133 20061 555 93112=","FM-12","4",,,,,,,,,,,,,,,,,,,,,,,,,,,,"2009-06-10"
"72208013880","2020-01-31T07:56:00","FM-15","7",,"SE","0.25","mi","TEMP, PRECIP, SNOW",,,"MMTS, SRG, SNOWBOARD",,,"WFO CHS",,,,,,,,,,,,,,,,,,,,,,,,,,,"30.20","37","44","0.00",,,,"76","30.20","BKN:07 85 BKN:07 200","30.15","10.00","41","060",,"7",,,,,,,,,,,,,,,,,,,,,,,,,,,,,,,,,,,,,"MET10801/31/20 07:56:02 METAR KCHS 311256Z 06006KT 10SM BKN085 BKN200 07/03 A3020 RMK AO2 SLP226 T00670028 $ (JMB)","FM-15","7",,,,,,,,,,,,,,,,,,,,,,,,,,,,"2009-06-10"
"72208013880","2020-01-31T08:56:00","FM-15","7",,"SE","0.25","mi","TEMP, PRECIP, SNOW",,,"MMTS, SRG, SNOWBOARD",,,"WFO CHS",,,,,,,,,,,,,,,,,,,,,,,,,,,"30.21","37","44","0.00",,,,"76","30.20","FEW:02 40 SCT:04 80 BKN:07 200","30.16","10.00","41","060",,"13",,,,,,,,,,,,,,,,,,,,,,,,,,,,,,,,,,,,,"MET11301/31/20 08:56:02 METAR KCHS 311356Z 06011KT 10SM FEW040 SCT080 BKN200 07/03 A3021 RMK AO2 SLP228 T00670028 (JMB)","FM-15","7",,,,,,,,,,,,,,,,,,,,,,,,,,,,"2009-06-10"
"72208013880","2020-01-31T09:31:00","FM-16","7",,"SE","0.25","mi","TEMP, PRECIP, SNOW",,,"MMTS, SRG, SNOWBOARD",,,"WFO CHS",,,,,,,,,,,,,,,,,,,,,,,,,,,"30.21","38","45",,,,,"77",,"BKN:07 13 BKN:07 70 OVC:08 200","30.16","10.00","42","040",,"11",,,,,,,,,,,,,,,,,,,,,,,,,,,,,,,,,,,,,"MET10601/31/20 09:31:02 SPECI KCHS 311431Z 04010KT 10SM BKN013 BKN070 OVC200 07/03 A3021 RMK AO2 T00720033 (JMB)","FM-16","7",,,,,,,,,,,,,,,,,,,,,,,,,,,,"2009-06-10"
"72208013880","2020-01-31T09:56:00","FM-15","7",,"SE","0.25","mi","TEMP, PRECIP, SNOW",,,"MMTS, SRG, SNOWBOARD",,,"WFO CHS",,,,,,,,,,,,,,,,,,,,,,,,,,,"30.20","39","46","0.00",,"-0.02","0","77","30.19","BKN:07 11 OVC:08 70","30.15","10.00","43","050",,"11",,,,,,,,,,,,,,,,,,,,,,,,,,,,,,,,,,,,,"MET11201/31/20 09:56:02 METAR KCHS 311456Z 05010KT 10SM BKN011 OVC070 08/04 A3020 RMK AO2 SLP225 T00780039 50006 (JMB)","FM-15","7",,,,,,,,,,,,,,,,,,,,,,,,,,,,"2009-06-10"
"72208013880","2020-01-31T10:00:00","FM-12","4",,"SE","0.25","mi","TEMP, PRECIP, SNOW",,,"MMTS, SRG, SNOWBOARD",,,"WFO CHS",,,,,,,,,,,,,,,,,,,,,,,,,,,"30.20","39","46",,,"0.02","9","77","30.19","15","30.15","9.94","43","050",,"11",,,,,,,,,,,,,,,,,,,,,,,,,,,,,,,,,,,,,"SYN06472208 32466 80510 10078 20039 30211 40225 50006 91456 555 93115=","FM-12","4",,,,,,,,,,,,,,,,,,,,,,,,,,,,"2009-06-10"
"72208013880","2020-01-31T10:18:00","FM-16","7",,"SE","0.25","mi","TEMP, PRECIP, SNOW",,,"MMTS, SRG, SNOWBOARD",,,"WFO CHS",,,,,,,,,,,,,,,,,,,,,,,,,,,"30.19","39","47",,,,,"74",,"SCT:04 11 BKN:07 70 OVC:08 200","30.14","10.00","43","060","20","10",,,,,,,,,,,,,,,,,,,,,,,,,,,,,,,,,,,,,"MET14501/31/20 10:18:02 SPECI KCHS 311518Z 06009G17KT 10SM SCT011 BKN070 OVC200 08/04 A3019 RMK AO2 T00830039 (JMB) 08/04 A3019 RMK AO2 T00830039 (JMB)","FM-16","7",,,,,,,,,,,,,,,,,,,,,,,,,,,,"2009-06-10"
"72208013880","2020-01-31T10:56:00","FM-15","7",,"SE","0.25","mi","TEMP, PRECIP, SNOW",,,"MMTS, SRG, SNOWBOARD",,,"WFO CHS",,,,,,,,,,,,,,,,,,,,,,,,,,,"30.17","40","49","0.00",,,,"71","30.16","FEW:02 15 BKN:07 70 OVC:08 200","30.12","10.00","45","060",,"11",,,,,,,,,,,,,,,,,,,,,,,,,,,,,,,,,,,,,"MET11301/31/20 10:56:02 METAR KCHS 311556Z 06010KT 10SM FEW015 BKN070 OVC200 09/04 A3017 RMK AO2 SLP215 T00940044 (JMB)","FM-15","7",,,,,,,,,,,,,,,,,,,,,,,,,,,,"2009-06-10"
"72208013880","2020-01-31T11:27:00","FM-16","7",,"SE","0.25","mi","TEMP, PRECIP, SNOW",,,"MMTS, SRG, SNOWBOARD",,,"WFO CHS",,,,,,,,,,,,,,,,,,,,,,,,,,,"30.15","41","49",,,,,"74",,"BKN:07 17 BKN:07 25 OVC:08 70","30.10","10.00","45","050",,"10",,,,,,,,,,,,,,,,,,,,,,,,,,,,,,,,,,,,,"MET10601/31/20 11:27:02 SPECI KCHS 311627Z 05009KT 10SM BKN017 BKN025 OVC070 09/05 A3015 RMK AO2 T00940050 (JMB)","FM-16","7",,,,,,,,,,,,,,,,,,,,,,,,,,,,"2009-06-10"
"72208013880","2020-01-31T11:56:00","FM-15","7",,"SE","0.25","mi","TEMP, PRECIP, SNOW",,,"MMTS, SRG, SNOWBOARD",,,"WFO CHS",,,,,,,,,,,,,,,,,,,,,,,,,,,"30.16","41","50","T","-RA:02 |RA |RA",,,"71","30.15","BKN:07 17 OVC:08 70","30.11","10.00","46","040",,"7",,,,,,,,,,,,,,,,,,,,,,,,,,,,,,,,,,,,,"MET12201/31/20 11:56:02 METAR KCHS 311656Z 04006KT 10SM -RA BKN017 OVC070 10/05 A3016 RMK AO2 RAB50 SLP211 P0000 T01000050 (JMB)","FM-15","7",,,,,,,,,,,,,,,,,,,,,,,,,,,,"2009-06-10"
"72208013880","2020-01-31T12:47:00","FM-16","7",,"SE","0.25","mi","TEMP, PRECIP, SNOW",,,"MMTS, SRG, SNOWBOARD",,,"WFO CHS",,,,,,,,,,,,,,,,,,,,,,,,,,,"30.13","44","48","T","-RA:02 BR:1 |RA |RA",,,"86",,"BKN:07 15 OVC:08 40","30.08","2.00","46","020",,"10",,,,,,,,,,,,,,,,,,,,,,,,,,,,,,,,,,,,,"MET12801/31/20 12:47:02 SPECI KCHS 311747Z 02009KT 2SM R15/6000VP6000FT -RA BR BKN015 OVC040 09/07 A3013 RMK AO2 P0000 T00890067 (JMB)","FM-16","7",,,,,,,,,,,,,,,,,,,,,,,,,,,,"2009-06-10"
"72208013880","2020-01-31T12:52:00","FM-16","7",,"SE","0.25","mi","TEMP, PRECIP, SNOW",,,"MMTS, SRG, SNOWBOARD",,,"WFO CHS",,,,,,,,,,,,,,,,,,,,,,,,,,,"30.12","43","46","0.01","-RA:02 BR:1 |RA |RA",,,"87",,"BKN:07 15 OVC:08 40","30.07","1.00","45","020",,"11",,,,,,,,,,,,,,,,,,,,,,,,,,,,,,,,,,,,,"MET11801/31/20 12:52:02 SPECI KCHS 311752Z 02010KT 1SM R15/4000VP6000FT -RA BR BKN015 OVC040 08/06 A3012 RMK AO2 P0001 (JMB)","FM-16","7",,,,,,,,,,,,,,,,,,,,,,,,,,,,"2009-06-10"
"72208013880","2020-01-31T12:56:00","FM-15","7",,"SE","0.25","mi","TEMP, PRECIP, SNOW",,,"MMTS, SRG, SNOWBOARD",,,"WFO CHS",,,,,,,,,,,,,,,,,,,,,,,,,,,"30.12","44","47","0.02s","RA:02 BR:1 |RA |RA","+0.05","6","90","30.11","BKN:07 15 OVC:08 40","30.07","1.00","46","030",,"10",,,,,,,,,,,,,,,,,,,,,,,,,,,,,,,,,,,,,"MET15801/31/20 12:56:02 METAR KCHS 311756Z 03009KT 1SM R15/4000VP6000FT RA BR BKN015 OVC040 08/07 A3012 RMK AO2 SLP198 P0001 60001 T00830067 10100 20061 56017 (JMB)","FM-15","7",,,,,,,,,,,,,,,,,,,,,,,,,,,,"2009-06-10"
"72208013880","2020-01-31T13:00:00","FM-12","4",,"SE","0.25","mi","TEMP, PRECIP, SNOW",,,"MMTS, SRG, SNOWBOARD",,,"WFO CHS",,,,,,,,,,,,,,,,,,,,,,,,,,,"30.12","44","47",,"||RA","+0.05","6","90","30.11","15","30.07","0.99","46","030",,"10",,,,,,,,,,,,,,,,,,,,,,,,,,,,,,,,,,,,,"SYN09872208 11416 80309 10083 20067 30184 40198 56017 69931 763// 91756 333 10100 20061 96010 555 93118=","FM-12","4",,,,,,,,,,,,,,,,,,,,,,,,,,,,"2009-06-10"
"72208013880","2020-01-31T13:02:00","FM-16","7",,"SE","0.25","mi","TEMP, PRECIP, SNOW",,,"MMTS, SRG, SNOWBOARD",,,"WFO CHS",,,,,,,,,,,,,,,,,,,,,,,,,,,"30.13","44","47","0.01","-RA:02 BR:1 |RA |RA",,,"90",,"SCT:04 15 BKN:07 25 OVC:08 40","30.08","2.00","46","010",,"10",,,,,,,,,,,,,,,,,,,,,,,,,,,,,,,,,,,,,"MET14501/31/20 13:02:02 SPECI KCHS 311802Z 01009KT 2SM R15/4000VP6000FT -RA BR SCT015 BKN025 OVC040 08/07 A3013 RMK AO2 TWR VIS 3 P0001 T00830067 (JMB)","FM-16","7",,,,,,,,,,,,,,,,,,,,,,,,,,,,"2009-06-10"
"72208013880","2020-01-31T13:08:00","FM-16","7",,"SE","0.25","mi","TEMP, PRECIP, SNOW",,,"MMTS, SRG, SNOWBOARD",,,"WFO CHS",,,,,,,,,,,,,,,,,,,,,,,,,,,"30.13","44","46","0.01","-RA:02 BR:1 |RA |RA",,,"93",,"FEW:02 6 SCT:04 15 OVC:08 27","30.08","4.00","45","360",,"11",,,,,,,,,,,,,,,,,,,,,,,,,,,,,,,,,,,,,"MET13501/31/20 13:08:02 SPECI KCHS 311808Z 36010KT 4SM R15/6000VP6000FT -RA BR FEW006 SCT015 OVC027 08/07 A3013 RMK AO2 P0001 T00780067 (JMB)","FM-16","7",,,,,,,,,,,,,,,,,,,,,,,,,,,,"2009-06-10"
"72208013880","2020-01-31T13:56:00","FM-15","7",,"SE","0.25","mi","TEMP, PRECIP, SNOW",,,"MMTS, SRG, SNOWBOARD",,,"WFO CHS",,,,,,,,,,,,,,,,,,,,,,,,,,,"30.10","43","46","T","-RA:02 |RA |RA",,,"89","30.09","SCT:04 7 BKN:07 15 OVC:08 40","30.05","10.00","45","030",,"14",,,,,,,,,,,,,,,,,,,,,,,,,,,,,,,,,,,,,"MET14201/31/20 13:56:02 METAR KCHS 311856Z 03012KT 10SM -RA SCT007 BKN015 OVC040 08/06 A3010 RMK AO2 RAE14B30 SLP191 SCT V BKN P0001 T00780061 (JMB)","FM-15","7",,,,,,,,,,,,,,,,,,,,,,,,,,,,"2009-06-10"
"72208013880","2020-01-31T14:40:00","FM-16","7",,"SE","0.25","mi","TEMP, PRECIP, SNOW",,,"MMTS, SRG, SNOWBOARD",,,"WFO CHS",,,,,,,,,,,,,,,,,,,,,,,,,,,"30.06","43","46","T","-RA:02 |RA |RA",,,"89",,"BKN:07 10 OVC:08 15","30.01","10.00","45","030","21","11",,,,,,,,,,,,,,,,,,,,,,,,,,,,,,,,,,,,,"MET11201/31/20 14:40:02 SPECI KCHS 311940Z 03010G18KT 10SM -RA BKN010 OVC015 08/06 A3006 RMK AO2 P0000 T00780061 (JMB)","FM-16","7",,,,,,,,,,,,,,,,,,,,,,,,,,,,"2009-06-10"
"72208013880","2020-01-31T14:56:00","FM-15","7",,"SE","0.25","mi","TEMP, PRECIP, SNOW",,,"MMTS, SRG, SNOWBOARD",,,"WFO CHS",,,,,,,,,,,,,,,,,,,,,,,,,,,"30.07","43","45","0.01","-RA:02 |RA |RA",,,"93","30.06","BKN:07 10 OVC:08 15","30.02","7.00","44","020","18","10",,,,,,,,,,,,,,,,,,,,,,,,,,,,,,,,,,,,,"MET11801/31/20 14:56:02 METAR KCHS 311956Z 02009G16KT 7SM -RA BKN010 OVC015 07/06 A3007 RMK AO2 SLP180 P0000 T00720061 (JMB)","FM-15","7",,,,,,,,,,,,,,,,,,,,,,,,,,,,"2009-06-10"
"72208013880","2020-01-31T15:00:00","FM-16","7",,"SE","0.25","mi","TEMP, PRECIP, SNOW",,,"MMTS, SRG, SNOWBOARD",,,"WFO CHS",,,,,,,,,,,,,,,,,,,,,,,,,,,"30.07","43","45","0.01","-RA:02 |RA |RA",,,"93",,"BKN:07 9 OVC:08 15","30.02","7.00","44","020","18","8",,,,,,,,,,,,,,,,,,,,,,,,,,,,,,,,,,,,,"MET11101/31/20 15:00:02 SPECI KCHS 312000Z 02007G16KT 7SM -RA BKN009 OVC015 07/06 A3007 RMK AO2 P0001 T00720061 (BBE)","FM-16","7",,,,,,,,,,,,,,,,,,,,,,,,,,,,"2009-06-10"
"72208013880","2020-01-31T15:56:00","FM-15","7",,"SE","0.25","mi","TEMP, PRECIP, SNOW",,,"MMTS, SRG, SNOWBOARD",,,"WFO CHS",,,,,,,,,,,,,,,,,,,,,,,,,,,"30.05","43","45","0.07","RA:02 BR:1 |RA |RA","+0.07","6","93","30.04","OVC:08 7","30.00","5.00","44","040",,"10",,,,,,,,,,,,,,,,,,,,,,,,,,,,,,,,,,,,,"MET12201/31/20 15:56:02 METAR KCHS 312056Z 04009KT 5SM RA BR OVC007 07/06 A3005 RMK AO2 SLP174 P0006 60007 T00720061 56024 (BBE)","FM-15","7",,,,,,,,,,,,,,,,,,,,,,,,,,,,"2009-06-10"
"72208013880","2020-01-31T16:00:00","FM-12","4",,"SE","0.25","mi","TEMP, PRECIP, SNOW",,,"MMTS, SRG, SNOWBOARD",,,"WFO CHS",,,,,,,,,,,,,,,,,,,,,,,,,,,"30.05","43","45",,"||RA","+0.07","6","93","30.04","8","30.00","4.97","44","040",,"10",,,,,,,,,,,,,,,,,,,,,,,,,,,,,,,,,,,,,"SYN08672208 11358 80409 10072 20061 30160 40174 56024 60027 763// 92056 333 96010 555 93121=","FM-12","4",,,,,,,,,,,,,,,,,,,,,,,,,,,,"2009-06-10"
"72208013880","2020-01-31T16:56:00","FM-15","7",,"SE","0.25","mi","TEMP, PRECIP, SNOW",,,"MMTS, SRG, SNOWBOARD",,,"WFO CHS",,,,,,,,,,,,,,,,,,,,,,,,,,,"30.05","43","44","0.10","RA:02 BR:1 |RA |RA",,,"96","30.05","OVC:08 7","30.00","3.00","44","360",,"8",,,,,,,,,,,,,,,,,,,,,,,,,,,,,,,,,,,,,"MET11001/31/20 16:56:02 METAR KCHS 312156Z 36007KT 3SM RA BR OVC007 07/06 A3005 RMK AO2 SLP176 P0012 T00670061 (BBE)","FM-15","7",,,,,,,,,,,,,,,,,,,,,,,,,,,,"2009-06-10"
"72208013880","2020-01-31T17:25:00","FM-16","7",,"SE","0.25","mi","TEMP, PRECIP, SNOW",,,"MMTS, SRG, SNOWBOARD",,,"WFO CHS",,,,,,,,,,,,,,,,,,,,,,,,,,,"30.05","43","45","0.03","-RA:02 BR:1 |RA |RA",,,"93",,"BKN:07 5 BKN:07 9 OVC:08 20","30.00","4.00","44","010",,"10",,,,,,,,,,,,,,,,,,,,,,,,,,,,,,,,,,,,,"MET11801/31/20 17:25:02 SPECI KCHS 312225Z 01009KT 4SM -RA BR BKN005 BKN009 OVC020 07/06 A3005 RMK AO2 P0003 T00720061 (BBE)","FM-16","7",,,,,,,,,,,,,,,,,,,,,,,,,,,,"2009-06-10"
"72208013880","2020-01-31T17:56:00","FM-15","7",,"SE","0.25","mi","TEMP, PRECIP, SNOW",,,"MMTS, SRG, SNOWBOARD",,,"WFO CHS",,,,,,,,,,,,,,,,,,,,,,,,,,,"30.06","43","44","0.05","RA:02 BR:1 |RA |RA",,,"96","30.06","BKN:07 5 OVC:08 15","30.01","5.00","44","320",,"7",,,,,,,,,,,,,,,,,,,,,,,,,,,,,,,,,,,,,"MET12401/31/20 17:56:02 METAR KCHS 312256Z 32006KT 5SM RA BR BKN005 OVC015 07/06 A3006 RMK AO2 PRESRR SLP180 P0005 T00670061 (BBE)","FM-15","7",,,,,,,,,,,,,,,,,,,,,,,,,,,,"2009-06-10"
"72208013880","2020-01-31T18:10:00","FM-16","7",,"SE","0.25","mi","TEMP, PRECIP, SNOW",,,"MMTS, SRG, SNOWBOARD",,,"WFO CHS",,,,,,,,,,,,,,,,,,,,,,,,,,,"30.09","43","44","0.06","+RA:02 BR:1 |RA |RA",,,"96",,"OVC:08 5","30.04","2.00","44","330",,"8",,,,,,,,,,,,,,,,,,,,,,,,,,,,,,,,,,,,,"MET12101/31/20 18:10:02 SPECI KCHS 312310Z 33007KT 2SM R15/5500VP6000FT +RA BR OVC005 07/06 A3009 RMK AO2 P0006 T00670061 (BBE)","FM-16","7",,,,,,,,,,,,,,,,,,,,,,,,,,,,"2009-06-10"
"72208013880","2020-01-31T18:30:00","FM-16","7",,"SE","0.25","mi","TEMP, PRECIP, SNOW",,,"MMTS, SRG, SNOWBOARD",,,"WFO CHS",,,,,,,,,,,,,,,,,,,,,,,,,,,"30.07","43","44","0.17","+RA:02 BR:1 |RA |RA",,,"96",,"SCT:04 5 BKN:07 10 OVC:08 23","30.02","4.00","44","360",,"7",,,,,,,,,,,,,,,,,,,,,,,,,,,,,,,,,,,,,"MET11801/31/20 18:30:02 SPECI KCHS 312330Z 36006KT 4SM +RA BR SCT005 BKN010 OVC023 07/06 A3007 RMK AO2 P0017 T00670061 (BBE)","FM-16","7",,,,,,,,,,,,,,,,,,,,,,,,,,,,"2009-06-10"
"72208013880","2020-01-31T18:48:00","FM-16","7",,"SE","0.25","mi","TEMP, PRECIP, SNOW",,,"MMTS, SRG, SNOWBOARD",,,"WFO CHS",,,,,,,,,,,,,,,,,,,,,,,,,,,"30.08","42","44","0.21","RA:02 BR:1 |RA |RA",,,"93",,"BKN:07 5 OVC:08 12","30.03","5.00","43","330",,"11",,,,,,,,,,,,,,,,,,,,,,,,,,,,,,,,,,,,,"MET11001/31/20 18:48:02 SPECI KCHS 312348Z 33010KT 5SM RA BR BKN005 OVC012 07/06 A3008 RMK AO2 P0021 T00670056 (BBE)","FM-16","7",,,,,,,,,,,,,,,,,,,,,,,,,,,,"2009-06-10"
"72208013880","2020-01-31T18:56:00","FM-15","7",,"SE","0.25","mi","TEMP, PRECIP, SNOW",,,"MMTS, SRG, SNOWBOARD",,,"WFO CHS",,,,,,,,,,,,,,,,,,,,,,,,,,,"30.08","42","44","0.22","-RA:02 BR:1 |RA |RA","-0.03","3","93","30.08","BKN:07 5 OVC:08 12","30.03","5.00","43","330",,"10",,,,,,,,,,,,,,,,,,,,,,,,,,,,,,,,,,,,,"MET14201/31/20 18:56:02 METAR KCHS 312356Z 33009KT 5SM -RA BR BKN005 OVC012 07/06 A3008 RMK AO2 SLP185 P0022 60046 T00670056 10083 20067 53011 (BBE)","FM-15","7",,,,,,,,,,,,,,,,,,,,,,,,,,,,"2009-06-10"
"72208013880","2020-01-31T19:00:00","FM-12","4",,"SE","0.25","mi","TEMP, PRECIP, SNOW",,,"MMTS, SRG, SNOWBOARD",,,"WFO CHS",,,,,,,,,,,,,,,,,,,,,,,,,,,"30.08","42","44",,"||RA","-0.03","3","93","30.08","5","30.03","4.97","43","330",,"10",,,,,,,,,,,,,,,,,,,,,,,,,,,,,,,,,,,,,"SYN09872208 11258 83309 10067 20056 30170 40185 53011 60121 761// 92356 333 10100 20061 96010 555 90100=","FM-12","4",,,,,,,,,,,,,,,,,,,,,,,,,,,,"2009-06-10"
"72208013880","2020-01-31T19:15:00","FM-16","7",,"SE","0.25","mi","TEMP, PRECIP, SNOW",,,"MMTS, SRG, SNOWBOARD",,,"WFO CHS",,,,,,,,,,,,,,,,,,,,,,,,,,,"30.09","42","44","T",,,,"93",,"OVC:08 7","30.04","10.00","43","340",,"13",,,,,,,,,,,,,,,,,,,,,,,,,,,,,,,,,,,,,"MET10401/31/20 19:15:03 SPECI KCHS 010015Z 34011KT 10SM OVC007 07/06 A3009 RMK AO2 RAE12 P0000 T00670056 (BBE)","FM-16","7",,,,,,,,,,,,,,,,,,,,,,,,,,,,"2009-06-10"
"72208013880","2020-01-31T19:56:00","FM-15","7",,"SE","0.25","mi","TEMP, PRECIP, SNOW",,,"MMTS, SRG, SNOWBOARD",,,"WFO CHS",,,,,,,,,,,,,,,,,,,,,,,,,,,"30.09","41","43","0.01","-RA:02 |RA |RA",,,"93","30.09","OVC:08 7","30.04","8.00","42","340",,"13",,,,,,,,,,,,,,,,,,,,,,,,,,,,,,,,,,,,,"MET11701/31/20 19:56:03 METAR KCHS 010056Z 34011KT 8SM -RA OVC007 06/05 A3009 RMK AO2 RAE12B24 SLP188 P0001 T00610050 (BBE)","FM-15","7",,,,,,,,,,,,,,,,,,,,,,,,,,,,"2009-06-10"
"72208013880","2020-01-31T20:45:00","FM-16","7",,"SE","0.25","mi","TEMP, PRECIP, SNOW",,,"MMTS, SRG, SNOWBOARD",,,"WFO CHS",,,,,,,,,,,,,,,,,,,,,,,,,,,"30.07","41","42","0.01","-RA:02 |RA |RA",,,"96",,"OVC:08 6","30.02","9.00","42","010",,"10",,,,,,,,,,,,,,,,,,,,,,,,,,,,,,,,,,,,,"MET10101/31/20 20:45:03 SPECI KCHS 010145Z 01009KT 9SM -RA OVC006 06/05 A3007 RMK AO2 P0001 T00560050 (BBE)","FM-16","7",,,,,,,,,,,,,,,,,,,,,,,,,,,,"2009-06-10"
"72208013880","2020-01-31T20:56:00","FM-15","7",,"SE","0.25","mi","TEMP, PRECIP, SNOW",,,"MMTS, SRG, SNOWBOARD",,,"WFO CHS",,,,,,,,,,,,,,,,,,,,,,,,,,,"30.06","41","42","0.01","-RA:02 |RA |RA",,,"96","30.06","OVC:08 6","30.01","8.00","42","020",,"13",,,,,,,,,,,,,,,,,,,,,,,,,,,,,,,,,,,,,"MET10801/31/20 20:56:03 METAR KCHS 010156Z 02011KT 8SM -RA OVC006 06/05 A3006 RMK AO2 SLP178 P0001 T00560050 (BBE)","FM-15","7",,,,,,,,,,,,,,,,,,,,,,,,,,,,"2009-06-10"
"72208013880","2020-01-31T21:46:00","FM-16","7",,"SE","0.25","mi","TEMP, PRECIP, SNOW",,,"MMTS, SRG, SNOWBOARD",,,"WFO CHS",,,,,,,,,,,,,,,,,,,,,,,,,,,"30.05","41","42","T",,,,"96",,"OVC:08 8","30.00","10.00","42","010",,"8",,,,,,,,,,,,,,,,,,,,,,,,,,,,,,,,,,,,,"MET10401/31/20 21:46:03 SPECI KCHS 010246Z 01007KT 10SM OVC008 06/05 A3005 RMK AO2 RAE10 P0000 T00560050 (BBE)","FM-16","7",,,,,,,,,,,,,,,,,,,,,,,,,,,,"2009-06-10"
"72208013880","2020-01-31T21:56:00","FM-15","7",,"SE","0.25","mi","TEMP, PRECIP, SNOW",,,"MMTS, SRG, SNOWBOARD",,,"WFO CHS",,,,,,,,,,,,,,,,,,,,,,,,,,,"30.04","41","42","T",,"+0.04","8","96","30.03","OVC:08 8","29.99","10.00","42","020",,"9",,,,,,,,,,,,,,,,,,,,,,,,,,,,,,,,,,,,,"MET12301/31/20 21:56:03 METAR KCHS 010256Z 02008KT 10SM OVC008 06/05 A3004 RMK AO2 RAE10 SLP171 P0000 60002 T00560050 58014 (BBE)","FM-15","7",,,,,,,,,,,,,,,,,,,,,,,,,,,,"2009-06-10"
"72208013880","2020-01-31T22:00:00","FM-12","4",,"SE","0.25","mi","TEMP, PRECIP, SNOW",,,"MMTS, SRG, SNOWBOARD",,,"WFO CHS",,,,,,,,,,,,,,,,,,,,,,,,,,,"30.04","41","42",,,"+0.04","8","96","30.03","8","29.99","9.94","42","020",,"9",,,,,,,,,,,,,,,,,,,,,,,,,,,,,,,,,,,,,"SYN07072208 12366 80208 10056 20050 30157 40171 58014 69957 90256 555 90103=","FM-12","4",,,,,,,,,,,,,,,,,,,,,,,,,,,,"2009-06-10"
"72208013880","2020-01-31T22:56:00","FM-15","7",,"SE","0.25","mi","TEMP, PRECIP, SNOW",,,"MMTS, SRG, SNOWBOARD",,,"WFO CHS",,,,,,,,,,,,,,,,,,,,,,,,,,,"30.00","41","42","0.00",,,,"96","30.00","BKN:07 8 OVC:08 15","29.95","10.00","42","360",,"9",,,,,,,,,,,,,,,,,,,,,,,,,,,,,,,,,,,,,"MET10601/31/20 22:56:03 METAR KCHS 010356Z 36008KT 10SM BKN008 OVC015 06/05 A3000 RMK AO2 SLP159 T00560050 (ARB)","FM-15","7",,,,,,,,,,,,,,,,,,,,,,,,,,,,"2009-06-10"
"72208013880","2020-01-31T23:56:00","FM-15","7",,"SE","0.25","mi","TEMP, PRECIP, SNOW",,,"MMTS, SRG, SNOWBOARD",,,"WFO CHS",,,,,,,,,,,,,,,,,,,,,,,,,,,"30.04","41","43","T","-RA:02 |RA |RA",,,"93","30.04","OVC:08 7","29.99","9.00","42","340",,"10",,,,,,,,,,,,,,,,,,,,,,,,,,,,,,,,,,,,,"MET12401/31/20 23:56:03 METAR KCHS 010456Z 34009KT 9SM -RA OVC007 06/05 A3004 RMK AO2 RAB54 SLP173 P0000 T00610050 401000056 (ARB)","FM-15","7",,,,,,,,,,,,,,,,,,,,,,,,,,,,"2009-06-10"
"72208013880","2020-01-31T23:59:00","SOD  ","6",,"SE","0.25","mi","TEMP, PRECIP, SNOW",,,"MMTS, SRG, SNOWBOARD",,,"WFO CHS",,,,,"46",,,"30.09",,"9.6","0","-3.3","19","50","42","080","21","0.49","0","0.0","030","17","RA BR",,,,,,,,,,,,,,,,,,,,,,,,,,,,,,,,,,,,,,,,,,,,,,,,,,,,,,,,"SOD75324 HR PRECIPITATION (IN): 0.49 SNOW DEPTH (IN):0     24 HR SNOWFALL (IN):0.0  WEATHER(CODE):1  24 HR MAX TEMP (F): 5024 HR MIN TEMP (F): 42AVERAGE STATION PRESSURE:30.085 MINIMUM SEA LEVEL PRESSURE:29.99 TIME OF OCCURRENCE:2255 PEAK WIND SPEED (MPH): 21 PEAK WIND DIR (DEG): 80 PEAK WIND TIME (LST):      FASTEST 2MIN SPEED (MPH): 17FASTEST 2MIN DIR (DEG): 30 FASTEST 2MIN TIME (LST):     AVERAGE WIND SPEED (MPH): 9.6 24 HR AVG TEMP (F): 46DEPART FROM NORMAL: -3  HEATING DEGREE DAYS: 19 COOLING DEGREE DAYS:  0 LATEST DAY MAX TEMP (0700-1900 LST):50  LATEST NIGHT MIN TEMP(1900-0800 LST):43 HOURLY INCREMENTAL PRECIPITATION VALUES (IN):.00 0.00 0.00 0.00 0.00 0.00 0.00 0.00 0.00 0.00 0.00 T    0.02 T    0.01 0.07 0.10 0.05 0.22 0.01 0.01 T    0.00 T","SOD  ","6",,,,,,,,,,,,,,,,,,,,,,,,,"0716","1752",,"2009-06-10"
"72208013880","2020-01-31T23:59:00","SOM  ","6","8.9","SE","0.25","mi","TEMP, PRECIP, SNOW",,,"MMTS, SRG, SNOWBOARD",,,"WFO CHS","32","32","0",,,,,,,,,,,,,,,,,,,,,"1006","355",,,,,,,,,,,,,,,,,,,"10","5","3","0","0","0","6.3","30","-166","5.2","7.5","-2.25",,"0.49","31-31","0",,"0.0",,"30.62","17","2156","64.2","54.6","29.79","04","1556","45.0","30.17","30.12","1.46",,,"2","521","SOM792PCP MTOT:0.88 PCP GT 24HRS:0.49 DATE(S):31 DAYS W/PCP >=.01:2  DAYS W/PCP >=.10:2  DAYS W/ PCP >=.50:0 DAYS W/PCP >=1.00:0 MSDP AMTS W/DATE-TIME TAGS:MIN:5 0.07  31/1811 MIN:10 0.11  31/1816 MIN:15 0.13  31/1821 MIN:20 0.14  31/1821 MIN:30 0.18  31/1832 MIN:45 0.21  31/1839 MIN:60 0.23  31/1851 MIN:80 0.24  31/1851 MIN:100 0.25  31/1839 MIN:120 0.29  31/1839 MIN:150 0.33  31/1827 MIN:180 0.39  31/1851 AVG DLY MIN:45.0  AVG DLY MAX:64.2  AVG MLY TMP:54.6  MIN TMP:29 DATE(S):21 MAX TMP:80  DATE(S):14 DAYS MAX <=32:0 DAYS MAX >=90:0  DAYS MIN <=32:3  DAYS MIN  <=0:0  AVG STP:30.120 LWST SLP:29.78 DATE/TIME:041439 HGST SLP:30.63 DATE/TIME:172134 HDD MTH TOT:347 DEP NORM:-2553 SEASON(JUL 1-JUN 30):1002 DEP NORM:-25536 CDD MTH TOT:33 DEP NORM:-2553 SEASON(JAN 1-DEC 31):33 DEP NORM:-25536","SOM  ","6","2020-01-31 18:11","2020-01-31 18:16","2020-01-31 18:21","2020-01-31 18:21","2020-01-31 18:32","2020-01-31 18:39","2020-01-31 18:51","2020-01-31 18:51","2020-01-31 18:39","2020-01-31 18:39","2020-01-31 18:27","2020-01-31 18:51","0.07","0.11","0.13","0.14","0.18","0.21","0.23","0.24","0.25","0.29","0.33","0.39",,,,"2009-06-10"
